{"type": "FeatureCollection", "features": [{"type": "Feature", "properties": {"fid": 0, "waypoint_identifier": "LSO", "name": "LASHIO", "frequency_mhz": 116.8}, "geometry": {"type": "Point", "coordinates": [97.75421944, 22.98096389]}}, {"type": "Feature", "properties": {"fid": 1, "waypoint_identifier": "HGU", "name": "HLEGU", "frequency_mhz": 112.3}, "geometry": {"type": "Point", "coordinates": [96.251, 17.08030556]}}, {"type": "Feature", "properties": {"fid": 2, "waypoint_identifier": "STW", "name": "SITTWE", "frequency_mhz": 115.3}, "geometry": {"type": "Point", "coordinates": [92.87871111, 20.13291111]}}, {"type": "Feature", "properties": {"fid": 3, "waypoint_identifier": "KTG", "name": "KENGTUNG", "frequency_mhz": 115.6}, "geometry": {"type": "Point", "coordinates": [99.63, 21.30648333]}}, {"type": "Feature", "properties": {"fid": 4, "waypoint_identifier": "BGO", "name": "BAGO", "frequency_mhz": 112.6}, "geometry": {"type": "Point", "coordinates": [96.519875, 17.31849444]}}, {"type": "Feature", "properties": {"fid": 5, "waypoint_identifier": "HHO", "name": "HEHO", "frequency_mhz": 113.2}, "geometry": {"type": "Point", "coordinates": [96.78992778, 20.74802778]}}, {"type": "Feature", "properties": {"fid": 6, "waypoint_identifier": "TDE", "name": "THANDWE", "frequency_mhz": 113.0}, "geometry": {"type": "Point", "coordinates": [94.29576389, 18.45671389]}}, {"type": "Feature", "properties": {"fid": 7, "waypoint_identifier": "TGU", "name": "TAUNGOO", "frequency_mhz": 115.1}, "geometry": {"type": "Point", "coordinates": [96.40128333, 19.05599444]}}, {"type": "Feature", "properties": {"fid": 8, "waypoint_identifier": "MDY", "name": "MANDALAY", "frequency_mhz": 112.8}, "geometry": {"type": "Point", "coordinates": [96.12975, 21.93427778]}}, {"type": "Feature", "properties": {"fid": 9, "waypoint_identifier": "NPT", "name": "NAYPYITAW INTL", "frequency_mhz": 113.7}, "geometry": {"type": "Point", "coordinates": [96.19558333, 19.62655556]}}, {"type": "Feature", "properties": {"fid": 10, "waypoint_identifier": "MKN", "name": "MYITKYINA", "frequency_mhz": 115.7}, "geometry": {"type": "Point", "coordinates": [97.35841944, 25.38765]}}, {"type": "Feature", "properties": {"fid": 11, "waypoint_identifier": "PTN", "name": "PATHEIN", "frequency_mhz": 115.6}, "geometry": {"type": "Point", "coordinates": [94.76955, 16.80868889]}}, {"type": "Feature", "properties": {"fid": 12, "waypoint_identifier": "MIA", "name": "MANDALAY", "frequency_mhz": 116.3}, "geometry": {"type": "Point", "coordinates": [95.97901389, 21.71147222]}}, {"type": "Feature", "properties": {"fid": 13, "waypoint_identifier": "SBG", "name": "SURBUNG", "frequency_mhz": 114.7}, "geometry": {"type": "Point", "coordinates": [93.61666389, 22.92023056]}}, {"type": "Feature", "properties": {"fid": 14, "waypoint_identifier": "TCL", "name": "TACHILEIK", "frequency_mhz": 114.5}, "geometry": {"type": "Point", "coordinates": [99.93548611, 20.48364167]}}, {"type": "Feature", "properties": {"fid": 15, "waypoint_identifier": "DWI", "name": "DAWEI", "frequency_mhz": 112.0}, "geometry": {"type": "Point", "coordinates": [98.20680278, 14.10056111]}}, {"type": "Feature", "properties": {"fid": 16, "waypoint_identifier": "BGN", "name": "BAGAN", "frequency_mhz": 114.9}, "geometry": {"type": "Point", "coordinates": [94.92815278, 21.16953611]}}, {"type": "Feature", "properties": {"fid": 17, "waypoint_identifier": "ASN", "name": "ANISAKAN", "frequency_mhz": 112.7}, "geometry": {"type": "Point", "coordinates": [96.41126944, 21.96295]}}]}