{"type": "FeatureCollection", "features": [{"type": "Feature", "properties": {"fid": 0, "route_identifier": "A201", "seqno": 1, "icao_code": "VY", "waypoint_identifier": "ANSOS", "waypoint_latitude": 23.45075, "waypoint_longitude": 93.46333333, "waypoint_identifier_2": "LSO", "waypoint_latitude_2": 22.98096389, "waypoint_longitude_2": 97.75421944, "minimum_altitude1": 27000.0, "maximum_altitude": 45000.0, "inbound_distance": 238.8}, "geometry": {"type": "LineString", "coordinates": [[93.46333333, 23.45075], [97.75421944, 22.98096389]]}}, {"type": "Feature", "properties": {"fid": 1, "route_identifier": "A581", "seqno": 1, "icao_code": "VY", "waypoint_identifier": "BGO", "waypoint_latitude": 17.31849444, "waypoint_longitude": 96.519875, "waypoint_identifier_2": "BOMAS", "waypoint_latitude_2": 17.38466667, "waypoint_longitude_2": 98.09697222, "minimum_altitude1": 11000.0, "maximum_altitude": 46000.0, "inbound_distance": 90.6}, "geometry": {"type": "LineString", "coordinates": [[96.519875, 17.31849444], [98.09697222, 17.38466667]]}}, {"type": "Feature", "properties": {"fid": 2, "route_identifier": "A581", "seqno": 2, "icao_code": "VY", "waypoint_identifier": "BOMAS", "waypoint_latitude": 17.38466667, "waypoint_longitude": 98.09697222, "waypoint_identifier_2": "BIGVO", "waypoint_latitude_2": 17.475, "waypoint_longitude_2": 98.69833333, "minimum_altitude1": 11000.0, "maximum_altitude": 46000.0, "inbound_distance": 35.0}, "geometry": {"type": "LineString", "coordinates": [[98.09697222, 17.38466667], [98.69833333, 17.475]]}}, {"type": "Feature", "properties": {"fid": 3, "route_identifier": "A599", "seqno": 1, "icao_code": "VY", "waypoint_identifier": "CHILA", "waypoint_latitude": 22.38416667, "waypoint_longitude": 92.74888889, "waypoint_identifier_2": "LSO", "waypoint_latitude_2": 22.98096389, "waypoint_longitude_2": 97.75421944, "minimum_altitude1": 27000.0, "maximum_altitude": 46000.0, "inbound_distance": 280.0}, "geometry": {"type": "LineString", "coordinates": [[92.74888889, 22.38416667], [97.75421944, 22.98096389]]}}, {"type": "Feature", "properties": {"fid": 4, "route_identifier": "A599", "seqno": 2, "icao_code": "VY", "waypoint_identifier": "LINSO", "waypoint_latitude": 23.375, "waypoint_longitude": 98.91666667, "waypoint_identifier_2": "GMA", "waypoint_latitude_2": 23.52833333, "waypoint_longitude_2": 99.40833333, "minimum_altitude1": null, "maximum_altitude": null, "inbound_distance": 28.6}, "geometry": {"type": "LineString", "coordinates": [[98.91666667, 23.375], [99.40833333, 23.52833333]]}}, {"type": "Feature", "properties": {"fid": 5, "route_identifier": "A599", "seqno": 3, "icao_code": "VY", "waypoint_identifier": "LSO", "waypoint_latitude": 22.98096389, "waypoint_longitude": 97.75421944, "waypoint_identifier_2": "LINSO", "waypoint_latitude_2": 23.375, "waypoint_longitude_2": 98.91666667, "minimum_altitude1": 27000.0, "maximum_altitude": 46000.0, "inbound_distance": 68.4}, "geometry": {"type": "LineString", "coordinates": [[97.75421944, 22.98096389], [98.91666667, 23.375]]}}, {"type": "Feature", "properties": {"fid": 6, "route_identifier": "B214", "seqno": 1, "icao_code": "VY", "waypoint_identifier": "AKSAG", "waypoint_latitude": 20.81666667, "waypoint_longitude": 100.46666667, "waypoint_identifier_2": "LADON", "waypoint_latitude_2": 21.10361111, "waypoint_longitude_2": 102.96694444, "minimum_altitude1": 13000.0, "maximum_altitude": 46000.0, "inbound_distance": 141.0}, "geometry": {"type": "LineString", "coordinates": [[100.46666667, 20.81666667], [102.96694444, 21.10361111]]}}, {"type": "Feature", "properties": {"fid": 7, "route_identifier": "B463", "seqno": 1, "icao_code": "VY", "waypoint_identifier": "ASUMO", "waypoint_latitude": 20.951, "waypoint_longitude": 96.16308333, "waypoint_identifier_2": "MOXIS", "waypoint_latitude_2": 19.64729167, "waypoint_longitude_2": 96.29219722, "minimum_altitude1": 11000.0, "maximum_altitude": 45000.0, "inbound_distance": 78.3}, "geometry": {"type": "LineString", "coordinates": [[96.16308333, 20.951], [96.29219722, 19.64729167]]}}, {"type": "Feature", "properties": {"fid": 8, "route_identifier": "B463", "seqno": 2, "icao_code": "VY", "waypoint_identifier": "IKUGI", "waypoint_latitude": 18.56786111, "waypoint_longitude": 96.39644444, "waypoint_identifier_2": "BGO", "waypoint_latitude_2": 17.31849444, "waypoint_longitude_2": 96.519875, "minimum_altitude1": 11000.0, "maximum_altitude": 45000.0, "inbound_distance": 75.0}, "geometry": {"type": "LineString", "coordinates": [[96.39644444, 18.56786111], [96.519875, 17.31849444]]}}, {"type": "Feature", "properties": {"fid": 9, "route_identifier": "B463", "seqno": 3, "icao_code": "VY", "waypoint_identifier": "LSO", "waypoint_latitude": 22.98096389, "waypoint_longitude": 97.75421944, "waypoint_identifier_2": "MDY", "waypoint_latitude_2": 21.93427778, "waypoint_longitude_2": 96.12975, "minimum_altitude1": 12000.0, "maximum_altitude": 45000.0, "inbound_distance": 109.8}, "geometry": {"type": "LineString", "coordinates": [[97.75421944, 22.98096389], [96.12975, 21.93427778]]}}, {"type": "Feature", "properties": {"fid": 10, "route_identifier": "B463", "seqno": 4, "icao_code": "VY", "waypoint_identifier": "MDY", "waypoint_latitude": 21.93427778, "waypoint_longitude": 96.12975, "waypoint_identifier_2": "ASUMO", "waypoint_latitude_2": 20.951, "waypoint_longitude_2": 96.16308333, "minimum_altitude1": 11000.0, "maximum_altitude": 45000.0, "inbound_distance": 58.8}, "geometry": {"type": "LineString", "coordinates": [[96.12975, 21.93427778], [96.16308333, 20.951]]}}, {"type": "Feature", "properties": {"fid": 11, "route_identifier": "B463", "seqno": 5, "icao_code": "VY", "waypoint_identifier": "MOXIS", "waypoint_latitude": 19.64729167, "waypoint_longitude": 96.29219722, "waypoint_identifier_2": "IKUGI", "waypoint_latitude_2": 18.56786111, "waypoint_longitude_2": 96.39644444, "minimum_altitude1": 10000.0, "maximum_altitude": 45000.0, "inbound_distance": 64.8}, "geometry": {"type": "LineString", "coordinates": [[96.29219722, 19.64729167], [96.39644444, 18.56786111]]}}, {"type": "Feature", "properties": {"fid": 12, "route_identifier": "B465", "seqno": 1, "icao_code": "VY", "waypoint_identifier": "AKSAG", "waypoint_latitude": 20.81666667, "waypoint_longitude": 100.46666667, "waypoint_identifier_2": "LPB", "waypoint_latitude_2": 19.91096111, "waypoint_longitude_2": 102.17190833, "minimum_altitude1": 13000.0, "maximum_altitude": 46000.0, "inbound_distance": 110.0}, "geometry": {"type": "LineString", "coordinates": [[100.46666667, 20.81666667], [102.17190833, 19.91096111]]}}, {"type": "Feature", "properties": {"fid": 13, "route_identifier": "B465", "seqno": 2, "icao_code": "VY", "waypoint_identifier": "APAGO", "waypoint_latitude": 22.20305556, "waypoint_longitude": 92.64944444, "waypoint_identifier_2": "MDY", "waypoint_latitude_2": 21.93427778, "waypoint_longitude_2": 96.12975, "minimum_altitude1": 27000.0, "maximum_altitude": 46000.0, "inbound_distance": 194.6}, "geometry": {"type": "LineString", "coordinates": [[92.64944444, 22.20305556], [96.12975, 21.93427778]]}}, {"type": "Feature", "properties": {"fid": 14, "route_identifier": "B465", "seqno": 3, "icao_code": "VY", "waypoint_identifier": "MDY", "waypoint_latitude": 21.93427778, "waypoint_longitude": 96.12975, "waypoint_identifier_2": "AKSAG", "waypoint_latitude_2": 20.81666667, "waypoint_longitude_2": 100.46666667, "minimum_altitude1": 27000.0, "maximum_altitude": 46000.0, "inbound_distance": 252.0}, "geometry": {"type": "LineString", "coordinates": [[96.12975, 21.93427778], [100.46666667, 20.81666667]]}}, {"type": "Feature", "properties": {"fid": 15, "route_identifier": "FR1", "seqno": 1, "icao_code": "VY", "waypoint_identifier": "HGU", "waypoint_latitude": 17.08030556, "waypoint_longitude": 96.251, "waypoint_identifier_2": "HGU54", "waypoint_latitude_2": 17.85739444, "waypoint_longitude_2": 95.75294722, "minimum_altitude1": null, "maximum_altitude": 46000.0, "inbound_distance": 54.0}, "geometry": {"type": "LineString", "coordinates": [[96.251, 17.08030556], [95.75294722, 17.85739444]]}}, {"type": "Feature", "properties": {"fid": 16, "route_identifier": "FR1", "seqno": 2, "icao_code": "VY", "waypoint_identifier": "LEGOB", "waypoint_latitude": 22.01388889, "waypoint_longitude": 94.95833333, "waypoint_identifier_2": "MIA", "waypoint_latitude_2": 21.68814722, "waypoint_longitude_2": 95.98685833, "minimum_altitude1": null, "maximum_altitude": 46000.0, "inbound_distance": 60.0}, "geometry": {"type": "LineString", "coordinates": [[94.95833333, 22.01388889], [95.98685833, 21.68814722]]}}, {"type": "Feature", "properties": {"fid": 17, "route_identifier": "FR2", "seqno": 1, "icao_code": "VY", "waypoint_identifier": "HGU", "waypoint_latitude": 17.08030556, "waypoint_longitude": 96.251, "waypoint_identifier_2": "HGU52", "waypoint_latitude_2": 17.91449444, "waypoint_longitude_2": 95.95244167, "minimum_altitude1": null, "maximum_altitude": 46000.0, "inbound_distance": 52.0}, "geometry": {"type": "LineString", "coordinates": [[96.251, 17.08030556], [95.95244167, 17.91449444]]}}, {"type": "Feature", "properties": {"fid": 18, "route_identifier": "FR2", "seqno": 2, "icao_code": "VY", "waypoint_identifier": "IBONA", "waypoint_latitude": 22.35138889, "waypoint_longitude": 96.8, "waypoint_identifier_2": "MDY", "waypoint_latitude_2": 21.93427778, "waypoint_longitude_2": 96.12975, "minimum_altitude1": null, "maximum_altitude": 46000.0, "inbound_distance": 46.0}, "geometry": {"type": "LineString", "coordinates": [[96.8, 22.35138889], [96.12975, 21.93427778]]}}, {"type": "Feature", "properties": {"fid": 19, "route_identifier": "FR2", "seqno": 3, "icao_code": "VY", "waypoint_identifier": "MDY", "waypoint_latitude": 21.93427778, "waypoint_longitude": 96.12975, "waypoint_identifier_2": "MIA", "waypoint_latitude_2": 21.68814722, "waypoint_longitude_2": 95.98685833, "minimum_altitude1": null, "maximum_altitude": 46000.0, "inbound_distance": 16.0}, "geometry": {"type": "LineString", "coordinates": [[96.12975, 21.93427778], [95.98685833, 21.68814722]]}}, {"type": "Feature", "properties": {"fid": 20, "route_identifier": "FR3", "seqno": 1, "icao_code": "VY", "waypoint_identifier": "HGU", "waypoint_latitude": 17.08030556, "waypoint_longitude": 96.251, "waypoint_identifier_2": "HGU56", "waypoint_latitude_2": 16.82169722, "waypoint_longitude_2": 97.19483889, "minimum_altitude1": null, "maximum_altitude": 46000.0, "inbound_distance": 56.0}, "geometry": {"type": "LineString", "coordinates": [[96.251, 17.08030556], [97.19483889, 16.82169722]]}}, {"type": "Feature", "properties": {"fid": 21, "route_identifier": "FR3", "seqno": 2, "icao_code": "VY", "waypoint_identifier": "OROGA", "waypoint_latitude": 21.69986944, "waypoint_longitude": 97.08240556, "waypoint_identifier_2": "MIA", "waypoint_latitude_2": 21.68814722, "waypoint_longitude_2": 95.98685833, "minimum_altitude1": null, "maximum_altitude": 46000.0, "inbound_distance": 61.6}, "geometry": {"type": "LineString", "coordinates": [[97.08240556, 21.69986944], [95.98685833, 21.68814722]]}}, {"type": "Feature", "properties": {"fid": 22, "route_identifier": "FR4", "seqno": 1, "icao_code": "VY", "waypoint_identifier": "BOGIM", "waypoint_latitude": 21.13333333, "waypoint_longitude": 96.84166667, "waypoint_identifier_2": "MIA", "waypoint_latitude_2": 21.68814722, "waypoint_longitude_2": 95.98685833, "minimum_altitude1": null, "maximum_altitude": 46000.0, "inbound_distance": 60.0}, "geometry": {"type": "LineString", "coordinates": [[96.84166667, 21.13333333], [95.98685833, 21.68814722]]}}, {"type": "Feature", "properties": {"fid": 23, "route_identifier": "FR4", "seqno": 2, "icao_code": "VY", "waypoint_identifier": "HGU", "waypoint_latitude": 17.08030556, "waypoint_longitude": 96.251, "waypoint_identifier_2": "HGU60", "waypoint_latitude_2": 16.52950556, "waypoint_longitude_2": 97.11816667, "minimum_altitude1": null, "maximum_altitude": 46000.0, "inbound_distance": 60.0}, "geometry": {"type": "LineString", "coordinates": [[96.251, 17.08030556], [97.11816667, 16.52950556]]}}, {"type": "Feature", "properties": {"fid": 24, "route_identifier": "FR5", "seqno": 1, "icao_code": "VY", "waypoint_identifier": "DOGIP", "waypoint_latitude": 20.73691667, "waypoint_longitude": 96.27461111, "waypoint_identifier_2": "MIA", "waypoint_latitude_2": 21.68814722, "waypoint_longitude_2": 95.98685833, "minimum_altitude1": null, "maximum_altitude": 46000.0, "inbound_distance": 61.0}, "geometry": {"type": "LineString", "coordinates": [[96.27461111, 20.73691667], [95.98685833, 21.68814722]]}}, {"type": "Feature", "properties": {"fid": 25, "route_identifier": "FR5", "seqno": 2, "icao_code": "VY", "waypoint_identifier": "HGU", "waypoint_latitude": 17.08030556, "waypoint_longitude": 96.251, "waypoint_identifier_2": "HGU62", "waypoint_latitude_2": 16.35550278, "waypoint_longitude_2": 97.02611111, "minimum_altitude1": null, "maximum_altitude": 46000.0, "inbound_distance": 62.0}, "geometry": {"type": "LineString", "coordinates": [[96.251, 17.08030556], [97.02611111, 16.35550278]]}}, {"type": "Feature", "properties": {"fid": 26, "route_identifier": "G331", "seqno": 1, "icao_code": "VY", "waypoint_identifier": "DADSA", "waypoint_latitude": 9.12027778, "waypoint_longitude": 98.29694444, "waypoint_identifier_2": "SUSID", "waypoint_latitude_2": 8.61646111, "waypoint_longitude_2": 98.30221389, "minimum_altitude1": 7000.0, "maximum_altitude": 46000.0, "inbound_distance": 30.0}, "geometry": {"type": "LineString", "coordinates": [[98.29694444, 9.12027778], [98.30221389, 8.61646111]]}}, {"type": "Feature", "properties": {"fid": 27, "route_identifier": "G331", "seqno": 2, "icao_code": "VY", "waypoint_identifier": "DWI", "waypoint_latitude": 14.09961389, "waypoint_longitude": 98.20046111, "waypoint_identifier_2": "RENOX", "waypoint_latitude_2": 13.43344167, "waypoint_longitude_2": 98.21735833, "minimum_altitude1": 4000.0, "maximum_altitude": 40000.0, "inbound_distance": 40.0}, "geometry": {"type": "LineString", "coordinates": [[98.20046111, 14.09961389], [98.21735833, 13.43344167]]}}, {"type": "Feature", "properties": {"fid": 28, "route_identifier": "G331", "seqno": 3, "icao_code": "VY", "waypoint_identifier": "PADET", "waypoint_latitude": 10.00191667, "waypoint_longitude": 98.28869444, "waypoint_identifier_2": "DADSA", "waypoint_latitude_2": 9.12027778, "waypoint_longitude_2": 98.29694444, "minimum_altitude1": 10000.0, "maximum_altitude": 46000.0, "inbound_distance": 53.0}, "geometry": {"type": "LineString", "coordinates": [[98.28869444, 10.00191667], [98.29694444, 9.12027778]]}}, {"type": "Feature", "properties": {"fid": 29, "route_identifier": "G331", "seqno": 4, "icao_code": "VY", "waypoint_identifier": "RENOX", "waypoint_latitude": 13.43344167, "waypoint_longitude": 98.21735833, "waypoint_identifier_2": "PADET", "waypoint_latitude_2": 10.00191667, "waypoint_longitude_2": 98.28869444, "minimum_altitude1": 4000.0, "maximum_altitude": 40000.0, "inbound_distance": 205.0}, "geometry": {"type": "LineString", "coordinates": [[98.21735833, 13.43344167], [98.28869444, 10.00191667]]}}, {"type": "Feature", "properties": {"fid": 30, "route_identifier": "G458", "seqno": 1, "icao_code": "VY", "waypoint_identifier": "MENEX", "waypoint_latitude": 11.14194444, "waypoint_longitude": 99.76194444, "waypoint_identifier_2": "APRIL", "waypoint_latitude_2": 11.00194444, "waypoint_longitude_2": 99.71861111, "minimum_altitude1": 8000.0, "maximum_altitude": 46000.0, "inbound_distance": 9.0}, "geometry": {"type": "LineString", "coordinates": [[99.76194444, 11.14194444], [99.71861111, 11.00194444]]}}, {"type": "Feature", "properties": {"fid": 31, "route_identifier": "G458", "seqno": 2, "icao_code": "VY", "waypoint_identifier": "UKERA", "waypoint_latitude": 12.03534722, "waypoint_longitude": 100.01933056, "waypoint_identifier_2": "MENEX", "waypoint_latitude_2": 11.14194444, "waypoint_longitude_2": 99.76194444, "minimum_altitude1": 8000.0, "maximum_altitude": 46000.0, "inbound_distance": 55.0}, "geometry": {"type": "LineString", "coordinates": [[100.01933056, 12.03534722], [99.76194444, 11.14194444]]}}, {"type": "Feature", "properties": {"fid": 32, "route_identifier": "G463", "seqno": 1, "icao_code": "VY", "waypoint_identifier": "AVLED", "waypoint_latitude": 21.6675, "waypoint_longitude": 92.34694444, "waypoint_identifier_2": "DORLI", "waypoint_latitude_2": 19.25747778, "waypoint_longitude_2": 94.70424722, "minimum_altitude1": 11000.0, "maximum_altitude": 46000.0, "inbound_distance": 195.9}, "geometry": {"type": "LineString", "coordinates": [[92.34694444, 21.6675], [94.70424722, 19.25747778]]}}, {"type": "Feature", "properties": {"fid": 33, "route_identifier": "G463", "seqno": 2, "icao_code": "VY", "waypoint_identifier": "BETNO", "waypoint_latitude": 15.09819444, "waypoint_longitude": 98.20866667, "waypoint_identifier_2": "TARED", "waypoint_latitude_2": 14.43875556, "waypoint_longitude_2": 99.52468611, "minimum_altitude1": 10000.0, "maximum_altitude": 46000.0, "inbound_distance": 86.0}, "geometry": {"type": "LineString", "coordinates": [[98.20866667, 15.09819444], [99.52468611, 14.43875556]]}}, {"type": "Feature", "properties": {"fid": 34, "route_identifier": "G463", "seqno": 3, "icao_code": "VY", "waypoint_identifier": "BGO", "waypoint_latitude": 17.31849444, "waypoint_longitude": 96.519875, "waypoint_identifier_2": "PUMEK", "waypoint_latitude_2": 15.91805556, "waypoint_longitude_2": 97.54636111, "minimum_altitude1": 11000.0, "maximum_altitude": 46000.0, "inbound_distance": 102.5}, "geometry": {"type": "LineString", "coordinates": [[96.519875, 17.31849444], [97.54636111, 15.91805556]]}}, {"type": "Feature", "properties": {"fid": 35, "route_identifier": "G463", "seqno": 4, "icao_code": "VY", "waypoint_identifier": "DORLI", "waypoint_latitude": 19.25747778, "waypoint_longitude": 94.70424722, "waypoint_identifier_2": "NIVOG", "waypoint_latitude_2": 18.45119444, "waypoint_longitude_2": 95.44655556, "minimum_altitude1": 11000.0, "maximum_altitude": 46000.0, "inbound_distance": 64.1}, "geometry": {"type": "LineString", "coordinates": [[94.70424722, 19.25747778], [95.44655556, 18.45119444]]}}, {"type": "Feature", "properties": {"fid": 36, "route_identifier": "G463", "seqno": 5, "icao_code": "VY", "waypoint_identifier": "NIVOG", "waypoint_latitude": 18.45119444, "waypoint_longitude": 95.44655556, "waypoint_identifier_2": "BGO", "waypoint_latitude_2": 17.31849444, "waypoint_longitude_2": 96.519875, "minimum_altitude1": 11000.0, "maximum_altitude": 46000.0, "inbound_distance": 91.4}, "geometry": {"type": "LineString", "coordinates": [[95.44655556, 18.45119444], [96.519875, 17.31849444]]}}, {"type": "Feature", "properties": {"fid": 37, "route_identifier": "G463", "seqno": 6, "icao_code": "VY", "waypoint_identifier": "PUMEK", "waypoint_latitude": 15.91805556, "waypoint_longitude": 97.54636111, "waypoint_identifier_2": "BETNO", "waypoint_latitude_2": 15.09819444, "waypoint_longitude_2": 98.20866667, "minimum_altitude1": 11000.0, "maximum_altitude": 46000.0, "inbound_distance": 62.2}, "geometry": {"type": "LineString", "coordinates": [[97.54636111, 15.91805556], [98.20866667, 15.09819444]]}}, {"type": "Feature", "properties": {"fid": 38, "route_identifier": "G463", "seqno": 7, "icao_code": "VY", "waypoint_identifier": "TANAP", "waypoint_latitude": 21.94083333, "waypoint_longitude": 92.11027778, "waypoint_identifier_2": "AVLED", "waypoint_latitude_2": 21.6675, "waypoint_longitude_2": 92.34694444, "minimum_altitude1": 24500.0, "maximum_altitude": 46000.0, "inbound_distance": 20.9}, "geometry": {"type": "LineString", "coordinates": [[92.11027778, 21.94083333], [92.34694444, 21.6675]]}}, {"type": "Feature", "properties": {"fid": 39, "route_identifier": "G472", "seqno": 1, "icao_code": "VY", "waypoint_identifier": "PTN", "waypoint_latitude": 16.80868889, "waypoint_longitude": 94.76955, "waypoint_identifier_2": "BGO", "waypoint_latitude_2": 17.31849444, "waypoint_longitude_2": 96.519875, "minimum_altitude1": 11000.0, "maximum_altitude": 46000.0, "inbound_distance": 105.0}, "geometry": {"type": "LineString", "coordinates": [[94.76955, 16.80868889], [96.519875, 17.31849444]]}}, {"type": "Feature", "properties": {"fid": 40, "route_identifier": "G472", "seqno": 2, "icao_code": "VY", "waypoint_identifier": "SAGOD", "waypoint_latitude": 17.93, "waypoint_longitude": 91.99694444, "waypoint_identifier_2": "PTN", "waypoint_latitude_2": 16.80868889, "waypoint_longitude_2": 94.76955, "minimum_altitude1": 11000.0, "maximum_altitude": 46000.0, "inbound_distance": 172.6}, "geometry": {"type": "LineString", "coordinates": [[91.99694444, 17.93], [94.76955, 16.80868889]]}}, {"type": "Feature", "properties": {"fid": 41, "route_identifier": "G473", "seqno": 1, "icao_code": "VY", "waypoint_identifier": "BGO", "waypoint_latitude": 17.31849444, "waypoint_longitude": 96.519875, "waypoint_identifier_2": "LATAD", "waypoint_latitude_2": 17.00133333, "waypoint_longitude_2": 97.87963889, "minimum_altitude1": 11000.0, "maximum_altitude": 46000.0, "inbound_distance": 80.4}, "geometry": {"type": "LineString", "coordinates": [[96.519875, 17.31849444], [97.87963889, 17.00133333]]}}, {"type": "Feature", "properties": {"fid": 42, "route_identifier": "G473", "seqno": 2, "icao_code": "VY", "waypoint_identifier": "LATAD", "waypoint_latitude": 17.00133333, "waypoint_longitude": 97.87963889, "waypoint_identifier_2": "MAKAS", "waypoint_latitude_2": 16.82972222, "waypoint_longitude_2": 98.49691667, "minimum_altitude1": 11000.0, "maximum_altitude": 46000.0, "inbound_distance": 36.9}, "geometry": {"type": "LineString", "coordinates": [[97.87963889, 17.00133333], [98.49691667, 16.82972222]]}}, {"type": "Feature", "properties": {"fid": 43, "route_identifier": "G473", "seqno": 3, "icao_code": "VY", "waypoint_identifier": "MAKAS", "waypoint_latitude": 16.82972222, "waypoint_longitude": 98.49691667, "waypoint_identifier_2": "PSL", "waypoint_latitude_2": 16.77033333, "waypoint_longitude_2": 100.29136111, "minimum_altitude1": 10000.0, "maximum_altitude": 46000.0, "inbound_distance": 103.0}, "geometry": {"type": "LineString", "coordinates": [[98.49691667, 16.82972222], [100.29136111, 16.77033333]]}}, {"type": "Feature", "properties": {"fid": 44, "route_identifier": "G473", "seqno": 4, "icao_code": "VY", "waypoint_identifier": "PSL", "waypoint_latitude": 16.77033333, "waypoint_longitude": 100.29136111, "waypoint_identifier_2": "CMP", "waypoint_latitude_2": 16.63527778, "waypoint_longitude_2": 101.98888889, "minimum_altitude1": 10000.0, "maximum_altitude": 46000.0, "inbound_distance": 98.0}, "geometry": {"type": "LineString", "coordinates": [[100.29136111, 16.77033333], [101.98888889, 16.63527778]]}}, {"type": "Feature", "properties": {"fid": 45, "route_identifier": "L301", "seqno": 1, "icao_code": "VY", "waypoint_identifier": "DWI", "waypoint_latitude": 14.09961389, "waypoint_longitude": 98.20046111, "waypoint_identifier_2": "TANEK", "waypoint_latitude_2": 14.05166667, "waypoint_longitude_2": 98.97194444, "minimum_altitude1": 26000.0, "maximum_altitude": 46000.0, "inbound_distance": 44.7}, "geometry": {"type": "LineString", "coordinates": [[98.20046111, 14.09961389], [98.97194444, 14.05166667]]}}, {"type": "Feature", "properties": {"fid": 46, "route_identifier": "L301", "seqno": 2, "icao_code": "VY", "waypoint_identifier": "RINDA", "waypoint_latitude": 15.58333333, "waypoint_longitude": 92.0, "waypoint_identifier_2": "SADUS", "waypoint_latitude_2": 15.42805556, "waypoint_longitude_2": 92.63111111, "minimum_altitude1": 26000.0, "maximum_altitude": 46000.0, "inbound_distance": 37.7}, "geometry": {"type": "LineString", "coordinates": [[92.0, 15.58333333], [92.63111111, 15.42805556]]}}, {"type": "Feature", "properties": {"fid": 47, "route_identifier": "L301", "seqno": 3, "icao_code": "VY", "waypoint_identifier": "SADUS", "waypoint_latitude": 15.42805556, "waypoint_longitude": 92.63111111, "waypoint_identifier_2": "DWI", "waypoint_latitude_2": 14.09961389, "waypoint_longitude_2": 98.20046111, "minimum_altitude1": 26000.0, "maximum_altitude": 46000.0, "inbound_distance": 333.7}, "geometry": {"type": "LineString", "coordinates": [[92.63111111, 15.42805556], [98.20046111, 14.09961389]]}}, {"type": "Feature", "properties": {"fid": 48, "route_identifier": "L301", "seqno": 4, "icao_code": "VY", "waypoint_identifier": "TANEK", "waypoint_latitude": 14.05166667, "waypoint_longitude": 98.97194444, "waypoint_identifier_2": "PASTO", "waypoint_latitude_2": 14.00125, "waypoint_longitude_2": 99.50192778, "minimum_altitude1": 8000.0, "maximum_altitude": 46000.0, "inbound_distance": 31.0}, "geometry": {"type": "LineString", "coordinates": [[98.97194444, 14.05166667], [99.50192778, 14.00125]]}}, {"type": "Feature", "properties": {"fid": 49, "route_identifier": "L507", "seqno": 1, "icao_code": "VY", "waypoint_identifier": "ARATO", "waypoint_latitude": 16.36802778, "waypoint_longitude": 97.79633333, "waypoint_identifier_2": "LUDVI", "waypoint_latitude_2": 15.48034167, "waypoint_longitude_2": 98.59166667, "minimum_altitude1": 28000.0, "maximum_altitude": 46000.0, "inbound_distance": 70.2}, "geometry": {"type": "LineString", "coordinates": [[97.79633333, 16.36802778], [98.59166667, 15.48034167]]}}, {"type": "Feature", "properties": {"fid": 50, "route_identifier": "L507", "seqno": 2, "icao_code": "VY", "waypoint_identifier": "BGO", "waypoint_latitude": 17.31849444, "waypoint_longitude": 96.519875, "waypoint_identifier_2": "ARATO", "waypoint_latitude_2": 16.36802778, "waypoint_longitude_2": 97.79633333, "minimum_altitude1": 28000.0, "maximum_altitude": 46000.0, "inbound_distance": 92.8}, "geometry": {"type": "LineString", "coordinates": [[96.519875, 17.31849444], [97.79633333, 16.36802778]]}}, {"type": "Feature", "properties": {"fid": 51, "route_identifier": "L507", "seqno": 3, "icao_code": "VY", "waypoint_identifier": "LUDVI", "waypoint_latitude": 15.48034167, "waypoint_longitude": 98.59166667, "waypoint_identifier_2": "NUNLI", "waypoint_latitude_2": 14.857625, "waypoint_longitude_2": 99.38433333, "minimum_altitude1": 15000.0, "maximum_altitude": 46000.0, "inbound_distance": 59.0}, "geometry": {"type": "LineString", "coordinates": [[98.59166667, 15.48034167], [99.38433333, 14.857625]]}}, {"type": "Feature", "properties": {"fid": 52, "route_identifier": "L507", "seqno": 4, "icao_code": "VY", "waypoint_identifier": "OTADA", "waypoint_latitude": 18.30119444, "waypoint_longitude": 95.14661111, "waypoint_identifier_2": "BGO", "waypoint_latitude_2": 17.31849444, "waypoint_longitude_2": 96.519875, "minimum_altitude1": 28000.0, "maximum_altitude": 46000.0, "inbound_distance": 98.0}, "geometry": {"type": "LineString", "coordinates": [[95.14661111, 18.30119444], [96.519875, 17.31849444]]}}, {"type": "Feature", "properties": {"fid": 53, "route_identifier": "L507", "seqno": 5, "icao_code": "VY", "waypoint_identifier": "SUMSU", "waypoint_latitude": 18.57933611, "waypoint_longitude": 94.72381111, "waypoint_identifier_2": "OTADA", "waypoint_latitude_2": 18.30119444, "waypoint_longitude_2": 95.14661111, "minimum_altitude1": 28000.0, "maximum_altitude": 46000.0, "inbound_distance": 29.3}, "geometry": {"type": "LineString", "coordinates": [[94.72381111, 18.57933611], [95.14661111, 18.30119444]]}}, {"type": "Feature", "properties": {"fid": 54, "route_identifier": "L507", "seqno": 6, "icao_code": "VY", "waypoint_identifier": "TEBOV", "waypoint_latitude": 20.41777778, "waypoint_longitude": 91.99694444, "waypoint_identifier_2": "SUMSU", "waypoint_latitude_2": 18.57933611, "waypoint_longitude_2": 94.72381111, "minimum_altitude1": 28000.0, "maximum_altitude": 46000.0, "inbound_distance": 189.6}, "geometry": {"type": "LineString", "coordinates": [[91.99694444, 20.41777778], [94.72381111, 18.57933611]]}}, {"type": "Feature", "properties": {"fid": 55, "route_identifier": "L515", "seqno": 1, "icao_code": "VY", "waypoint_identifier": "IKULA", "waypoint_latitude": 10.00191667, "waypoint_longitude": 97.35388889, "waypoint_identifier_2": "OBMOG", "waypoint_latitude_2": 11.90194444, "waypoint_longitude_2": 96.39194444, "minimum_altitude1": 28000.0, "maximum_altitude": 46000.0, "inbound_distance": 127.0}, "geometry": {"type": "LineString", "coordinates": [[97.35388889, 10.00191667], [96.39194444, 11.90194444]]}}, {"type": "Feature", "properties": {"fid": 56, "route_identifier": "L524", "seqno": 1, "icao_code": "VY", "waypoint_identifier": "BORBU", "waypoint_latitude": 16.89611111, "waypoint_longitude": 92.0, "waypoint_identifier_2": "KAMKO", "waypoint_latitude_2": 16.11055556, "waypoint_longitude_2": 94.21055556, "minimum_altitude1": 28000.0, "maximum_altitude": 46000.0, "inbound_distance": 135.8}, "geometry": {"type": "LineString", "coordinates": [[92.0, 16.89611111], [94.21055556, 16.11055556]]}}, {"type": "Feature", "properties": {"fid": 57, "route_identifier": "L524", "seqno": 2, "icao_code": "VY", "waypoint_identifier": "KAKIP", "waypoint_latitude": 14.67606944, "waypoint_longitude": 97.90408611, "waypoint_identifier_2": "NURDA", "waypoint_latitude_2": 14.41416667, "waypoint_longitude_2": 98.55611111, "minimum_altitude1": 28000.0, "maximum_altitude": 46000.0, "inbound_distance": 41.0}, "geometry": {"type": "LineString", "coordinates": [[97.90408611, 14.67606944], [98.55611111, 14.41416667]]}}, {"type": "Feature", "properties": {"fid": 58, "route_identifier": "L524", "seqno": 3, "icao_code": "VY", "waypoint_identifier": "KAMKO", "waypoint_latitude": 16.11055556, "waypoint_longitude": 94.21055556, "waypoint_identifier_2": "KAKIP", "waypoint_latitude_2": 14.67606944, "waypoint_longitude_2": 97.90408611, "minimum_altitude1": 28000.0, "maximum_altitude": 46000.0, "inbound_distance": 230.6}, "geometry": {"type": "LineString", "coordinates": [[94.21055556, 16.11055556], [97.90408611, 14.67606944]]}}, {"type": "Feature", "properties": {"fid": 59, "route_identifier": "L524", "seqno": 4, "icao_code": "VY", "waypoint_identifier": "NURDA", "waypoint_latitude": 14.41416667, "waypoint_longitude": 98.55611111, "waypoint_identifier_2": "MIGAR", "waypoint_latitude_2": 14.30638889, "waypoint_longitude_2": 98.98527778, "minimum_altitude1": 10000.0, "maximum_altitude": 46000.0, "inbound_distance": 26.0}, "geometry": {"type": "LineString", "coordinates": [[98.55611111, 14.41416667], [98.98527778, 14.30638889]]}}, {"type": "Feature", "properties": {"fid": 60, "route_identifier": "L759", "seqno": 1, "icao_code": "VY", "waypoint_identifier": "ANPAN", "waypoint_latitude": 8.85444444, "waypoint_longitude": 97.62222222, "waypoint_identifier_2": "SATVA", "waypoint_latitude_2": 8.48390833, "waypoint_longitude_2": 97.96557778, "minimum_altitude1": 7000.0, "maximum_altitude": 46000.0, "inbound_distance": 30.0}, "geometry": {"type": "LineString", "coordinates": [[97.62222222, 8.85444444], [97.96557778, 8.48390833]]}}, {"type": "Feature", "properties": {"fid": 61, "route_identifier": "L759", "seqno": 2, "icao_code": "VY", "waypoint_identifier": "MIPAK", "waypoint_latitude": 11.83333333, "waypoint_longitude": 94.41666667, "waypoint_identifier_2": "TAVUN", "waypoint_latitude_2": 10.0, "waypoint_longitude_2": 96.55005556, "minimum_altitude1": 28000.0, "maximum_altitude": 46000.0, "inbound_distance": 167.0}, "geometry": {"type": "LineString", "coordinates": [[94.41666667, 11.83333333], [96.55005556, 10.0]]}}, {"type": "Feature", "properties": {"fid": 62, "route_identifier": "L759", "seqno": 3, "icao_code": "VY", "waypoint_identifier": "TAVUN", "waypoint_latitude": 10.0, "waypoint_longitude": 96.55005556, "waypoint_identifier_2": "ANPAN", "waypoint_latitude_2": 8.85444444, "waypoint_longitude_2": 97.62222222, "minimum_altitude1": 11000.0, "maximum_altitude": 46000.0, "inbound_distance": 93.0}, "geometry": {"type": "LineString", "coordinates": [[96.55005556, 10.0], [97.62222222, 8.85444444]]}}, {"type": "Feature", "properties": {"fid": 63, "route_identifier": "L877", "seqno": 1, "icao_code": "VY", "waypoint_identifier": "DWI", "waypoint_latitude": 14.09961389, "waypoint_longitude": 98.20046111, "waypoint_identifier_2": "PUMOR", "waypoint_latitude_2": 14.23888889, "waypoint_longitude_2": 98.73, "minimum_altitude1": 28000.0, "maximum_altitude": 46000.0, "inbound_distance": 31.6}, "geometry": {"type": "LineString", "coordinates": [[98.20046111, 14.09961389], [98.73, 14.23888889]]}}, {"type": "Feature", "properties": {"fid": 64, "route_identifier": "L877", "seqno": 2, "icao_code": "VY", "waypoint_identifier": "PUMOR", "waypoint_latitude": 14.23888889, "waypoint_longitude": 98.73, "waypoint_identifier_2": "MIGAR", "waypoint_latitude_2": 14.30638889, "waypoint_longitude_2": 98.98527778, "minimum_altitude1": 10000.0, "maximum_altitude": 46000.0, "inbound_distance": 15.0}, "geometry": {"type": "LineString", "coordinates": [[98.73, 14.23888889], [98.98527778, 14.30638889]]}}, {"type": "Feature", "properties": {"fid": 65, "route_identifier": "M502", "seqno": 1, "icao_code": "VY", "waypoint_identifier": "AKATO", "waypoint_latitude": 13.62111111, "waypoint_longitude": 99.17194444, "waypoint_identifier_2": "DALER", "waypoint_latitude_2": 13.49425, "waypoint_longitude_2": 98.52443333, "minimum_altitude1": 28000.0, "maximum_altitude": 46000.0, "inbound_distance": 38.6}, "geometry": {"type": "LineString", "coordinates": [[99.17194444, 13.62111111], [98.52443333, 13.49425]]}}, {"type": "Feature", "properties": {"fid": 66, "route_identifier": "M502", "seqno": 2, "icao_code": "VY", "waypoint_identifier": "DALER", "waypoint_latitude": 13.49425, "waypoint_longitude": 98.52443333, "waypoint_identifier_2": "RENOX", "waypoint_latitude_2": 13.43344167, "waypoint_longitude_2": 98.21735833, "minimum_altitude1": 28000.0, "maximum_altitude": 46000.0, "inbound_distance": 18.3}, "geometry": {"type": "LineString", "coordinates": [[98.52443333, 13.49425], [98.21735833, 13.43344167]]}}, {"type": "Feature", "properties": {"fid": 67, "route_identifier": "M502", "seqno": 3, "icao_code": "VY", "waypoint_identifier": "RENOX", "waypoint_latitude": 13.43344167, "waypoint_longitude": 98.21735833, "waypoint_identifier_2": "LALIT", "waypoint_latitude_2": 12.87333333, "waypoint_longitude_2": 95.47666667, "minimum_altitude1": 28000.0, "maximum_altitude": 46000.0, "inbound_distance": 164.0}, "geometry": {"type": "LineString", "coordinates": [[98.21735833, 13.43344167], [95.47666667, 12.87333333]]}}, {"type": "Feature", "properties": {"fid": 68, "route_identifier": "M506", "seqno": 1, "icao_code": "VY", "waypoint_identifier": "DWI", "waypoint_latitude": 14.09961389, "waypoint_longitude": 98.20046111, "waypoint_identifier_2": "KAMKO", "waypoint_latitude_2": 16.11055556, "waypoint_longitude_2": 94.21055556, "minimum_altitude1": 28000.0, "maximum_altitude": 46000.0, "inbound_distance": 261.2}, "geometry": {"type": "LineString", "coordinates": [[98.20046111, 14.09961389], [94.21055556, 16.11055556]]}}, {"type": "Feature", "properties": {"fid": 69, "route_identifier": "M626", "seqno": 1, "icao_code": "VY", "waypoint_identifier": "BGO", "waypoint_latitude": 17.31849444, "waypoint_longitude": 96.519875, "waypoint_identifier_2": "POXEM", "waypoint_latitude_2": 15.44308333, "waypoint_longitude_2": 97.49638889, "minimum_altitude1": 28000.0, "maximum_altitude": 46000.0, "inbound_distance": 125.4}, "geometry": {"type": "LineString", "coordinates": [[96.519875, 17.31849444], [97.49638889, 15.44308333]]}}, {"type": "Feature", "properties": {"fid": 70, "route_identifier": "M626", "seqno": 2, "icao_code": "VY", "waypoint_identifier": "DALER", "waypoint_latitude": 13.49425, "waypoint_longitude": 98.52443333, "waypoint_identifier_2": "EKAVO", "waypoint_latitude_2": 11.62680556, "waypoint_longitude_2": 99.50686111, "minimum_altitude1": 28000.0, "maximum_altitude": 46000.0, "inbound_distance": 125.6}, "geometry": {"type": "LineString", "coordinates": [[98.52443333, 13.49425], [99.50686111, 11.62680556]]}}, {"type": "Feature", "properties": {"fid": 71, "route_identifier": "M626", "seqno": 3, "icao_code": "VY", "waypoint_identifier": "DWI", "waypoint_latitude": 14.09961389, "waypoint_longitude": 98.20046111, "waypoint_identifier_2": "DALER", "waypoint_latitude_2": 13.49425, "waypoint_longitude_2": 98.52443333, "minimum_altitude1": 28000.0, "maximum_altitude": 46000.0, "inbound_distance": 40.7}, "geometry": {"type": "LineString", "coordinates": [[98.20046111, 14.09961389], [98.52443333, 13.49425]]}}, {"type": "Feature", "properties": {"fid": 72, "route_identifier": "M626", "seqno": 4, "icao_code": "VY", "waypoint_identifier": "EKAVO", "waypoint_latitude": 11.62680556, "waypoint_longitude": 99.50686111, "waypoint_identifier_2": "MENEX", "waypoint_latitude_2": 11.14194444, "waypoint_longitude_2": 99.76194444, "minimum_altitude1": 10000.0, "maximum_altitude": 46000.0, "inbound_distance": 33.0}, "geometry": {"type": "LineString", "coordinates": [[99.50686111, 11.62680556], [99.76194444, 11.14194444]]}}, {"type": "Feature", "properties": {"fid": 73, "route_identifier": "M626", "seqno": 5, "icao_code": "VY", "waypoint_identifier": "KAKIP", "waypoint_latitude": 14.67606944, "waypoint_longitude": 97.90408611, "waypoint_identifier_2": "DWI", "waypoint_latitude_2": 14.09961389, "waypoint_longitude_2": 98.20046111, "minimum_altitude1": 28000.0, "maximum_altitude": 46000.0, "inbound_distance": 38.6}, "geometry": {"type": "LineString", "coordinates": [[97.90408611, 14.67606944], [98.20046111, 14.09961389]]}}, {"type": "Feature", "properties": {"fid": 74, "route_identifier": "M626", "seqno": 6, "icao_code": "VY", "waypoint_identifier": "KEVAM", "waypoint_latitude": 14.94352778, "waypoint_longitude": 97.76233333, "waypoint_identifier_2": "KAKIP", "waypoint_latitude_2": 14.67606944, "waypoint_longitude_2": 97.90408611, "minimum_altitude1": 28000.0, "maximum_altitude": 46000.0, "inbound_distance": 18.0}, "geometry": {"type": "LineString", "coordinates": [[97.76233333, 14.94352778], [97.90408611, 14.67606944]]}}, {"type": "Feature", "properties": {"fid": 75, "route_identifier": "M626", "seqno": 7, "icao_code": "VY", "waypoint_identifier": "MENEX", "waypoint_latitude": 11.14194444, "waypoint_longitude": 99.76194444, "waypoint_identifier_2": "NONEL", "waypoint_latitude_2": 10.88361111, "waypoint_longitude_2": 99.89361111, "minimum_altitude1": 10000.0, "maximum_altitude": 46000.0, "inbound_distance": 17.0}, "geometry": {"type": "LineString", "coordinates": [[99.76194444, 11.14194444], [99.89361111, 10.88361111]]}}, {"type": "Feature", "properties": {"fid": 76, "route_identifier": "M626", "seqno": 8, "icao_code": "VY", "waypoint_identifier": "POXEM", "waypoint_latitude": 15.44308333, "waypoint_longitude": 97.49638889, "waypoint_identifier_2": "KEVAM", "waypoint_latitude_2": 14.94352778, "waypoint_longitude_2": 97.76233333, "minimum_altitude1": 28000.0, "maximum_altitude": 46000.0, "inbound_distance": 33.6}, "geometry": {"type": "LineString", "coordinates": [[97.49638889, 15.44308333], [97.76233333, 14.94352778]]}}, {"type": "Feature", "properties": {"fid": 77, "route_identifier": "M633", "seqno": 1, "icao_code": "VY", "waypoint_identifier": "TANEK", "waypoint_latitude": 14.05166667, "waypoint_longitude": 98.97194444, "waypoint_identifier_2": "MUBUS", "waypoint_latitude_2": 13.75833333, "waypoint_longitude_2": 100.72833333, "minimum_altitude1": 26000.0, "maximum_altitude": 46000.0, "inbound_distance": 104.0}, "geometry": {"type": "LineString", "coordinates": [[98.97194444, 14.05166667], [100.72833333, 13.75833333]]}}, {"type": "Feature", "properties": {"fid": 78, "route_identifier": "M770", "seqno": 1, "icao_code": "VY", "waypoint_identifier": "LALAT", "waypoint_latitude": 12.84694444, "waypoint_longitude": 95.41888889, "waypoint_identifier_2": "OBMOG", "waypoint_latitude_2": 11.90194444, "waypoint_longitude_2": 96.39194444, "minimum_altitude1": 28000.0, "maximum_altitude": 46000.0, "inbound_distance": 80.3}, "geometry": {"type": "LineString", "coordinates": [[95.41888889, 12.84694444], [96.39194444, 11.90194444]]}}, {"type": "Feature", "properties": {"fid": 79, "route_identifier": "M770", "seqno": 2, "icao_code": "VY", "waypoint_identifier": "MEPEL", "waypoint_latitude": 16.03333333, "waypoint_longitude": 92.0, "waypoint_identifier_2": "SADUS", "waypoint_latitude_2": 15.42805556, "waypoint_longitude_2": 92.63111111, "minimum_altitude1": 28000.0, "maximum_altitude": 46000.0, "inbound_distance": 51.4}, "geometry": {"type": "LineString", "coordinates": [[92.0, 16.03333333], [92.63111111, 15.42805556]]}}, {"type": "Feature", "properties": {"fid": 80, "route_identifier": "M770", "seqno": 3, "icao_code": "VY", "waypoint_identifier": "OBMOG", "waypoint_latitude": 11.90194444, "waypoint_longitude": 96.39194444, "waypoint_identifier_2": "PADET", "waypoint_latitude_2": 10.00191667, "waypoint_longitude_2": 98.28869444, "minimum_altitude1": 28000.0, "maximum_altitude": 46000.0, "inbound_distance": 159.4}, "geometry": {"type": "LineString", "coordinates": [[96.39194444, 11.90194444], [98.28869444, 10.00191667]]}}, {"type": "Feature", "properties": {"fid": 81, "route_identifier": "M770", "seqno": 4, "icao_code": "VY", "waypoint_identifier": "SADUS", "waypoint_latitude": 15.42805556, "waypoint_longitude": 92.63111111, "waypoint_identifier_2": "LALAT", "waypoint_latitude_2": 12.84694444, "waypoint_longitude_2": 95.41888889, "minimum_altitude1": 28000.0, "maximum_altitude": 46000.0, "inbound_distance": 224.0}, "geometry": {"type": "LineString", "coordinates": [[92.63111111, 15.42805556], [95.41888889, 12.84694444]]}}, {"type": "Feature", "properties": {"fid": 82, "route_identifier": "N895", "seqno": 1, "icao_code": "VY", "waypoint_identifier": "PTN", "waypoint_latitude": 16.80868889, "waypoint_longitude": 94.76955, "waypoint_identifier_2": "BETNO", "waypoint_latitude_2": 15.09819444, "waypoint_longitude_2": 98.20866667, "minimum_altitude1": 28000.0, "maximum_altitude": 46000.0, "inbound_distance": 223.5}, "geometry": {"type": "LineString", "coordinates": [[94.76955, 16.80868889], [98.20866667, 15.09819444]]}}, {"type": "Feature", "properties": {"fid": 83, "route_identifier": "N895", "seqno": 2, "icao_code": "VY", "waypoint_identifier": "SAGOD", "waypoint_latitude": 17.93, "waypoint_longitude": 91.99694444, "waypoint_identifier_2": "PTN", "waypoint_latitude_2": 16.80868889, "waypoint_longitude_2": 94.76955, "minimum_altitude1": 28000.0, "maximum_altitude": 46000.0, "inbound_distance": 172.6}, "geometry": {"type": "LineString", "coordinates": [[91.99694444, 17.93], [94.76955, 16.80868889]]}}, {"type": "Feature", "properties": {"fid": 84, "route_identifier": "P646", "seqno": 1, "icao_code": "VY", "waypoint_identifier": "BETNO", "waypoint_latitude": 15.09819444, "waypoint_longitude": 98.20866667, "waypoint_identifier_2": "TARED", "waypoint_latitude_2": 14.43875556, "waypoint_longitude_2": 99.52468611, "minimum_altitude1": 10000.0, "maximum_altitude": 46000.0, "inbound_distance": 86.0}, "geometry": {"type": "LineString", "coordinates": [[98.20866667, 15.09819444], [99.52468611, 14.43875556]]}}, {"type": "Feature", "properties": {"fid": 85, "route_identifier": "P646", "seqno": 2, "icao_code": "VY", "waypoint_identifier": "IBITA", "waypoint_latitude": 18.92, "waypoint_longitude": 91.99694444, "waypoint_identifier_2": "PTN", "waypoint_latitude_2": 16.80868889, "waypoint_longitude_2": 94.76955, "minimum_altitude1": 28000.0, "maximum_altitude": 46000.0, "inbound_distance": 202.7}, "geometry": {"type": "LineString", "coordinates": [[91.99694444, 18.92], [94.76955, 16.80868889]]}}, {"type": "Feature", "properties": {"fid": 86, "route_identifier": "P646", "seqno": 3, "icao_code": "VY", "waypoint_identifier": "POXEM", "waypoint_latitude": 15.44308333, "waypoint_longitude": 97.49638889, "waypoint_identifier_2": "BETNO", "waypoint_latitude_2": 15.09819444, "waypoint_longitude_2": 98.20866667, "minimum_altitude1": 28000.0, "maximum_altitude": 46000.0, "inbound_distance": 46.2}, "geometry": {"type": "LineString", "coordinates": [[97.49638889, 15.44308333], [98.20866667, 15.09819444]]}}, {"type": "Feature", "properties": {"fid": 87, "route_identifier": "P646", "seqno": 4, "icao_code": "VY", "waypoint_identifier": "PTN", "waypoint_latitude": 16.80868889, "waypoint_longitude": 94.76955, "waypoint_identifier_2": "POXEM", "waypoint_latitude_2": 15.44308333, "waypoint_longitude_2": 97.49638889, "minimum_altitude1": 28000.0, "maximum_altitude": 46000.0, "inbound_distance": 177.4}, "geometry": {"type": "LineString", "coordinates": [[94.76955, 16.80868889], [97.49638889, 15.44308333]]}}, {"type": "Feature", "properties": {"fid": 88, "route_identifier": "P762", "seqno": 1, "icao_code": "VY", "waypoint_identifier": "LALIT", "waypoint_latitude": 12.87333333, "waypoint_longitude": 95.47666667, "waypoint_identifier_2": "DWI", "waypoint_latitude_2": 14.09961389, "waypoint_longitude_2": 98.20046111, "minimum_altitude1": 28000.0, "maximum_altitude": 46000.0, "inbound_distance": 175.6}, "geometry": {"type": "LineString", "coordinates": [[95.47666667, 12.87333333], [98.20046111, 14.09961389]]}}, {"type": "Feature", "properties": {"fid": 89, "route_identifier": "P762", "seqno": 2, "icao_code": "VY", "waypoint_identifier": "LULDA", "waypoint_latitude": 12.39583333, "waypoint_longitude": 94.41666667, "waypoint_identifier_2": "LALIT", "waypoint_latitude_2": 12.87333333, "waypoint_longitude_2": 95.47666667, "minimum_altitude1": 28000.0, "maximum_altitude": 46000.0, "inbound_distance": 68.4}, "geometry": {"type": "LineString", "coordinates": [[94.41666667, 12.39583333], [95.47666667, 12.87333333]]}}, {"type": "Feature", "properties": {"fid": 90, "route_identifier": "R207", "seqno": 1, "icao_code": "VY", "waypoint_identifier": "MACHI", "waypoint_latitude": 19.21833333, "waypoint_longitude": 98.56277778, "waypoint_identifier_2": "LAMUN", "waypoint_latitude_2": 19.08698333, "waypoint_longitude_2": 98.67896111, "minimum_altitude1": 9000.0, "maximum_altitude": 46000.0, "inbound_distance": 10.0}, "geometry": {"type": "LineString", "coordinates": [[98.56277778, 19.21833333], [98.67896111, 19.08698333]]}}, {"type": "Feature", "properties": {"fid": 91, "route_identifier": "R207", "seqno": 2, "icao_code": "VY", "waypoint_identifier": "MDY", "waypoint_latitude": 21.93427778, "waypoint_longitude": 96.12975, "waypoint_identifier_2": "SISUK", "waypoint_latitude_2": 19.80113889, "waypoint_longitude_2": 98.04525, "minimum_altitude1": 12000.0, "maximum_altitude": 46000.0, "inbound_distance": 167.0}, "geometry": {"type": "LineString", "coordinates": [[96.12975, 21.93427778], [98.04525, 19.80113889]]}}, {"type": "Feature", "properties": {"fid": 92, "route_identifier": "R207", "seqno": 3, "icao_code": "VY", "waypoint_identifier": "SISUK", "waypoint_latitude": 19.80113889, "waypoint_longitude": 98.04525, "waypoint_identifier_2": "MACHI", "waypoint_latitude_2": 19.21833333, "waypoint_longitude_2": 98.56277778, "minimum_altitude1": 9000.0, "maximum_altitude": 46000.0, "inbound_distance": 46.0}, "geometry": {"type": "LineString", "coordinates": [[98.04525, 19.80113889], [98.56277778, 19.21833333]]}}, {"type": "Feature", "properties": {"fid": 93, "route_identifier": "V1", "seqno": 1, "icao_code": "VY", "waypoint_identifier": "BGO", "waypoint_latitude": 17.31849444, "waypoint_longitude": 96.519875, "waypoint_identifier_2": "HHO", "waypoint_latitude_2": 20.74802778, "waypoint_longitude_2": 96.78992778, "minimum_altitude1": 11000.0, "maximum_altitude": 23000.0, "inbound_distance": 206.0}, "geometry": {"type": "LineString", "coordinates": [[96.519875, 17.31849444], [96.78992778, 20.74802778]]}}, {"type": "Feature", "properties": {"fid": 94, "route_identifier": "V1", "seqno": 2, "icao_code": "VY", "waypoint_identifier": "HHO", "waypoint_latitude": 20.74802778, "waypoint_longitude": 96.78992778, "waypoint_identifier_2": "LSO", "waypoint_latitude_2": 22.98096389, "waypoint_longitude_2": 97.75421944, "minimum_altitude1": 11000.0, "maximum_altitude": 23000.0, "inbound_distance": 144.0}, "geometry": {"type": "LineString", "coordinates": [[96.78992778, 20.74802778], [97.75421944, 22.98096389]]}}, {"type": "Feature", "properties": {"fid": 95, "route_identifier": "V10", "seqno": 1, "icao_code": "VY", "waypoint_identifier": "MIA", "waypoint_latitude": 21.68814722, "waypoint_longitude": 95.98685833, "waypoint_identifier_2": "LSO", "waypoint_latitude_2": 22.98096389, "waypoint_longitude_2": 97.75421944, "minimum_altitude1": 9000.0, "maximum_altitude": 23000.0, "inbound_distance": 124.5}, "geometry": {"type": "LineString", "coordinates": [[95.98685833, 21.68814722], [97.75421944, 22.98096389]]}}, {"type": "Feature", "properties": {"fid": 96, "route_identifier": "V11", "seqno": 1, "icao_code": "VY", "waypoint_identifier": "MIA", "waypoint_latitude": 21.68814722, "waypoint_longitude": 95.98685833, "waypoint_identifier_2": "MKN", "waypoint_latitude_2": 25.38765, "waypoint_longitude_2": 97.35841944, "minimum_altitude1": 13000.0, "maximum_altitude": 26000.0, "inbound_distance": 232.6}, "geometry": {"type": "LineString", "coordinates": [[95.98685833, 21.68814722], [97.35841944, 25.38765]]}}, {"type": "Feature", "properties": {"fid": 97, "route_identifier": "V11", "seqno": 2, "icao_code": "VY", "waypoint_identifier": "MKN", "waypoint_latitude": 25.38765, "waypoint_longitude": 97.35841944, "waypoint_identifier_2": "PT", "waypoint_latitude_2": 27.32605, "waypoint_longitude_2": 97.42415556, "minimum_altitude1": 13000.0, "maximum_altitude": 26000.0, "inbound_distance": 116.0}, "geometry": {"type": "LineString", "coordinates": [[97.35841944, 25.38765], [97.42415556, 27.32605]]}}, {"type": "Feature", "properties": {"fid": 98, "route_identifier": "V12", "seqno": 1, "icao_code": "VY", "waypoint_identifier": "HEHOO", "waypoint_latitude": 21.35544444, "waypoint_longitude": 96.27602778, "waypoint_identifier_2": "THAZI", "waypoint_latitude_2": 21.25866667, "waypoint_longitude_2": 96.35636111, "minimum_altitude1": 10000.0, "maximum_altitude": 26000.0, "inbound_distance": 7.0}, "geometry": {"type": "LineString", "coordinates": [[96.27602778, 21.35544444], [96.35636111, 21.25866667]]}}, {"type": "Feature", "properties": {"fid": 99, "route_identifier": "V12", "seqno": 2, "icao_code": "VY", "waypoint_identifier": "HHO", "waypoint_latitude": 20.74802778, "waypoint_longitude": 96.78992778, "waypoint_identifier_2": "KG", "waypoint_latitude_2": 21.30273333, "waypoint_longitude_2": 99.63055833, "minimum_altitude1": 10000.0, "maximum_altitude": 26000.0, "inbound_distance": 162.8}, "geometry": {"type": "LineString", "coordinates": [[96.78992778, 20.74802778], [99.63055833, 21.30273333]]}}, {"type": "Feature", "properties": {"fid": 100, "route_identifier": "V12", "seqno": 3, "icao_code": "VY", "waypoint_identifier": "MIA", "waypoint_latitude": 21.68814722, "waypoint_longitude": 95.98685833, "waypoint_identifier_2": "HEHOO", "waypoint_latitude_2": 21.35544444, "waypoint_longitude_2": 96.27602778, "minimum_altitude1": 10000.0, "maximum_altitude": 26000.0, "inbound_distance": 27.0}, "geometry": {"type": "LineString", "coordinates": [[95.98685833, 21.68814722], [96.27602778, 21.35544444]]}}, {"type": "Feature", "properties": {"fid": 101, "route_identifier": "V12", "seqno": 4, "icao_code": "VY", "waypoint_identifier": "THAZI", "waypoint_latitude": 21.25866667, "waypoint_longitude": 96.35636111, "waypoint_identifier_2": "HHO", "waypoint_latitude_2": 20.74802778, "waypoint_longitude_2": 96.78992778, "minimum_altitude1": 10000.0, "maximum_altitude": 26000.0, "inbound_distance": 39.0}, "geometry": {"type": "LineString", "coordinates": [[96.35636111, 21.25866667], [96.78992778, 20.74802778]]}}, {"type": "Feature", "properties": {"fid": 102, "route_identifier": "V13", "seqno": 1, "icao_code": "VY", "waypoint_identifier": "HHO", "waypoint_latitude": 20.74802778, "waypoint_longitude": 96.78992778, "waypoint_identifier_2": "MS", "waypoint_latitude_2": 20.51704722, "waypoint_longitude_2": 99.25711389, "minimum_altitude1": 11000.0, "maximum_altitude": 26000.0, "inbound_distance": 139.5}, "geometry": {"type": "LineString", "coordinates": [[96.78992778, 20.74802778], [99.25711389, 20.51704722]]}}, {"type": "Feature", "properties": {"fid": 103, "route_identifier": "V13", "seqno": 2, "icao_code": "VY", "waypoint_identifier": "MS", "waypoint_latitude": 20.51704722, "waypoint_longitude": 99.25711389, "waypoint_identifier_2": "TCL", "waypoint_latitude_2": 20.48364167, "waypoint_longitude_2": 99.93548611, "minimum_altitude1": 11000.0, "maximum_altitude": 26000.0, "inbound_distance": 38.3}, "geometry": {"type": "LineString", "coordinates": [[99.25711389, 20.51704722], [99.93548611, 20.48364167]]}}, {"type": "Feature", "properties": {"fid": 104, "route_identifier": "V14", "seqno": 1, "icao_code": "VY", "waypoint_identifier": "HHO", "waypoint_latitude": 20.74802778, "waypoint_longitude": 96.78992778, "waypoint_identifier_2": "LK", "waypoint_latitude_2": 19.69045556, "waypoint_longitude_2": 97.213275, "minimum_altitude1": 11000.0, "maximum_altitude": 26000.0, "inbound_distance": 67.6}, "geometry": {"type": "LineString", "coordinates": [[96.78992778, 20.74802778], [97.213275, 19.69045556]]}}, {"type": "Feature", "properties": {"fid": 105, "route_identifier": "V15", "seqno": 1, "icao_code": "VY", "waypoint_identifier": "KG", "waypoint_latitude": 21.30273333, "waypoint_longitude": 99.63055833, "waypoint_identifier_2": "TCL", "waypoint_latitude_2": 20.48364167, "waypoint_longitude_2": 99.93548611, "minimum_altitude1": 11000.0, "maximum_altitude": 26000.0, "inbound_distance": 52.0}, "geometry": {"type": "LineString", "coordinates": [[99.63055833, 21.30273333], [99.93548611, 20.48364167]]}}, {"type": "Feature", "properties": {"fid": 106, "route_identifier": "V15", "seqno": 2, "icao_code": "VY", "waypoint_identifier": "MIA", "waypoint_latitude": 21.68814722, "waypoint_longitude": 95.98685833, "waypoint_identifier_2": "KG", "waypoint_latitude_2": 21.30273333, "waypoint_longitude_2": 99.63055833, "minimum_altitude1": 11000.0, "maximum_altitude": 26000.0, "inbound_distance": 205.7}, "geometry": {"type": "LineString", "coordinates": [[95.98685833, 21.68814722], [99.63055833, 21.30273333]]}}, {"type": "Feature", "properties": {"fid": 107, "route_identifier": "V16", "seqno": 1, "icao_code": "VY", "waypoint_identifier": "KG", "waypoint_latitude": 21.30273333, "waypoint_longitude": 99.63055833, "waypoint_identifier_2": "MS", "waypoint_latitude_2": 20.51704722, "waypoint_longitude_2": 99.25711389, "minimum_altitude1": 11000.0, "maximum_altitude": 26000.0, "inbound_distance": 51.4}, "geometry": {"type": "LineString", "coordinates": [[99.63055833, 21.30273333], [99.25711389, 20.51704722]]}}, {"type": "Feature", "properties": {"fid": 108, "route_identifier": "V16", "seqno": 2, "icao_code": "VY", "waypoint_identifier": "MIA", "waypoint_latitude": 21.68814722, "waypoint_longitude": 95.98685833, "waypoint_identifier_2": "KG", "waypoint_latitude_2": 21.30273333, "waypoint_longitude_2": 99.63055833, "minimum_altitude1": 11000.0, "maximum_altitude": 26000.0, "inbound_distance": 205.7}, "geometry": {"type": "LineString", "coordinates": [[95.98685833, 21.68814722], [99.63055833, 21.30273333]]}}, {"type": "Feature", "properties": {"fid": 109, "route_identifier": "V17", "seqno": 1, "icao_code": "VY", "waypoint_identifier": "BM", "waypoint_latitude": 24.26932778, "waypoint_longitude": 97.24849722, "waypoint_identifier_2": "MKN", "waypoint_latitude_2": 25.38765, "waypoint_longitude_2": 97.35841944, "minimum_altitude1": 11000.0, "maximum_altitude": 26000.0, "inbound_distance": 67.2}, "geometry": {"type": "LineString", "coordinates": [[97.24849722, 24.26932778], [97.35841944, 25.38765]]}}, {"type": "Feature", "properties": {"fid": 110, "route_identifier": "V17", "seqno": 2, "icao_code": "VY", "waypoint_identifier": "MIA", "waypoint_latitude": 21.68814722, "waypoint_longitude": 95.98685833, "waypoint_identifier_2": "BM", "waypoint_latitude_2": 24.26932778, "waypoint_longitude_2": 97.24849722, "minimum_altitude1": 11000.0, "maximum_altitude": 26000.0, "inbound_distance": 168.3}, "geometry": {"type": "LineString", "coordinates": [[95.98685833, 21.68814722], [97.24849722, 24.26932778]]}}, {"type": "Feature", "properties": {"fid": 111, "route_identifier": "V18", "seqno": 1, "icao_code": "VY", "waypoint_identifier": "NPT", "waypoint_latitude": 19.62655556, "waypoint_longitude": 96.19558333, "waypoint_identifier_2": "LK", "waypoint_latitude_2": 19.69045556, "waypoint_longitude_2": 97.213275, "minimum_altitude1": 11000.0, "maximum_altitude": 26000.0, "inbound_distance": 57.7}, "geometry": {"type": "LineString", "coordinates": [[96.19558333, 19.62655556], [97.213275, 19.69045556]]}}, {"type": "Feature", "properties": {"fid": 112, "route_identifier": "V19", "seqno": 1, "icao_code": "VY", "waypoint_identifier": "LSO", "waypoint_latitude": 22.98096389, "waypoint_longitude": 97.75421944, "waypoint_identifier_2": "TCL", "waypoint_latitude_2": 20.48364167, "waypoint_longitude_2": 99.93548611, "minimum_altitude1": 10800.0, "maximum_altitude": 26000.0, "inbound_distance": 193.0}, "geometry": {"type": "LineString", "coordinates": [[97.75421944, 22.98096389], [99.93548611, 20.48364167]]}}, {"type": "Feature", "properties": {"fid": 113, "route_identifier": "V2", "seqno": 1, "icao_code": "VY", "waypoint_identifier": "BGO", "waypoint_latitude": 17.31849444, "waypoint_longitude": 96.519875, "waypoint_identifier_2": "LSO", "waypoint_latitude_2": 22.98096389, "waypoint_longitude_2": 97.75421944, "minimum_altitude1": 12000.0, "maximum_altitude": 23000.0, "inbound_distance": 346.0}, "geometry": {"type": "LineString", "coordinates": [[96.519875, 17.31849444], [97.75421944, 22.98096389]]}}, {"type": "Feature", "properties": {"fid": 114, "route_identifier": "V3", "seqno": 1, "icao_code": "VY", "waypoint_identifier": "BGO", "waypoint_latitude": 17.31849444, "waypoint_longitude": 96.519875, "waypoint_identifier_2": "LK", "waypoint_latitude_2": 19.69045556, "waypoint_longitude_2": 97.213275, "minimum_altitude1": 11000.0, "maximum_altitude": 23000.0, "inbound_distance": 147.2}, "geometry": {"type": "LineString", "coordinates": [[96.519875, 17.31849444], [97.213275, 19.69045556]]}}, {"type": "Feature", "properties": {"fid": 115, "route_identifier": "V3", "seqno": 2, "icao_code": "VY", "waypoint_identifier": "LK", "waypoint_latitude": 19.69045556, "waypoint_longitude": 97.213275, "waypoint_identifier_2": "KG", "waypoint_latitude_2": 21.30273333, "waypoint_longitude_2": 99.63055833, "minimum_altitude1": 11000.0, "maximum_altitude": 23000.0, "inbound_distance": 166.8}, "geometry": {"type": "LineString", "coordinates": [[97.213275, 19.69045556], [99.63055833, 21.30273333]]}}, {"type": "Feature", "properties": {"fid": 116, "route_identifier": "V4", "seqno": 1, "icao_code": "VY", "waypoint_identifier": "LSO", "waypoint_latitude": 22.98096389, "waypoint_longitude": 97.75421944, "waypoint_identifier_2": "KG", "waypoint_latitude_2": 21.30273333, "waypoint_longitude_2": 99.63055833, "minimum_altitude1": 11000.0, "maximum_altitude": 23000.0, "inbound_distance": 145.0}, "geometry": {"type": "LineString", "coordinates": [[97.75421944, 22.98096389], [99.63055833, 21.30273333]]}}, {"type": "Feature", "properties": {"fid": 117, "route_identifier": "V5", "seqno": 1, "icao_code": "VY", "waypoint_identifier": "BGO", "waypoint_latitude": 17.31849444, "waypoint_longitude": 96.519875, "waypoint_identifier_2": "PA", "waypoint_latitude_2": 16.89211667, "waypoint_longitude_2": 97.67513333, "minimum_altitude1": 9000.0, "maximum_altitude": 23000.0, "inbound_distance": 71.0}, "geometry": {"type": "LineString", "coordinates": [[96.519875, 17.31849444], [97.67513333, 16.89211667]]}}, {"type": "Feature", "properties": {"fid": 118, "route_identifier": "V6", "seqno": 1, "icao_code": "VY", "waypoint_identifier": "BGO", "waypoint_latitude": 17.31849444, "waypoint_longitude": 96.519875, "waypoint_identifier_2": "MM", "waypoint_latitude_2": 16.44331944, "waypoint_longitude_2": 97.65773056, "minimum_altitude1": 10300.0, "maximum_altitude": 28000.0, "inbound_distance": 83.8}, "geometry": {"type": "LineString", "coordinates": [[96.519875, 17.31849444], [97.65773056, 16.44331944]]}}, {"type": "Feature", "properties": {"fid": 119, "route_identifier": "V6", "seqno": 2, "icao_code": "VY", "waypoint_identifier": "BOKPN", "waypoint_latitude": 11.14932222, "waypoint_longitude": 98.73621389, "waypoint_identifier_2": "KT", "waypoint_latitude_2": 10.05000833, "waypoint_longitude_2": 98.54006944, "minimum_altitude1": 10300.0, "maximum_altitude": 28000.0, "inbound_distance": 66.7}, "geometry": {"type": "LineString", "coordinates": [[98.73621389, 11.14932222], [98.54006944, 10.05000833]]}}, {"type": "Feature", "properties": {"fid": 120, "route_identifier": "V6", "seqno": 3, "icao_code": "VY", "waypoint_identifier": "DWI", "waypoint_latitude": 14.09961389, "waypoint_longitude": 98.20046111, "waypoint_identifier_2": "ME", "waypoint_latitude_2": 12.45006667, "waypoint_longitude_2": 98.61968611, "minimum_altitude1": 10300.0, "maximum_altitude": 28000.0, "inbound_distance": 101.5}, "geometry": {"type": "LineString", "coordinates": [[98.20046111, 14.09961389], [98.61968611, 12.45006667]]}}, {"type": "Feature", "properties": {"fid": 121, "route_identifier": "V6", "seqno": 4, "icao_code": "VY", "waypoint_identifier": "ME", "waypoint_latitude": 12.45006667, "waypoint_longitude": 98.61968611, "waypoint_identifier_2": "BOKPN", "waypoint_latitude_2": 11.14932222, "waypoint_longitude_2": 98.73621389, "minimum_altitude1": 10300.0, "maximum_altitude": 28000.0, "inbound_distance": 78.0}, "geometry": {"type": "LineString", "coordinates": [[98.61968611, 12.45006667], [98.73621389, 11.14932222]]}}, {"type": "Feature", "properties": {"fid": 122, "route_identifier": "V6", "seqno": 5, "icao_code": "VY", "waypoint_identifier": "MM", "waypoint_latitude": 16.44331944, "waypoint_longitude": 97.65773056, "waypoint_identifier_2": "DWI", "waypoint_latitude_2": 14.09961389, "waypoint_longitude_2": 98.20046111, "minimum_altitude1": 10300.0, "maximum_altitude": 28000.0, "inbound_distance": 143.6}, "geometry": {"type": "LineString", "coordinates": [[97.65773056, 16.44331944], [98.20046111, 14.09961389]]}}, {"type": "Feature", "properties": {"fid": 123, "route_identifier": "V7", "seqno": 1, "icao_code": "VY", "waypoint_identifier": "BGO", "waypoint_latitude": 17.31849444, "waypoint_longitude": 96.519875, "waypoint_identifier_2": "DWI", "waypoint_latitude_2": 14.09961389, "waypoint_longitude_2": 98.20046111, "minimum_altitude1": 11000.0, "maximum_altitude": 23000.0, "inbound_distance": 215.6}, "geometry": {"type": "LineString", "coordinates": [[96.519875, 17.31849444], [98.20046111, 14.09961389]]}}, {"type": "Feature", "properties": {"fid": 124, "route_identifier": "V8", "seqno": 1, "icao_code": "VY", "waypoint_identifier": "BGO", "waypoint_latitude": 17.31849444, "waypoint_longitude": 96.519875, "waypoint_identifier_2": "ME", "waypoint_latitude_2": 12.45006667, "waypoint_longitude_2": 98.61968611, "minimum_altitude1": 11000.0, "maximum_altitude": 26000.0, "inbound_distance": 315.4}, "geometry": {"type": "LineString", "coordinates": [[96.519875, 17.31849444], [98.61968611, 12.45006667]]}}, {"type": "Feature", "properties": {"fid": 125, "route_identifier": "V9", "seqno": 1, "icao_code": "VY", "waypoint_identifier": "BGO", "waypoint_latitude": 17.31849444, "waypoint_longitude": 96.519875, "waypoint_identifier_2": "KT", "waypoint_latitude_2": 10.05000833, "waypoint_longitude_2": 98.54006944, "minimum_altitude1": 11000.0, "maximum_altitude": 28000.0, "inbound_distance": 449.9}, "geometry": {"type": "LineString", "coordinates": [[96.519875, 17.31849444], [98.54006944, 10.05000833]]}}, {"type": "Feature", "properties": {"fid": 126, "route_identifier": "W1", "seqno": 1, "icao_code": "VY", "waypoint_identifier": "BGO", "waypoint_latitude": 17.31849444, "waypoint_longitude": 96.519875, "waypoint_identifier_2": "MIA", "waypoint_latitude_2": 21.68814722, "waypoint_longitude_2": 95.98685833, "minimum_altitude1": 11000.0, "maximum_altitude": 28000.0, "inbound_distance": 264.4}, "geometry": {"type": "LineString", "coordinates": [[96.519875, 17.31849444], [95.98685833, 21.68814722]]}}, {"type": "Feature", "properties": {"fid": 127, "route_identifier": "W10", "seqno": 1, "icao_code": "VY", "waypoint_identifier": "MIA", "waypoint_latitude": 21.68814722, "waypoint_longitude": 95.98685833, "waypoint_identifier_2": "KL", "waypoint_latitude_2": 23.18873333, "waypoint_longitude_2": 94.05850278, "minimum_altitude1": 11000.0, "maximum_altitude": 26000.0, "inbound_distance": 138.4}, "geometry": {"type": "LineString", "coordinates": [[95.98685833, 21.68814722], [94.05850278, 23.18873333]]}}, {"type": "Feature", "properties": {"fid": 128, "route_identifier": "W11", "seqno": 1, "icao_code": "VY", "waypoint_identifier": "MIA", "waypoint_latitude": 21.68814722, "waypoint_longitude": 95.98685833, "waypoint_identifier_2": "KI", "waypoint_latitude_2": 25.99050556, "waypoint_longitude_2": 95.67839722, "minimum_altitude1": 11000.0, "maximum_altitude": 23000.0, "inbound_distance": 256.4}, "geometry": {"type": "LineString", "coordinates": [[95.98685833, 21.68814722], [95.67839722, 25.99050556]]}}, {"type": "Feature", "properties": {"fid": 129, "route_identifier": "W12", "seqno": 1, "icao_code": "VY", "waypoint_identifier": "MW", "waypoint_latitude": 20.16118333, "waypoint_longitude": 94.97473333, "waypoint_identifier_2": "AN", "waypoint_latitude_2": 19.7799, "waypoint_longitude_2": 94.02815, "minimum_altitude1": 6500.0, "maximum_altitude": 23000.0, "inbound_distance": 58.3}, "geometry": {"type": "LineString", "coordinates": [[94.97473333, 20.16118333], [94.02815, 19.7799]]}}, {"type": "Feature", "properties": {"fid": 130, "route_identifier": "W13", "seqno": 1, "icao_code": "VY", "waypoint_identifier": "BGO", "waypoint_latitude": 17.31849444, "waypoint_longitude": 96.519875, "waypoint_identifier_2": "NPT", "waypoint_latitude_2": 19.62655556, "waypoint_longitude_2": 96.19558333, "minimum_altitude1": 11000.0, "maximum_altitude": 26000.0, "inbound_distance": 139.2}, "geometry": {"type": "LineString", "coordinates": [[96.519875, 17.31849444], [96.19558333, 19.62655556]]}}, {"type": "Feature", "properties": {"fid": 131, "route_identifier": "W13", "seqno": 2, "icao_code": "VY", "waypoint_identifier": "NPT", "waypoint_latitude": 19.62655556, "waypoint_longitude": 96.19558333, "waypoint_identifier_2": "MIA", "waypoint_latitude_2": 21.68814722, "waypoint_longitude_2": 95.98685833, "minimum_altitude1": 11000.0, "maximum_altitude": 26000.0, "inbound_distance": 125.2}, "geometry": {"type": "LineString", "coordinates": [[96.19558333, 19.62655556], [95.98685833, 21.68814722]]}}, {"type": "Feature", "properties": {"fid": 132, "route_identifier": "W14", "seqno": 1, "icao_code": "VY", "waypoint_identifier": "BITAL", "waypoint_latitude": 19.03343056, "waypoint_longitude": 94.42807778, "waypoint_identifier_2": "BGN", "waypoint_latitude_2": 21.16953611, "waypoint_longitude_2": 94.92815278, "minimum_altitude1": 11000.0, "maximum_altitude": 24000.0, "inbound_distance": 130.8}, "geometry": {"type": "LineString", "coordinates": [[94.42807778, 19.03343056], [94.92815278, 21.16953611]]}}, {"type": "Feature", "properties": {"fid": 133, "route_identifier": "W14", "seqno": 2, "icao_code": "VY", "waypoint_identifier": "TDE", "waypoint_latitude": 18.45671389, "waypoint_longitude": 94.29576389, "waypoint_identifier_2": "BITAL", "waypoint_latitude_2": 19.03343056, "waypoint_longitude_2": 94.42807778, "minimum_altitude1": 11000.0, "maximum_altitude": 24000.0, "inbound_distance": 35.3}, "geometry": {"type": "LineString", "coordinates": [[94.29576389, 18.45671389], [94.42807778, 19.03343056]]}}, {"type": "Feature", "properties": {"fid": 134, "route_identifier": "W15", "seqno": 1, "icao_code": "VY", "waypoint_identifier": "MELET", "waypoint_latitude": 18.98886389, "waypoint_longitude": 94.56524167, "waypoint_identifier_2": "MIA", "waypoint_latitude_2": 21.68814722, "waypoint_longitude_2": 95.98685833, "minimum_altitude1": 11000.0, "maximum_altitude": 24000.0, "inbound_distance": 181.2}, "geometry": {"type": "LineString", "coordinates": [[94.56524167, 18.98886389], [95.98685833, 21.68814722]]}}, {"type": "Feature", "properties": {"fid": 135, "route_identifier": "W15", "seqno": 2, "icao_code": "VY", "waypoint_identifier": "TDE", "waypoint_latitude": 18.45671389, "waypoint_longitude": 94.29576389, "waypoint_identifier_2": "MELET", "waypoint_latitude_2": 18.98886389, "waypoint_longitude_2": 94.56524167, "minimum_altitude1": 11000.0, "maximum_altitude": 24000.0, "inbound_distance": 35.3}, "geometry": {"type": "LineString", "coordinates": [[94.29576389, 18.45671389], [94.56524167, 18.98886389]]}}, {"type": "Feature", "properties": {"fid": 136, "route_identifier": "W16", "seqno": 1, "icao_code": "VY", "waypoint_identifier": "POPIT", "waypoint_latitude": 18.870925, "waypoint_longitude": 94.73819444, "waypoint_identifier_2": "HHO", "waypoint_latitude_2": 20.74802778, "waypoint_longitude_2": 96.78992778, "minimum_altitude1": 11000.0, "maximum_altitude": 24000.0, "inbound_distance": 161.4}, "geometry": {"type": "LineString", "coordinates": [[94.73819444, 18.870925], [96.78992778, 20.74802778]]}}, {"type": "Feature", "properties": {"fid": 137, "route_identifier": "W16", "seqno": 2, "icao_code": "VY", "waypoint_identifier": "TDE", "waypoint_latitude": 18.45671389, "waypoint_longitude": 94.29576389, "waypoint_identifier_2": "POPIT", "waypoint_latitude_2": 18.870925, "waypoint_longitude_2": 94.73819444, "minimum_altitude1": 11000.0, "maximum_altitude": 24000.0, "inbound_distance": 35.3}, "geometry": {"type": "LineString", "coordinates": [[94.29576389, 18.45671389], [94.73819444, 18.870925]]}}, {"type": "Feature", "properties": {"fid": 138, "route_identifier": "W17", "seqno": 1, "icao_code": "VY", "waypoint_identifier": "MIA", "waypoint_latitude": 21.68814722, "waypoint_longitude": 95.98685833, "waypoint_identifier_2": "MY", "waypoint_latitude_2": 22.21911944, "waypoint_longitude_2": 95.09458056, "minimum_altitude1": 11000.0, "maximum_altitude": 26000.0, "inbound_distance": 58.0}, "geometry": {"type": "LineString", "coordinates": [[95.98685833, 21.68814722], [95.09458056, 22.21911944]]}}, {"type": "Feature", "properties": {"fid": 139, "route_identifier": "W17", "seqno": 2, "icao_code": "VY", "waypoint_identifier": "MY", "waypoint_latitude": 22.21911944, "waypoint_longitude": 95.09458056, "waypoint_identifier_2": "HL", "waypoint_latitude_2": 24.89502778, "waypoint_longitude_2": 94.91320556, "minimum_altitude1": 11000.0, "maximum_altitude": 26000.0, "inbound_distance": 160.0}, "geometry": {"type": "LineString", "coordinates": [[95.09458056, 22.21911944], [94.91320556, 24.89502778]]}}, {"type": "Feature", "properties": {"fid": 140, "route_identifier": "W18", "seqno": 1, "icao_code": "VY", "waypoint_identifier": "MIA", "waypoint_latitude": 21.68814722, "waypoint_longitude": 95.98685833, "waypoint_identifier_2": "MY", "waypoint_latitude_2": 22.21911944, "waypoint_longitude_2": 95.09458056, "minimum_altitude1": 11000.0, "maximum_altitude": 26000.0, "inbound_distance": 58.0}, "geometry": {"type": "LineString", "coordinates": [[95.98685833, 21.68814722], [95.09458056, 22.21911944]]}}, {"type": "Feature", "properties": {"fid": 141, "route_identifier": "W18", "seqno": 2, "icao_code": "VY", "waypoint_identifier": "MY", "waypoint_latitude": 22.21911944, "waypoint_longitude": 95.09458056, "waypoint_identifier_2": "KL", "waypoint_latitude_2": 23.18873333, "waypoint_longitude_2": 94.05850278, "minimum_altitude1": 11000.0, "maximum_altitude": 26000.0, "inbound_distance": 81.2}, "geometry": {"type": "LineString", "coordinates": [[95.09458056, 22.21911944], [94.05850278, 23.18873333]]}}, {"type": "Feature", "properties": {"fid": 142, "route_identifier": "W19", "seqno": 1, "icao_code": "VY", "waypoint_identifier": "MIA", "waypoint_latitude": 21.68814722, "waypoint_longitude": 95.98685833, "waypoint_identifier_2": "STW", "waypoint_latitude_2": 20.13291111, "waypoint_longitude_2": 92.87871111, "minimum_altitude1": 11000.0, "maximum_altitude": 26000.0, "inbound_distance": 198.0}, "geometry": {"type": "LineString", "coordinates": [[95.98685833, 21.68814722], [92.87871111, 20.13291111]]}}, {"type": "Feature", "properties": {"fid": 143, "route_identifier": "W2", "seqno": 1, "icao_code": "VY", "waypoint_identifier": "BGO", "waypoint_latitude": 17.31849444, "waypoint_longitude": 96.519875, "waypoint_identifier_2": "STW", "waypoint_latitude_2": 20.13291111, "waypoint_longitude_2": 92.87871111, "minimum_altitude1": 11000.0, "maximum_altitude": 26000.0, "inbound_distance": 267.0}, "geometry": {"type": "LineString", "coordinates": [[96.519875, 17.31849444], [92.87871111, 20.13291111]]}}, {"type": "Feature", "properties": {"fid": 144, "route_identifier": "W20", "seqno": 1, "icao_code": "VY", "waypoint_identifier": "NPT", "waypoint_latitude": 19.62655556, "waypoint_longitude": 96.19558333, "waypoint_identifier_2": "BGN", "waypoint_latitude_2": 21.16953611, "waypoint_longitude_2": 94.92815278, "minimum_altitude1": 11000.0, "maximum_altitude": 26000.0, "inbound_distance": 116.7}, "geometry": {"type": "LineString", "coordinates": [[96.19558333, 19.62655556], [94.92815278, 21.16953611]]}}, {"type": "Feature", "properties": {"fid": 145, "route_identifier": "W21", "seqno": 1, "icao_code": "VY", "waypoint_identifier": "NPT", "waypoint_latitude": 19.62655556, "waypoint_longitude": 96.19558333, "waypoint_identifier_2": "MW", "waypoint_latitude_2": 20.16118333, "waypoint_longitude_2": 94.97473333, "minimum_altitude1": 11000.0, "maximum_altitude": 24000.0, "inbound_distance": 76.2}, "geometry": {"type": "LineString", "coordinates": [[96.19558333, 19.62655556], [94.97473333, 20.16118333]]}}, {"type": "Feature", "properties": {"fid": 146, "route_identifier": "W22", "seqno": 1, "icao_code": "VY", "waypoint_identifier": "NPT", "waypoint_latitude": 19.62655556, "waypoint_longitude": 96.19558333, "waypoint_identifier_2": "STW", "waypoint_latitude_2": 20.13291111, "waypoint_longitude_2": 92.87871111, "minimum_altitude1": 11000.0, "maximum_altitude": 26000.0, "inbound_distance": 190.0}, "geometry": {"type": "LineString", "coordinates": [[96.19558333, 19.62655556], [92.87871111, 20.13291111]]}}, {"type": "Feature", "properties": {"fid": 147, "route_identifier": "W22", "seqno": 2, "icao_code": "VY", "waypoint_identifier": "PSL", "waypoint_latitude": 16.77033333, "waypoint_longitude": 100.29136111, "waypoint_identifier_2": "NIROP", "waypoint_latitude_2": 17.27048333, "waypoint_longitude_2": 100.24564722, "minimum_altitude1": 7000.0, "maximum_altitude": 46000.0, "inbound_distance": 30.0}, "geometry": {"type": "LineString", "coordinates": [[100.29136111, 16.77033333], [100.24564722, 17.27048333]]}}, {"type": "Feature", "properties": {"fid": 148, "route_identifier": "W23", "seqno": 1, "icao_code": "VY", "waypoint_identifier": "NPT", "waypoint_latitude": 19.62655556, "waypoint_longitude": 96.19558333, "waypoint_identifier_2": "KP", "waypoint_latitude_2": 19.42919444, "waypoint_longitude_2": 93.53663889, "minimum_altitude1": 11000.0, "maximum_altitude": 26000.0, "inbound_distance": 151.2}, "geometry": {"type": "LineString", "coordinates": [[96.19558333, 19.62655556], [93.53663889, 19.42919444]]}}, {"type": "Feature", "properties": {"fid": 149, "route_identifier": "W23", "seqno": 2, "icao_code": "VY", "waypoint_identifier": "PSL", "waypoint_latitude": 16.77033333, "waypoint_longitude": 100.29136111, "waypoint_identifier_2": "POLOB", "waypoint_latitude_2": 17.21928611, "waypoint_longitude_2": 100.05772222, "minimum_altitude1": 7000.0, "maximum_altitude": 46000.0, "inbound_distance": 30.0}, "geometry": {"type": "LineString", "coordinates": [[100.29136111, 16.77033333], [100.05772222, 17.21928611]]}}, {"type": "Feature", "properties": {"fid": 150, "route_identifier": "W24", "seqno": 1, "icao_code": "VY", "waypoint_identifier": "NPT", "waypoint_latitude": 19.62655556, "waypoint_longitude": 96.19558333, "waypoint_identifier_2": "TOGER", "waypoint_latitude_2": 18.77997778, "waypoint_longitude_2": 94.81464167, "minimum_altitude1": 11000.0, "maximum_altitude": 26000.0, "inbound_distance": 93.3}, "geometry": {"type": "LineString", "coordinates": [[96.19558333, 19.62655556], [94.81464167, 18.77997778]]}}, {"type": "Feature", "properties": {"fid": 151, "route_identifier": "W24", "seqno": 2, "icao_code": "VY", "waypoint_identifier": "TOGER", "waypoint_latitude": 18.77997778, "waypoint_longitude": 94.81464167, "waypoint_identifier_2": "TDE", "waypoint_latitude_2": 18.45671389, "waypoint_longitude_2": 94.29576389, "minimum_altitude1": 11000.0, "maximum_altitude": 26000.0, "inbound_distance": 35.3}, "geometry": {"type": "LineString", "coordinates": [[94.81464167, 18.77997778], [94.29576389, 18.45671389]]}}, {"type": "Feature", "properties": {"fid": 152, "route_identifier": "W25", "seqno": 1, "icao_code": "VY", "waypoint_identifier": "SBG", "waypoint_latitude": 22.92023056, "waypoint_longitude": 93.61666389, "waypoint_identifier_2": "KL", "waypoint_latitude_2": 23.18873333, "waypoint_longitude_2": 94.05850278, "minimum_altitude1": 11000.0, "maximum_altitude": 23000.0, "inbound_distance": 29.3}, "geometry": {"type": "LineString", "coordinates": [[93.61666389, 22.92023056], [94.05850278, 23.18873333]]}}, {"type": "Feature", "properties": {"fid": 153, "route_identifier": "W26", "seqno": 1, "icao_code": "VY", "waypoint_identifier": "IGPOP", "waypoint_latitude": 16.83391111, "waypoint_longitude": 99.785475, "waypoint_identifier_2": "PSL", "waypoint_latitude_2": 16.77033333, "waypoint_longitude_2": 100.29136111, "minimum_altitude1": 7000.0, "maximum_altitude": 46000.0, "inbound_distance": 29.0}, "geometry": {"type": "LineString", "coordinates": [[99.785475, 16.83391111], [100.29136111, 16.77033333]]}}, {"type": "Feature", "properties": {"fid": 154, "route_identifier": "W26", "seqno": 2, "icao_code": "VY", "waypoint_identifier": "PSL", "waypoint_latitude": 16.77033333, "waypoint_longitude": 100.29136111, "waypoint_identifier_2": "GOKON", "waypoint_latitude_2": 16.71687778, "waypoint_longitude_2": 100.80939444, "minimum_altitude1": 7000.0, "maximum_altitude": 46000.0, "inbound_distance": 30.0}, "geometry": {"type": "LineString", "coordinates": [[100.29136111, 16.77033333], [100.80939444, 16.71687778]]}}, {"type": "Feature", "properties": {"fid": 155, "route_identifier": "W27", "seqno": 1, "icao_code": "VY", "waypoint_identifier": "PSL", "waypoint_latitude": 16.77033333, "waypoint_longitude": 100.29136111, "waypoint_identifier_2": "REMER", "waypoint_latitude_2": 16.99293333, "waypoint_longitude_2": 100.75870556, "minimum_altitude1": 7000.0, "maximum_altitude": 46000.0, "inbound_distance": 30.0}, "geometry": {"type": "LineString", "coordinates": [[100.29136111, 16.77033333], [100.75870556, 16.99293333]]}}, {"type": "Feature", "properties": {"fid": 156, "route_identifier": "W29", "seqno": 1, "icao_code": "VY", "waypoint_identifier": "GOSTA", "waypoint_latitude": 17.26591667, "waypoint_longitude": 100.37495278, "waypoint_identifier_2": "PSL", "waypoint_latitude_2": 16.77033333, "waypoint_longitude_2": 100.29136111, "minimum_altitude1": 7000.0, "maximum_altitude": 46000.0, "inbound_distance": 30.0}, "geometry": {"type": "LineString", "coordinates": [[100.37495278, 17.26591667], [100.29136111, 16.77033333]]}}, {"type": "Feature", "properties": {"fid": 157, "route_identifier": "W3", "seqno": 1, "icao_code": "VY", "waypoint_identifier": "AN", "waypoint_latitude": 19.7799, "waypoint_longitude": 94.02815, "waypoint_identifier_2": "STW", "waypoint_latitude_2": 20.13291111, "waypoint_longitude_2": 92.87871111, "minimum_altitude1": 9000.0, "maximum_altitude": 23000.0, "inbound_distance": 68.6}, "geometry": {"type": "LineString", "coordinates": [[94.02815, 19.7799], [92.87871111, 20.13291111]]}}, {"type": "Feature", "properties": {"fid": 158, "route_identifier": "W3", "seqno": 2, "icao_code": "VY", "waypoint_identifier": "BGO", "waypoint_latitude": 17.31849444, "waypoint_longitude": 96.519875, "waypoint_identifier_2": "MUPIG", "waypoint_latitude_2": 18.18215556, "waypoint_longitude_2": 94.83915, "minimum_altitude1": 9000.0, "maximum_altitude": 23000.0, "inbound_distance": 109.2}, "geometry": {"type": "LineString", "coordinates": [[96.519875, 17.31849444], [94.83915, 18.18215556]]}}, {"type": "Feature", "properties": {"fid": 159, "route_identifier": "W3", "seqno": 3, "icao_code": "VY", "waypoint_identifier": "KP", "waypoint_latitude": 19.42919444, "waypoint_longitude": 93.53663889, "waypoint_identifier_2": "AN", "waypoint_latitude_2": 19.7799, "waypoint_longitude_2": 94.02815, "minimum_altitude1": 9000.0, "maximum_altitude": 23000.0, "inbound_distance": 34.6}, "geometry": {"type": "LineString", "coordinates": [[93.53663889, 19.42919444], [94.02815, 19.7799]]}}, {"type": "Feature", "properties": {"fid": 160, "route_identifier": "W3", "seqno": 4, "icao_code": "VY", "waypoint_identifier": "MN", "waypoint_latitude": 18.84465556, "waypoint_longitude": 93.68593333, "waypoint_identifier_2": "KP", "waypoint_latitude_2": 19.42919444, "waypoint_longitude_2": 93.53663889, "minimum_altitude1": 9000.0, "maximum_altitude": 23000.0, "inbound_distance": 35.9}, "geometry": {"type": "LineString", "coordinates": [[93.68593333, 18.84465556], [93.53663889, 19.42919444]]}}, {"type": "Feature", "properties": {"fid": 161, "route_identifier": "W3", "seqno": 5, "icao_code": "VY", "waypoint_identifier": "MUPIG", "waypoint_latitude": 18.18215556, "waypoint_longitude": 94.83915, "waypoint_identifier_2": "TDE", "waypoint_latitude_2": 18.45671389, "waypoint_longitude_2": 94.29576389, "minimum_altitude1": 9000.0, "maximum_altitude": 23000.0, "inbound_distance": 35.1}, "geometry": {"type": "LineString", "coordinates": [[94.83915, 18.18215556], [94.29576389, 18.45671389]]}}, {"type": "Feature", "properties": {"fid": 162, "route_identifier": "W3", "seqno": 6, "icao_code": "VY", "waypoint_identifier": "TDE", "waypoint_latitude": 18.45671389, "waypoint_longitude": 94.29576389, "waypoint_identifier_2": "MN", "waypoint_latitude_2": 18.84465556, "waypoint_longitude_2": 93.68593333, "minimum_altitude1": 9000.0, "maximum_altitude": 23000.0, "inbound_distance": 41.8}, "geometry": {"type": "LineString", "coordinates": [[94.29576389, 18.45671389], [93.68593333, 18.84465556]]}}, {"type": "Feature", "properties": {"fid": 163, "route_identifier": "W34", "seqno": 1, "icao_code": "VY", "waypoint_identifier": "MENEX", "waypoint_latitude": 11.14194444, "waypoint_longitude": 99.76194444, "waypoint_identifier_2": "CPN", "waypoint_latitude_2": 10.71116667, "waypoint_longitude_2": 99.36555556, "minimum_altitude1": 7000.0, "maximum_altitude": 46000.0, "inbound_distance": 35.0}, "geometry": {"type": "LineString", "coordinates": [[99.76194444, 11.14194444], [99.36555556, 10.71116667]]}}, {"type": "Feature", "properties": {"fid": 164, "route_identifier": "W36", "seqno": 1, "icao_code": "VY", "waypoint_identifier": "LAMUN", "waypoint_latitude": 19.08698333, "waypoint_longitude": 98.67896111, "waypoint_identifier_2": "MACHI", "waypoint_latitude_2": 19.21833333, "waypoint_longitude_2": 98.56277778, "minimum_altitude1": 9000.0, "maximum_altitude": 46000.0, "inbound_distance": 10.0}, "geometry": {"type": "LineString", "coordinates": [[98.67896111, 19.08698333], [98.56277778, 19.21833333]]}}, {"type": "Feature", "properties": {"fid": 165, "route_identifier": "W36", "seqno": 2, "icao_code": "VY", "waypoint_identifier": "MACHI", "waypoint_latitude": 19.21833333, "waypoint_longitude": 98.56277778, "waypoint_identifier_2": "DOMKA", "waypoint_latitude_2": 19.23871667, "waypoint_longitude_2": 98.43385556, "minimum_altitude1": 9000.0, "maximum_altitude": 46000.0, "inbound_distance": 7.4}, "geometry": {"type": "LineString", "coordinates": [[98.56277778, 19.21833333], [98.43385556, 19.23871667]]}}, {"type": "Feature", "properties": {"fid": 166, "route_identifier": "W4", "seqno": 1, "icao_code": "VY", "waypoint_identifier": "BGO", "waypoint_latitude": 17.31849444, "waypoint_longitude": 96.519875, "waypoint_identifier_2": "KP", "waypoint_latitude_2": 19.42919444, "waypoint_longitude_2": 93.53663889, "minimum_altitude1": 9000.0, "maximum_altitude": 23000.0, "inbound_distance": 212.0}, "geometry": {"type": "LineString", "coordinates": [[96.519875, 17.31849444], [93.53663889, 19.42919444]]}}, {"type": "Feature", "properties": {"fid": 167, "route_identifier": "W4", "seqno": 2, "icao_code": "VY", "waypoint_identifier": "KP", "waypoint_latitude": 19.42919444, "waypoint_longitude": 93.53663889, "waypoint_identifier_2": "STW", "waypoint_latitude_2": 20.13291111, "waypoint_longitude_2": 92.87871111, "minimum_altitude1": 9000.0, "maximum_altitude": 23000.0, "inbound_distance": 56.2}, "geometry": {"type": "LineString", "coordinates": [[93.53663889, 19.42919444], [92.87871111, 20.13291111]]}}, {"type": "Feature", "properties": {"fid": 168, "route_identifier": "W42", "seqno": 1, "icao_code": "VY", "waypoint_identifier": "MENEX", "waypoint_latitude": 11.14194444, "waypoint_longitude": 99.76194444, "waypoint_identifier_2": "EGUBO", "waypoint_latitude_2": 11.47722222, "waypoint_longitude_2": 100.08055556, "minimum_altitude1": 16000.0, "maximum_altitude": 46000.0, "inbound_distance": 28.0}, "geometry": {"type": "LineString", "coordinates": [[99.76194444, 11.14194444], [100.08055556, 11.47722222]]}}, {"type": "Feature", "properties": {"fid": 169, "route_identifier": "W5", "seqno": 1, "icao_code": "VY", "waypoint_identifier": "BGN", "waypoint_latitude": 21.16953611, "waypoint_longitude": 94.92815278, "waypoint_identifier_2": "MIA", "waypoint_latitude_2": 21.68814722, "waypoint_longitude_2": 95.98685833, "minimum_altitude1": 7000.0, "maximum_altitude": 26000.0, "inbound_distance": 67.2}, "geometry": {"type": "LineString", "coordinates": [[94.92815278, 21.16953611], [95.98685833, 21.68814722]]}}, {"type": "Feature", "properties": {"fid": 170, "route_identifier": "W5", "seqno": 2, "icao_code": "VY", "waypoint_identifier": "BGO", "waypoint_latitude": 17.31849444, "waypoint_longitude": 96.519875, "waypoint_identifier_2": "BGN", "waypoint_latitude_2": 21.16953611, "waypoint_longitude_2": 94.92815278, "minimum_altitude1": 7000.0, "maximum_altitude": 26000.0, "inbound_distance": 247.3}, "geometry": {"type": "LineString", "coordinates": [[96.519875, 17.31849444], [94.92815278, 21.16953611]]}}, {"type": "Feature", "properties": {"fid": 171, "route_identifier": "W6", "seqno": 1, "icao_code": "VY", "waypoint_identifier": "BGO", "waypoint_latitude": 17.31849444, "waypoint_longitude": 96.519875, "waypoint_identifier_2": "KL", "waypoint_latitude_2": 23.18873333, "waypoint_longitude_2": 94.05850278, "minimum_altitude1": 11000.0, "maximum_altitude": 26000.0, "inbound_distance": 377.3}, "geometry": {"type": "LineString", "coordinates": [[96.519875, 17.31849444], [94.05850278, 23.18873333]]}}, {"type": "Feature", "properties": {"fid": 172, "route_identifier": "W7", "seqno": 1, "icao_code": "VY", "waypoint_identifier": "HL", "waypoint_latitude": 24.89502778, "waypoint_longitude": 94.91320556, "waypoint_identifier_2": "KI", "waypoint_latitude_2": 25.99050556, "waypoint_longitude_2": 95.67839722, "minimum_altitude1": 10000.0, "maximum_altitude": 24000.0, "inbound_distance": 77.6}, "geometry": {"type": "LineString", "coordinates": [[94.91320556, 24.89502778], [95.67839722, 25.99050556]]}}, {"type": "Feature", "properties": {"fid": 173, "route_identifier": "W7", "seqno": 2, "icao_code": "VY", "waypoint_identifier": "KL", "waypoint_latitude": 23.18873333, "waypoint_longitude": 94.05850278, "waypoint_identifier_2": "HL", "waypoint_latitude_2": 24.89502778, "waypoint_longitude_2": 94.91320556, "minimum_altitude1": 10000.0, "maximum_altitude": 24000.0, "inbound_distance": 112.2}, "geometry": {"type": "LineString", "coordinates": [[94.05850278, 23.18873333], [94.91320556, 24.89502778]]}}, {"type": "Feature", "properties": {"fid": 174, "route_identifier": "W8", "seqno": 1, "icao_code": "VY", "waypoint_identifier": "BGO", "waypoint_latitude": 17.31849444, "waypoint_longitude": 96.519875, "waypoint_identifier_2": "MW", "waypoint_latitude_2": 20.16118333, "waypoint_longitude_2": 94.97473333, "minimum_altitude1": 11000.0, "maximum_altitude": 23000.0, "inbound_distance": 191.3}, "geometry": {"type": "LineString", "coordinates": [[96.519875, 17.31849444], [94.97473333, 20.16118333]]}}, {"type": "Feature", "properties": {"fid": 175, "route_identifier": "W9", "seqno": 1, "icao_code": "VY", "waypoint_identifier": "BGO", "waypoint_latitude": 17.31849444, "waypoint_longitude": 96.519875, "waypoint_identifier_2": "PTN", "waypoint_latitude_2": 16.80868889, "waypoint_longitude_2": 94.76955, "minimum_altitude1": 10000.0, "maximum_altitude": 26000.0, "inbound_distance": 105.0}, "geometry": {"type": "LineString", "coordinates": [[96.519875, 17.31849444], [94.76955, 16.80868889]]}}, {"type": "Feature", "properties": {"fid": 176, "route_identifier": "W9", "seqno": 2, "icao_code": "VY", "waypoint_identifier": "PEBLI", "waypoint_latitude": 16.26831667, "waypoint_longitude": 100.29339167, "waypoint_identifier_2": "PSL", "waypoint_latitude_2": 16.77033333, "waypoint_longitude_2": 100.29136111, "minimum_altitude1": 7000.0, "maximum_altitude": 46000.0, "inbound_distance": 30.0}, "geometry": {"type": "LineString", "coordinates": [[100.29339167, 16.26831667], [100.29136111, 16.77033333]]}}, {"type": "Feature", "properties": {"fid": 177, "route_identifier": "W9", "seqno": 3, "icao_code": "VY", "waypoint_identifier": "PSL", "waypoint_latitude": 16.77033333, "waypoint_longitude": 100.29136111, "waypoint_identifier_2": "PIBIK", "waypoint_latitude_2": 17.19175833, "waypoint_longitude_2": 100.00771389, "minimum_altitude1": 7000.0, "maximum_altitude": 46000.0, "inbound_distance": 30.0}, "geometry": {"type": "LineString", "coordinates": [[100.29136111, 16.77033333], [100.00771389, 17.19175833]]}}, {"type": "Feature", "properties": {"fid": 178, "route_identifier": "Y28", "seqno": 1, "icao_code": "VY", "waypoint_identifier": "PEBLI", "waypoint_latitude": 16.26831667, "waypoint_longitude": 100.29339167, "waypoint_identifier_2": "PSL", "waypoint_latitude_2": 16.77033333, "waypoint_longitude_2": 100.29136111, "minimum_altitude1": 7000.0, "maximum_altitude": 46000.0, "inbound_distance": 30.0}, "geometry": {"type": "LineString", "coordinates": [[100.29339167, 16.26831667], [100.29136111, 16.77033333]]}}, {"type": "Feature", "properties": {"fid": 179, "route_identifier": "Y28", "seqno": 2, "icao_code": "VY", "waypoint_identifier": "PSL", "waypoint_latitude": 16.77033333, "waypoint_longitude": 100.29136111, "waypoint_identifier_2": "CRIST", "waypoint_latitude_2": 18.79777778, "waypoint_longitude_2": 100.22611111, "minimum_altitude1": 9000.0, "maximum_altitude": 46000.0, "inbound_distance": 121.0}, "geometry": {"type": "LineString", "coordinates": [[100.29136111, 16.77033333], [100.22611111, 18.79777778]]}}, {"type": "Feature", "properties": {"fid": 180, "route_identifier": "Y29", "seqno": 1, "icao_code": "VY", "waypoint_identifier": "PIBAN", "waypoint_latitude": 16.38710278, "waypoint_longitude": 99.95502778, "waypoint_identifier_2": "PSL", "waypoint_latitude_2": 16.77033333, "waypoint_longitude_2": 100.29136111, "minimum_altitude1": 7000.0, "maximum_altitude": 46000.0, "inbound_distance": 30.0}, "geometry": {"type": "LineString", "coordinates": [[99.95502778, 16.38710278], [100.29136111, 16.77033333]]}}, {"type": "Feature", "properties": {"fid": 181, "route_identifier": "Y3", "seqno": 1, "icao_code": "VY", "waypoint_identifier": "MENEX", "waypoint_latitude": 11.14194444, "waypoint_longitude": 99.76194444, "waypoint_identifier_2": "DORNA", "waypoint_latitude_2": 9.41630556, "waypoint_longitude_2": 99.77058333, "minimum_altitude1": 8000.0, "maximum_altitude": 46000.0, "inbound_distance": 103.0}, "geometry": {"type": "LineString", "coordinates": [[99.76194444, 11.14194444], [99.77058333, 9.41630556]]}}, {"type": "Feature", "properties": {"fid": 182, "route_identifier": "Y5", "seqno": 1, "icao_code": "VY", "waypoint_identifier": "CPN", "waypoint_latitude": 10.71116667, "waypoint_longitude": 99.36555556, "waypoint_identifier_2": "MENEX", "waypoint_latitude_2": 11.14194444, "waypoint_longitude_2": 99.76194444, "minimum_altitude1": 13000.0, "maximum_altitude": 46000.0, "inbound_distance": 35.0}, "geometry": {"type": "LineString", "coordinates": [[99.36555556, 10.71116667], [99.76194444, 11.14194444]]}}, {"type": "Feature", "properties": {"fid": 183, "route_identifier": "Y5", "seqno": 2, "icao_code": "VY", "waypoint_identifier": "MENEX", "waypoint_latitude": 11.14194444, "waypoint_longitude": 99.76194444, "waypoint_identifier_2": "EGUBO", "waypoint_latitude_2": 11.47722222, "waypoint_longitude_2": 100.08055556, "minimum_altitude1": 13000.0, "maximum_altitude": 46000.0, "inbound_distance": 28.0}, "geometry": {"type": "LineString", "coordinates": [[99.76194444, 11.14194444], [100.08055556, 11.47722222]]}}, {"type": "Feature", "properties": {"fid": 184, "route_identifier": "Y8", "seqno": 1, "icao_code": "VY", "waypoint_identifier": "BUXEL", "waypoint_latitude": 11.72833333, "waypoint_longitude": 99.76111111, "waypoint_identifier_2": "MENEX", "waypoint_latitude_2": 11.14194444, "waypoint_longitude_2": 99.76194444, "minimum_altitude1": 13000.0, "maximum_altitude": 46000.0, "inbound_distance": 35.0}, "geometry": {"type": "LineString", "coordinates": [[99.76111111, 11.72833333], [99.76194444, 11.14194444]]}}, {"type": "Feature", "properties": {"fid": 185, "route_identifier": "Y8", "seqno": 2, "icao_code": "VY", "waypoint_identifier": "MENEX", "waypoint_latitude": 11.14194444, "waypoint_longitude": 99.76194444, "waypoint_identifier_2": "IKERA", "waypoint_latitude_2": 9.52955278, "waypoint_longitude_2": 99.25888889, "minimum_altitude1": 8000.0, "maximum_altitude": 46000.0, "inbound_distance": 101.0}, "geometry": {"type": "LineString", "coordinates": [[99.76194444, 11.14194444], [99.25888889, 9.52955278]]}}]}