{"type": "FeatureCollection", "name": "ils_leg", "crs": {"type": "name", "properties": {"name": "urn:ogc:def:crs:OGC:1.3:CRS84"}}, "features": [{"type": "Feature", "properties": {"fid": 655, "area_code": "PAC", "airport_identifier": "VYKP", "procedure_identifier": "N36", "transition_identifier": null}, "geometry": {"type": "MultiLineString", "coordinates": [[[93.52928611, 19.32939722], [93.53469444, 19.41230556]]]}}, {"type": "Feature", "properties": {"fid": 660, "area_code": "PAC", "airport_identifier": "VYKP", "procedure_identifier": "N36", "transition_identifier": null}, "geometry": {"type": "MultiLineString", "coordinates": [[[93.53663889, 19.42919444], [93.53663889, 19.42919444], [93.53663889, 19.42919444]]]}}, {"type": "Feature", "properties": {"fid": 667, "area_code": "PAC", "airport_identifier": "VYYY", "procedure_identifier": "Q03", "transition_identifier": "BGO"}, "geometry": {"type": "MultiLineString", "coordinates": [[[96.519875, 17.31849444], [96.251, 17.08030556], [96.10598333, 16.86826667], [96.07918611, 16.82852222], [96.07918611, 16.82852222]]]}}, {"type": "Feature", "properties": {"fid": 670, "area_code": "PAC", "airport_identifier": "VYYY", "procedure_identifier": "Q03", "transition_identifier": null}, "geometry": {"type": "MultiLineString", "coordinates": [[[96.07918611, 16.82852222], [96.11611111, 16.88328333]]]}}, {"type": "Feature", "properties": {"fid": 673, "area_code": "PAC", "airport_identifier": "VYYY", "procedure_identifier": "Q03", "transition_identifier": null}, "geometry": {"type": "MultiLineString", "coordinates": [[[96.251, 17.08030556], [96.251, 17.08030556]]]}}, {"type": "Feature", "properties": {"fid": 677, "area_code": "PAC", "airport_identifier": "VYME", "procedure_identifier": "N18", "transition_identifier": "ME1"}, "geometry": {"type": "MultiLineString", "coordinates": [[[98.61968611, 12.45006667], [98.63186944, 12.53523333]]]}}, {"type": "Feature", "properties": {"fid": 681, "area_code": "PAC", "airport_identifier": "VYME", "procedure_identifier": "N18", "transition_identifier": "ME2"}, "geometry": {"type": "MultiLineString", "coordinates": [[[98.61968611, 12.45006667], [98.63186944, 12.53523333]]]}}, {"type": "Feature", "properties": {"fid": 684, "area_code": "PAC", "airport_identifier": "VYME", "procedure_identifier": "N18", "transition_identifier": null}, "geometry": {"type": "MultiLineString", "coordinates": [[[98.63186944, 12.53523333], [98.62169444, 12.45235]]]}}, {"type": "Feature", "properties": {"fid": 689, "area_code": "PAC", "airport_identifier": "VYME", "procedure_identifier": "N18", "transition_identifier": null}, "geometry": {"type": "MultiLineString", "coordinates": [[[98.61968611, 12.45006667], [98.61968611, 12.45006667], [98.61968611, 12.45006667]]]}}, {"type": "Feature", "properties": {"fid": 692, "area_code": "PAC", "airport_identifier": "VYNT", "procedure_identifier": "R16", "transition_identifier": "MINGO"}, "geometry": {"type": "MultiLineString", "coordinates": [[[96.01002778, 19.83827778], [96.09155556, 19.87061111]]]}}, {"type": "Feature", "properties": {"fid": 695, "area_code": "PAC", "airport_identifier": "VYNT", "procedure_identifier": "R16", "transition_identifier": "THIRI"}, "geometry": {"type": "MultiLineString", "coordinates": [[[96.05736111, 19.94775], [96.09155556, 19.87061111]]]}}, {"type": "Feature", "properties": {"fid": 699, "area_code": "PAC", "airport_identifier": "VYNT", "procedure_identifier": "R16", "transition_identifier": null}, "geometry": {"type": "MultiLineString", "coordinates": [[[96.09155556, 19.87061111], [96.15508333, 19.72730556], [96.19425556, 19.63878611]]]}}, {"type": "Feature", "properties": {"fid": 704, "area_code": "PAC", "airport_identifier": "VYNT", "procedure_identifier": "R16", "transition_identifier": null}, "geometry": {"type": "MultiLineString", "coordinates": [[[96.22838889, 19.56163889], [96.11286111, 19.60641667], [96.01002778, 19.83827778], [96.01002778, 19.83827778]]]}}, {"type": "Feature", "properties": {"fid": 709, "area_code": "PAC", "airport_identifier": "VYMS", "procedure_identifier": "N12", "transition_identifier": "MS"}, "geometry": {"type": "MultiLineString", "coordinates": [[[99.25711389, 20.51704722], [99.25711389, 20.51704722], [99.16390278, 20.56568056]]]}}, {"type": "Feature", "properties": {"fid": 712, "area_code": "PAC", "airport_identifier": "VYMS", "procedure_identifier": "N12", "transition_identifier": null}, "geometry": {"type": "MultiLineString", "coordinates": [[[99.16390278, 20.56568056], [99.23303889, 20.52961389]]]}}, {"type": "Feature", "properties": {"fid": 716, "area_code": "PAC", "airport_identifier": "VYMS", "procedure_identifier": "N12", "transition_identifier": null}, "geometry": {"type": "MultiLineString", "coordinates": [[[99.25711389, 20.51704722], [99.25711389, 20.51704722]]]}}, {"type": "Feature", "properties": {"fid": 721, "area_code": "PAC", "airport_identifier": "VYNT", "procedure_identifier": "D16", "transition_identifier": "NPT1"}, "geometry": {"type": "MultiLineString", "coordinates": [[[96.19558333, 19.62655556], [96.19558333, 19.62655556], [96.15954722, 19.73156389]]]}}, {"type": "Feature", "properties": {"fid": 726, "area_code": "PAC", "airport_identifier": "VYNT", "procedure_identifier": "D16", "transition_identifier": "NPT2"}, "geometry": {"type": "MultiLineString", "coordinates": [[[96.19558333, 19.62655556], [96.19558333, 19.62655556], [96.15954722, 19.73156389]]]}}, {"type": "Feature", "properties": {"fid": 729, "area_code": "PAC", "airport_identifier": "VYNT", "procedure_identifier": "D16", "transition_identifier": null}, "geometry": {"type": "MultiLineString", "coordinates": [[[96.15954722, 19.73156389], [96.18685, 19.65201111]]]}}, {"type": "Feature", "properties": {"fid": 733, "area_code": "PAC", "airport_identifier": "VYNT", "procedure_identifier": "D16", "transition_identifier": null}, "geometry": {"type": "MultiLineString", "coordinates": [[[96.19558333, 19.62655556], [96.19558333, 19.62655556]]]}}, {"type": "Feature", "properties": {"fid": 737, "area_code": "PAC", "airport_identifier": "VYBG", "procedure_identifier": "D18", "transition_identifier": "BGN1"}, "geometry": {"type": "MultiLineString", "coordinates": [[[94.92815278, 21.16953611], [94.93412778, 21.27644167]]]}}, {"type": "Feature", "properties": {"fid": 741, "area_code": "PAC", "airport_identifier": "VYBG", "procedure_identifier": "D18", "transition_identifier": "BGN2"}, "geometry": {"type": "MultiLineString", "coordinates": [[[94.92815278, 21.16953611], [94.93412778, 21.27644167]]]}}, {"type": "Feature", "properties": {"fid": 744, "area_code": "PAC", "airport_identifier": "VYBG", "procedure_identifier": "D18", "transition_identifier": null}, "geometry": {"type": "MultiLineString", "coordinates": [[[94.93412778, 21.27644167], [94.93045278, 21.19068056]]]}}, {"type": "Feature", "properties": {"fid": 748, "area_code": "PAC", "airport_identifier": "VYBG", "procedure_identifier": "D18", "transition_identifier": null}, "geometry": {"type": "MultiLineString", "coordinates": [[[94.92815278, 21.16953611], [94.92815278, 21.16953611]]]}}, {"type": "Feature", "properties": {"fid": 751, "area_code": "PAC", "airport_identifier": "VYSW", "procedure_identifier": "R29", "transition_identifier": "AKYAB"}, "geometry": {"type": "MultiLineString", "coordinates": [[[93.13994444, 20.0695], [93.05405556, 20.08983333]]]}}, {"type": "Feature", "properties": {"fid": 755, "area_code": "PAC", "airport_identifier": "VYSW", "procedure_identifier": "R29", "transition_identifier": "WADIE"}, "geometry": {"type": "MultiLineString", "coordinates": [[[92.81436111, 19.94558333], [93.02397222, 19.97622222], [93.05405556, 20.08983333]]]}}, {"type": "Feature", "properties": {"fid": 759, "area_code": "PAC", "airport_identifier": "VYSW", "procedure_identifier": "R29", "transition_identifier": null}, "geometry": {"type": "MultiLineString", "coordinates": [[[93.05405556, 20.08983333], [92.96816667, 20.11016667], [92.88120833, 20.13075]]]}}, {"type": "Feature", "properties": {"fid": 763, "area_code": "PAC", "airport_identifier": "VYSW", "procedure_identifier": "R29", "transition_identifier": null}, "geometry": {"type": "MultiLineString", "coordinates": [[[92.80833333, 20.14797222], [92.81436111, 19.94558333], [92.81436111, 19.94558333]]]}}, {"type": "Feature", "properties": {"fid": 767, "area_code": "PAC", "airport_identifier": "VYMW", "procedure_identifier": "N19", "transition_identifier": "MW1"}, "geometry": {"type": "MultiLineString", "coordinates": [[[94.97473333, 20.16118333], [94.96491111, 20.24936111]]]}}, {"type": "Feature", "properties": {"fid": 771, "area_code": "PAC", "airport_identifier": "VYMW", "procedure_identifier": "N19", "transition_identifier": "MW2"}, "geometry": {"type": "MultiLineString", "coordinates": [[[94.97473333, 20.16118333], [94.96491111, 20.24936111]]]}}, {"type": "Feature", "properties": {"fid": 775, "area_code": "PAC", "airport_identifier": "VYMW", "procedure_identifier": "N19", "transition_identifier": null}, "geometry": {"type": "MultiLineString", "coordinates": [[[94.96491111, 20.24936111], [94.97425, 20.16550833], [94.97473333, 20.16118333]]]}}, {"type": "Feature", "properties": {"fid": 779, "area_code": "PAC", "airport_identifier": "VYMW", "procedure_identifier": "N19", "transition_identifier": null}, "geometry": {"type": "MultiLineString", "coordinates": [[[94.97473333, 20.16118333], [94.97473333, 20.16118333]]]}}, {"type": "Feature", "properties": {"fid": 784, "area_code": "PAC", "airport_identifier": "VYMK", "procedure_identifier": "D22", "transition_identifier": "D002W"}, "geometry": {"type": "MultiLineString", "coordinates": [[[97.36582778, 25.77209722], [97.36324722, 25.63837778], [97.46203056, 25.62012222], [97.51305556, 25.59546389]]]}}, {"type": "Feature", "properties": {"fid": 788, "area_code": "PAC", "airport_identifier": "VYMK", "procedure_identifier": "D22", "transition_identifier": "MKN1"}, "geometry": {"type": "MultiLineString", "coordinates": [[[97.35841944, 25.38765], [97.58754722, 25.5277], [97.51305556, 25.59546389]]]}}, {"type": "Feature", "properties": {"fid": 792, "area_code": "PAC", "airport_identifier": "VYMK", "procedure_identifier": "D22", "transition_identifier": "MKN2"}, "geometry": {"type": "MultiLineString", "coordinates": [[[97.35841944, 25.38765], [97.56704722, 25.55201944], [97.51305556, 25.59546389]]]}}, {"type": "Feature", "properties": {"fid": 797, "area_code": "PAC", "airport_identifier": "VYMK", "procedure_identifier": "D22", "transition_identifier": null}, "geometry": {"type": "MultiLineString", "coordinates": [[[97.51305556, 25.59546389], [97.46145, 25.52621111], [97.40990556, 25.45693889], [97.35973611, 25.39161667]]]}}, {"type": "Feature", "properties": {"fid": 801, "area_code": "PAC", "airport_identifier": "VYMK", "procedure_identifier": "D22", "transition_identifier": null}, "geometry": {"type": "MultiLineString", "coordinates": [[[97.35841944, 25.38765], [97.36066389, 25.27063889], [97.35841944, 25.38765]]]}}, {"type": "Feature", "properties": {"fid": 804, "area_code": "PAC", "airport_identifier": "VYMD", "procedure_identifier": "R35", "transition_identifier": "MDS01"}, "geometry": {"type": "MultiLineString", "coordinates": [[[95.91480556, 21.49627778], [96.01058333, 21.51372222]]]}}, {"type": "Feature", "properties": {"fid": 807, "area_code": "PAC", "airport_identifier": "VYMD", "procedure_identifier": "R35", "transition_identifier": "MDS02"}, "geometry": {"type": "MultiLineString", "coordinates": [[[96.02811111, 21.42933333], [96.01058333, 21.51372222]]]}}, {"type": "Feature", "properties": {"fid": 810, "area_code": "PAC", "airport_identifier": "VYMD", "procedure_identifier": "R35", "transition_identifier": "MDS03"}, "geometry": {"type": "MultiLineString", "coordinates": [[[96.10641667, 21.53113889], [96.01058333, 21.51372222]]]}}, {"type": "Feature", "properties": {"fid": 814, "area_code": "PAC", "airport_identifier": "VYMD", "procedure_identifier": "R35", "transition_identifier": null}, "geometry": {"type": "MultiLineString", "coordinates": [[[96.01058333, 21.51372222], [95.99594444, 21.59658333], [95.98074444, 21.68203333]]]}}, {"type": "Feature", "properties": {"fid": 819, "area_code": "PAC", "airport_identifier": "VYMD", "procedure_identifier": "R35", "transition_identifier": null}, "geometry": {"type": "MultiLineString", "coordinates": [[[95.94872222, 21.76011111], [95.78163889, 21.70008333], [95.81369444, 21.62202778], [95.81369444, 21.62202778]]]}}, {"type": "Feature", "properties": {"fid": 823, "area_code": "PAC", "airport_identifier": "VYBM", "procedure_identifier": "N15", "transition_identifier": "BM1"}, "geometry": {"type": "MultiLineString", "coordinates": [[[97.24849722, 24.26932778], [97.212575, 24.35972778]]]}}, {"type": "Feature", "properties": {"fid": 827, "area_code": "PAC", "airport_identifier": "VYBM", "procedure_identifier": "N15", "transition_identifier": "BM2"}, "geometry": {"type": "MultiLineString", "coordinates": [[[97.24849722, 24.26932778], [97.212575, 24.35972778]]]}}, {"type": "Feature", "properties": {"fid": 831, "area_code": "PAC", "airport_identifier": "VYBM", "procedure_identifier": "N15", "transition_identifier": null}, "geometry": {"type": "MultiLineString", "coordinates": [[[97.212575, 24.35972778], [97.24405833, 24.28050278], [97.24849722, 24.26932778]]]}}, {"type": "Feature", "properties": {"fid": 835, "area_code": "PAC", "airport_identifier": "VYBM", "procedure_identifier": "N15", "transition_identifier": null}, "geometry": {"type": "MultiLineString", "coordinates": [[[97.24849722, 24.26932778], [97.24849722, 24.26932778]]]}}, {"type": "Feature", "properties": {"fid": 839, "area_code": "PAC", "airport_identifier": "VYPT", "procedure_identifier": "N35", "transition_identifier": "PT"}, "geometry": {"type": "MultiLineString", "coordinates": [[[97.42415556, 27.32605], [97.48298889, 27.23849722]]]}}, {"type": "Feature", "properties": {"fid": 842, "area_code": "PAC", "airport_identifier": "VYPT", "procedure_identifier": "N35", "transition_identifier": null}, "geometry": {"type": "MultiLineString", "coordinates": [[[97.48298889, 27.23849722], [97.44451667, 27.29576944]]]}}, {"type": "Feature", "properties": {"fid": 846, "area_code": "PAC", "airport_identifier": "VYPT", "procedure_identifier": "N35", "transition_identifier": null}, "geometry": {"type": "MultiLineString", "coordinates": [[[97.42415556, 27.32605], [97.42415556, 27.32605]]]}}, {"type": "Feature", "properties": {"fid": 850, "area_code": "PAC", "airport_identifier": "VYME", "procedure_identifier": "N36", "transition_identifier": "ME1"}, "geometry": {"type": "MultiLineString", "coordinates": [[[98.61968611, 12.45006667], [98.62386944, 12.33225556]]]}}, {"type": "Feature", "properties": {"fid": 854, "area_code": "PAC", "airport_identifier": "VYME", "procedure_identifier": "N36", "transition_identifier": "ME2"}, "geometry": {"type": "MultiLineString", "coordinates": [[[98.61968611, 12.45006667], [98.62386944, 12.33225556]]]}}, {"type": "Feature", "properties": {"fid": 857, "area_code": "PAC", "airport_identifier": "VYME", "procedure_identifier": "N36", "transition_identifier": null}, "geometry": {"type": "MultiLineString", "coordinates": [[[98.62386944, 12.33225556], [98.62051667, 12.42777778]]]}}, {"type": "Feature", "properties": {"fid": 862, "area_code": "PAC", "airport_identifier": "VYME", "procedure_identifier": "N36", "transition_identifier": null}, "geometry": {"type": "MultiLineString", "coordinates": [[[98.61968611, 12.45006667], [98.61968611, 12.45006667], [98.61968611, 12.45006667]]]}}, {"type": "Feature", "properties": {"fid": 865, "area_code": "PAC", "airport_identifier": "VYNT", "procedure_identifier": "I16-Z", "transition_identifier": "MINGO"}, "geometry": {"type": "MultiLineString", "coordinates": [[[96.01002778, 19.83827778], [96.09155556, 19.87061111]]]}}, {"type": "Feature", "properties": {"fid": 868, "area_code": "PAC", "airport_identifier": "VYNT", "procedure_identifier": "I16-Z", "transition_identifier": "THIRI"}, "geometry": {"type": "MultiLineString", "coordinates": [[[96.05736111, 19.94775], [96.09155556, 19.87061111]]]}}, {"type": "Feature", "properties": {"fid": 872, "area_code": "PAC", "airport_identifier": "VYNT", "procedure_identifier": "I16-Z", "transition_identifier": null}, "geometry": {"type": "MultiLineString", "coordinates": [[[96.09155556, 19.87061111], [96.15508333, 19.72730556], [96.19425556, 19.63878611]]]}}, {"type": "Feature", "properties": {"fid": 877, "area_code": "PAC", "airport_identifier": "VYNT", "procedure_identifier": "I16-Z", "transition_identifier": null}, "geometry": {"type": "MultiLineString", "coordinates": [[[96.22838889, 19.56163889], [96.11286111, 19.60641667], [96.01002778, 19.83827778], [96.01002778, 19.83827778]]]}}, {"type": "Feature", "properties": {"fid": 881, "area_code": "PAC", "airport_identifier": "VYBG", "procedure_identifier": "D36", "transition_identifier": "BGN1"}, "geometry": {"type": "MultiLineString", "coordinates": [[[94.92815278, 21.16953611], [94.92815278, 21.05578889]]]}}, {"type": "Feature", "properties": {"fid": 885, "area_code": "PAC", "airport_identifier": "VYBG", "procedure_identifier": "D36", "transition_identifier": "BGN2"}, "geometry": {"type": "MultiLineString", "coordinates": [[[94.92815278, 21.16953611], [94.92815278, 21.05578889]]]}}, {"type": "Feature", "properties": {"fid": 890, "area_code": "PAC", "airport_identifier": "VYBG", "procedure_identifier": "D36", "transition_identifier": null}, "geometry": {"type": "MultiLineString", "coordinates": [[[94.92815278, 21.05578889], [94.92815278, 21.102625], [94.92815278, 21.13106111], [94.92815278, 21.16953611]]]}}, {"type": "Feature", "properties": {"fid": 894, "area_code": "PAC", "airport_identifier": "VYBG", "procedure_identifier": "D36", "transition_identifier": null}, "geometry": {"type": "MultiLineString", "coordinates": [[[94.92815278, 21.16953611], [94.92815278, 21.16953611]]]}}, {"type": "Feature", "properties": {"fid": 897, "area_code": "PAC", "airport_identifier": "VYMM", "procedure_identifier": "N04", "transition_identifier": null}, "geometry": {"type": "MultiLineString", "coordinates": [[[97.60511944, 16.37077778], [97.65644722, 16.43891944]]]}}, {"type": "Feature", "properties": {"fid": 902, "area_code": "PAC", "airport_identifier": "VYMM", "procedure_identifier": "N04", "transition_identifier": null}, "geometry": {"type": "MultiLineString", "coordinates": [[[97.65773056, 16.44331944], [97.65773056, 16.44331944], [97.65773056, 16.44331944]]]}}, {"type": "Feature", "properties": {"fid": 906, "area_code": "PAC", "airport_identifier": "VYMD", "procedure_identifier": "Q35", "transition_identifier": "MIA1"}, "geometry": {"type": "MultiLineString", "coordinates": [[[95.98685833, 21.68814722], [95.99263611, 21.58499167]]]}}, {"type": "Feature", "properties": {"fid": 910, "area_code": "PAC", "airport_identifier": "VYMD", "procedure_identifier": "Q35", "transition_identifier": "MIA2"}, "geometry": {"type": "MultiLineString", "coordinates": [[[95.98685833, 21.68814722], [95.99263611, 21.58499167]]]}}, {"type": "Feature", "properties": {"fid": 913, "area_code": "PAC", "airport_identifier": "VYMD", "procedure_identifier": "Q35", "transition_identifier": null}, "geometry": {"type": "MultiLineString", "coordinates": [[[95.99263611, 21.58499167], [95.98860278, 21.65700833]]]}}, {"type": "Feature", "properties": {"fid": 917, "area_code": "PAC", "airport_identifier": "VYMD", "procedure_identifier": "Q35", "transition_identifier": null}, "geometry": {"type": "MultiLineString", "coordinates": [[[95.98685833, 21.68814722], [95.98685833, 21.68814722]]]}}, {"type": "Feature", "properties": {"fid": 920, "area_code": "PAC", "airport_identifier": "VYME", "procedure_identifier": "R36", "transition_identifier": "TELAM"}, "geometry": {"type": "MultiLineString", "coordinates": [[[98.60843333, 12.17551389], [98.61243889, 12.25912778]]]}}, {"type": "Feature", "properties": {"fid": 923, "area_code": "PAC", "airport_identifier": "VYME", "procedure_identifier": "R36", "transition_identifier": "VIMUM"}, "geometry": {"type": "MultiLineString", "coordinates": [[[98.52741944, 12.26305278], [98.61243889, 12.25912778]]]}}, {"type": "Feature", "properties": {"fid": 927, "area_code": "PAC", "airport_identifier": "VYME", "procedure_identifier": "R36", "transition_identifier": null}, "geometry": {"type": "MultiLineString", "coordinates": [[[98.61243889, 12.25912778], [98.61644167, 12.34274167], [98.62051667, 12.42777778]]]}}, {"type": "Feature", "properties": {"fid": 932, "area_code": "PAC", "airport_identifier": "VYME", "procedure_identifier": "R36", "transition_identifier": null}, "geometry": {"type": "MultiLineString", "coordinates": [[[98.62570278, 12.53596389], [98.49894167, 12.44730833], [98.52741944, 12.26305278], [98.52741944, 12.26305278]]]}}, {"type": "Feature", "properties": {"fid": 935, "area_code": "PAC", "airport_identifier": "VYHH", "procedure_identifier": "R36", "transition_identifier": "DUMER"}, "geometry": {"type": "MultiLineString", "coordinates": [[[96.79061111, 20.41258333], [96.79113889, 20.54105556]]]}}, {"type": "Feature", "properties": {"fid": 939, "area_code": "PAC", "airport_identifier": "VYHH", "procedure_identifier": "R36", "transition_identifier": "GUSUM"}, "geometry": {"type": "MultiLineString", "coordinates": [[[96.51355556, 20.66413889], [96.68458333, 20.54144444], [96.79113889, 20.54105556]]]}}, {"type": "Feature", "properties": {"fid": 943, "area_code": "PAC", "airport_identifier": "VYHH", "procedure_identifier": "R36", "transition_identifier": null}, "geometry": {"type": "MultiLineString", "coordinates": [[[96.79113889, 20.54105556], [96.7915, 20.62472222], [96.79188889, 20.71866667]]]}}, {"type": "Feature", "properties": {"fid": 948, "area_code": "PAC", "airport_identifier": "VYHH", "procedure_identifier": "R36", "transition_identifier": null}, "geometry": {"type": "MultiLineString", "coordinates": [[[96.77736111, 20.81644444], [96.60994444, 20.78663889], [96.51355556, 20.66413889], [96.51355556, 20.66413889]]]}}, {"type": "Feature", "properties": {"fid": 952, "area_code": "PAC", "airport_identifier": "VYMK", "procedure_identifier": "N04", "transition_identifier": "MK1"}, "geometry": {"type": "MultiLineString", "coordinates": [[[97.35706667, 25.38365], [97.29156389, 25.31008056]]]}}, {"type": "Feature", "properties": {"fid": 956, "area_code": "PAC", "airport_identifier": "VYMK", "procedure_identifier": "N04", "transition_identifier": "MK2"}, "geometry": {"type": "MultiLineString", "coordinates": [[[97.35706667, 25.38365], [97.29156389, 25.31008056]]]}}, {"type": "Feature", "properties": {"fid": 959, "area_code": "PAC", "airport_identifier": "VYMK", "procedure_identifier": "N04", "transition_identifier": null}, "geometry": {"type": "MultiLineString", "coordinates": [[[97.29156389, 25.31008056], [97.33201667, 25.35551111]]]}}, {"type": "Feature", "properties": {"fid": 963, "area_code": "PAC", "airport_identifier": "VYMK", "procedure_identifier": "N04", "transition_identifier": null}, "geometry": {"type": "MultiLineString", "coordinates": [[[97.35706667, 25.38365], [97.35706667, 25.38365]]]}}, {"type": "Feature", "properties": {"fid": 967, "area_code": "PAC", "airport_identifier": "VYHH", "procedure_identifier": "D36", "transition_identifier": "HHO1"}, "geometry": {"type": "MultiLineString", "coordinates": [[[96.78992778, 20.74802778], [96.80182222, 20.58782778]]]}}, {"type": "Feature", "properties": {"fid": 971, "area_code": "PAC", "airport_identifier": "VYHH", "procedure_identifier": "D36", "transition_identifier": "HHO2"}, "geometry": {"type": "MultiLineString", "coordinates": [[[96.78992778, 20.74802778], [96.80182222, 20.58782778]]]}}, {"type": "Feature", "properties": {"fid": 976, "area_code": "PAC", "airport_identifier": "VYHH", "procedure_identifier": "D36", "transition_identifier": null}, "geometry": {"type": "MultiLineString", "coordinates": [[[96.80182222, 20.58782778], [96.79860278, 20.63121389], [96.796125, 20.66458889], [96.79196944, 20.73536944]]]}}, {"type": "Feature", "properties": {"fid": 980, "area_code": "PAC", "airport_identifier": "VYHH", "procedure_identifier": "D36", "transition_identifier": null}, "geometry": {"type": "MultiLineString", "coordinates": [[[96.78992778, 20.74802778], [96.78992778, 20.74802778]]]}}, {"type": "Feature", "properties": {"fid": 984, "area_code": "PAC", "airport_identifier": "VYMN", "procedure_identifier": "N16", "transition_identifier": "MN"}, "geometry": {"type": "MultiLineString", "coordinates": [[[93.68593333, 18.84465556], [93.649125, 18.923325]]]}}, {"type": "Feature", "properties": {"fid": 987, "area_code": "PAC", "airport_identifier": "VYMN", "procedure_identifier": "N16", "transition_identifier": null}, "geometry": {"type": "MultiLineString", "coordinates": [[[93.649125, 18.923325], [93.68163889, 18.85027222]]]}}, {"type": "Feature", "properties": {"fid": 992, "area_code": "PAC", "airport_identifier": "VYMN", "procedure_identifier": "N16", "transition_identifier": null}, "geometry": {"type": "MultiLineString", "coordinates": [[[93.68593333, 18.84465556], [93.68593333, 18.84465556], [93.68593333, 18.84465556]]]}}, {"type": "Feature", "properties": {"fid": 996, "area_code": "PAC", "airport_identifier": "VYSW", "procedure_identifier": "D11", "transition_identifier": "STW1"}, "geometry": {"type": "MultiLineString", "coordinates": [[[92.87871111, 20.13291111], [92.75698056, 20.15521111]]]}}, {"type": "Feature", "properties": {"fid": 1000, "area_code": "PAC", "airport_identifier": "VYSW", "procedure_identifier": "D11", "transition_identifier": "STW2"}, "geometry": {"type": "MultiLineString", "coordinates": [[[92.87871111, 20.13291111], [92.75698056, 20.15521111]]]}}, {"type": "Feature", "properties": {"fid": 1003, "area_code": "PAC", "airport_identifier": "VYSW", "procedure_identifier": "D11", "transition_identifier": null}, "geometry": {"type": "MultiLineString", "coordinates": [[[92.75698056, 20.15521111], [92.84567222, 20.13897222]]]}}, {"type": "Feature", "properties": {"fid": 1007, "area_code": "PAC", "airport_identifier": "VYSW", "procedure_identifier": "D11", "transition_identifier": null}, "geometry": {"type": "MultiLineString", "coordinates": [[[92.87871111, 20.13291111], [92.87871111, 20.13291111]]]}}, {"type": "Feature", "properties": {"fid": 1010, "area_code": "PAC", "airport_identifier": "VYTD", "procedure_identifier": "N20", "transition_identifier": null}, "geometry": {"type": "MultiLineString", "coordinates": [[[94.32353611, 18.54106389], [94.30104444, 18.45501944]]]}}, {"type": "Feature", "properties": {"fid": 1014, "area_code": "PAC", "airport_identifier": "VYTD", "procedure_identifier": "N20", "transition_identifier": null}, "geometry": {"type": "MultiLineString", "coordinates": [[[94.30104444, 18.45501944], [94.30104444, 18.45501944]]]}}, {"type": "Feature", "properties": {"fid": 1018, "area_code": "PAC", "airport_identifier": "VYMW", "procedure_identifier": "N01", "transition_identifier": "MW1"}, "geometry": {"type": "MultiLineString", "coordinates": [[[94.97473333, 20.16118333], [94.95203056, 20.07515]]]}}, {"type": "Feature", "properties": {"fid": 1022, "area_code": "PAC", "airport_identifier": "VYMW", "procedure_identifier": "N01", "transition_identifier": "MW2"}, "geometry": {"type": "MultiLineString", "coordinates": [[[94.97473333, 20.16118333], [94.95203056, 20.07515]]]}}, {"type": "Feature", "properties": {"fid": 1026, "area_code": "PAC", "airport_identifier": "VYMW", "procedure_identifier": "N01", "transition_identifier": null}, "geometry": {"type": "MultiLineString", "coordinates": [[[94.95203056, 20.07515], [94.96949722, 20.14135556], [94.97473333, 20.16118333]]]}}, {"type": "Feature", "properties": {"fid": 1030, "area_code": "PAC", "airport_identifier": "VYMW", "procedure_identifier": "N01", "transition_identifier": null}, "geometry": {"type": "MultiLineString", "coordinates": [[[94.97473333, 20.16118333], [94.97473333, 20.16118333]]]}}, {"type": "Feature", "properties": {"fid": 1033, "area_code": "PAC", "airport_identifier": "VYBG", "procedure_identifier": "R18", "transition_identifier": "LAWKA"}, "geometry": {"type": "MultiLineString", "coordinates": [[[95.02115556, 21.35725], [94.93189167, 21.35901111]]]}}, {"type": "Feature", "properties": {"fid": 1037, "area_code": "PAC", "airport_identifier": "VYBG", "procedure_identifier": "R18", "transition_identifier": null}, "geometry": {"type": "MultiLineString", "coordinates": [[[94.93189167, 21.35901111], [94.931175, 21.27538056], [94.93045278, 21.19068056]]]}}, {"type": "Feature", "properties": {"fid": 1043, "area_code": "PAC", "airport_identifier": "VYBG", "procedure_identifier": "R18", "transition_identifier": null}, "geometry": {"type": "MultiLineString", "coordinates": [[[94.92945278, 21.07359444], [94.92815278, 21.16953333], [95.02046389, 21.27587778], [95.02115556, 21.35725], [95.02115556, 21.35725]]]}}, {"type": "Feature", "properties": {"fid": 1046, "area_code": "PAC", "airport_identifier": "VYSW", "procedure_identifier": "R11", "transition_identifier": "BYALA"}, "geometry": {"type": "MultiLineString", "coordinates": [[[92.7135, 20.25655556], [92.692, 20.17541667]]]}}, {"type": "Feature", "properties": {"fid": 1049, "area_code": "PAC", "airport_identifier": "VYSW", "procedure_identifier": "R11", "transition_identifier": "SIDRA"}, "geometry": {"type": "MultiLineString", "coordinates": [[[92.6705, 20.09427778], [92.692, 20.17541667]]]}}, {"type": "Feature", "properties": {"fid": 1053, "area_code": "PAC", "airport_identifier": "VYSW", "procedure_identifier": "R11", "transition_identifier": null}, "geometry": {"type": "MultiLineString", "coordinates": [[[92.692, 20.17541667], [92.77794444, 20.15513889], [92.85990278, 20.13578889]]]}}, {"type": "Feature", "properties": {"fid": 1058, "area_code": "PAC", "airport_identifier": "VYSW", "procedure_identifier": "R11", "transition_identifier": null}, "geometry": {"type": "MultiLineString", "coordinates": [[[92.93275, 20.11855556], [92.80338889, 20.06288889], [92.6705, 20.09427778], [92.6705, 20.09427778]]]}}, {"type": "Feature", "properties": {"fid": 1062, "area_code": "PAC", "airport_identifier": "VYMN", "procedure_identifier": "N34", "transition_identifier": "MN"}, "geometry": {"type": "MultiLineString", "coordinates": [[[93.68593333, 18.84465556], [93.72066667, 18.76670278]]]}}, {"type": "Feature", "properties": {"fid": 1065, "area_code": "PAC", "airport_identifier": "VYMN", "procedure_identifier": "N34", "transition_identifier": null}, "geometry": {"type": "MultiLineString", "coordinates": [[[93.72066667, 18.76670278], [93.68670833, 18.83886389]]]}}, {"type": "Feature", "properties": {"fid": 1070, "area_code": "PAC", "airport_identifier": "VYMN", "procedure_identifier": "N34", "transition_identifier": null}, "geometry": {"type": "MultiLineString", "coordinates": [[[93.68593333, 18.84465556], [93.68593333, 18.84465556], [93.68593333, 18.84465556]]]}}, {"type": "Feature", "properties": {"fid": 1074, "area_code": "PAC", "airport_identifier": "VYTD", "procedure_identifier": "D02", "transition_identifier": "TDE1"}, "geometry": {"type": "MultiLineString", "coordinates": [[[94.29576389, 18.45671389], [94.26098889, 18.34090278]]]}}, {"type": "Feature", "properties": {"fid": 1078, "area_code": "PAC", "airport_identifier": "VYTD", "procedure_identifier": "D02", "transition_identifier": "TDE2"}, "geometry": {"type": "MultiLineString", "coordinates": [[[94.29576389, 18.45671389], [94.26098889, 18.34090278]]]}}, {"type": "Feature", "properties": {"fid": 1081, "area_code": "PAC", "airport_identifier": "VYTD", "procedure_identifier": "D02", "transition_identifier": null}, "geometry": {"type": "MultiLineString", "coordinates": [[[94.26098889, 18.34090278], [94.29576389, 18.45671389]]]}}, {"type": "Feature", "properties": {"fid": 1085, "area_code": "PAC", "airport_identifier": "VYTD", "procedure_identifier": "D02", "transition_identifier": null}, "geometry": {"type": "MultiLineString", "coordinates": [[[94.29576389, 18.45671389], [94.29576389, 18.45671389]]]}}, {"type": "Feature", "properties": {"fid": 1088, "area_code": "PAC", "airport_identifier": "VYMD", "procedure_identifier": "R17", "transition_identifier": "MDN02"}, "geometry": {"type": "MultiLineString", "coordinates": [[[95.92802778, 21.96552778], [95.94513889, 21.88344444]]]}}, {"type": "Feature", "properties": {"fid": 1091, "area_code": "PAC", "airport_identifier": "VYMD", "procedure_identifier": "R17", "transition_identifier": "MDN03"}, "geometry": {"type": "MultiLineString", "coordinates": [[[95.85488889, 21.86702778], [95.94513889, 21.88344444]]]}}, {"type": "Feature", "properties": {"fid": 1095, "area_code": "PAC", "airport_identifier": "VYMD", "procedure_identifier": "R17", "transition_identifier": "THADU"}, "geometry": {"type": "MultiLineString", "coordinates": [[[96.12975, 21.93427778], [96.03327778, 21.90777778], [95.94513889, 21.88344444]]]}}, {"type": "Feature", "properties": {"fid": 1099, "area_code": "PAC", "airport_identifier": "VYMD", "procedure_identifier": "R17", "transition_identifier": null}, "geometry": {"type": "MultiLineString", "coordinates": [[[95.94513889, 21.88344444], [95.95883333, 21.80622222], [95.97401111, 21.72005833]]]}}, {"type": "Feature", "properties": {"fid": 1104, "area_code": "PAC", "airport_identifier": "VYMD", "procedure_identifier": "R17", "transition_identifier": null}, "geometry": {"type": "MultiLineString", "coordinates": [[[95.98872222, 21.63755556], [95.81313889, 21.60555556], [95.79127778, 21.71063889], [95.79127778, 21.71063889]]]}}, {"type": "Feature", "properties": {"fid": 1108, "area_code": "PAC", "airport_identifier": "VYMD", "procedure_identifier": "D35", "transition_identifier": "MIA1"}, "geometry": {"type": "MultiLineString", "coordinates": [[[95.97901389, 21.71147222], [95.99792778, 21.58558889]]]}}, {"type": "Feature", "properties": {"fid": 1112, "area_code": "PAC", "airport_identifier": "VYMD", "procedure_identifier": "D35", "transition_identifier": "MIA2"}, "geometry": {"type": "MultiLineString", "coordinates": [[[95.97901389, 21.71147222], [95.99792778, 21.58558889]]]}}, {"type": "Feature", "properties": {"fid": 1115, "area_code": "PAC", "airport_identifier": "VYMD", "procedure_identifier": "D35", "transition_identifier": null}, "geometry": {"type": "MultiLineString", "coordinates": [[[95.99792778, 21.58558889], [95.98581111, 21.66625278]]]}}, {"type": "Feature", "properties": {"fid": 1119, "area_code": "PAC", "airport_identifier": "VYMD", "procedure_identifier": "D35", "transition_identifier": null}, "geometry": {"type": "MultiLineString", "coordinates": [[[95.97901389, 21.71147222], [95.97901389, 21.71147222]]]}}, {"type": "Feature", "properties": {"fid": 1124, "area_code": "PAC", "airport_identifier": "VYNT", "procedure_identifier": "Q16", "transition_identifier": "NT1"}, "geometry": {"type": "MultiLineString", "coordinates": [[[96.20112222, 19.63255278], [96.20112222, 19.63255278], [96.14610278, 19.72653333]]]}}, {"type": "Feature", "properties": {"fid": 1129, "area_code": "PAC", "airport_identifier": "VYNT", "procedure_identifier": "Q16", "transition_identifier": "NT2"}, "geometry": {"type": "MultiLineString", "coordinates": [[[96.20112222, 19.63255278], [96.20112222, 19.63255278], [96.14610278, 19.72653333]]]}}, {"type": "Feature", "properties": {"fid": 1132, "area_code": "PAC", "airport_identifier": "VYNT", "procedure_identifier": "Q16", "transition_identifier": null}, "geometry": {"type": "MultiLineString", "coordinates": [[[96.14610278, 19.72653333], [96.18415, 19.66155556]]]}}, {"type": "Feature", "properties": {"fid": 1136, "area_code": "PAC", "airport_identifier": "VYNT", "procedure_identifier": "Q16", "transition_identifier": null}, "geometry": {"type": "MultiLineString", "coordinates": [[[96.20112222, 19.63255278], [96.20112222, 19.63255278]]]}}, {"type": "Feature", "properties": {"fid": 1140, "area_code": "PAC", "airport_identifier": "VYNT", "procedure_identifier": "D34", "transition_identifier": "NPT1"}, "geometry": {"type": "MultiLineString", "coordinates": [[[96.19558333, 19.62655556], [96.25245833, 19.52070833]]]}}, {"type": "Feature", "properties": {"fid": 1144, "area_code": "PAC", "airport_identifier": "VYNT", "procedure_identifier": "D34", "transition_identifier": "NPT2"}, "geometry": {"type": "MultiLineString", "coordinates": [[[96.19558333, 19.62655556], [96.25245833, 19.52070833]]]}}, {"type": "Feature", "properties": {"fid": 1147, "area_code": "PAC", "airport_identifier": "VYNT", "procedure_identifier": "D34", "transition_identifier": null}, "geometry": {"type": "MultiLineString", "coordinates": [[[96.25245833, 19.52070833], [96.21257222, 19.59495]]]}}, {"type": "Feature", "properties": {"fid": 1151, "area_code": "PAC", "airport_identifier": "VYNT", "procedure_identifier": "D34", "transition_identifier": null}, "geometry": {"type": "MultiLineString", "coordinates": [[[96.19558333, 19.62655556], [96.19558333, 19.62655556]]]}}, {"type": "Feature", "properties": {"fid": 1154, "area_code": "PAC", "airport_identifier": "VYHL", "procedure_identifier": "N34", "transition_identifier": null}, "geometry": {"type": "MultiLineString", "coordinates": [[[94.95576111, 24.81537222], [94.92025278, 24.88329167]]]}}, {"type": "Feature", "properties": {"fid": 1159, "area_code": "PAC", "airport_identifier": "VYHL", "procedure_identifier": "N34", "transition_identifier": null}, "geometry": {"type": "MultiLineString", "coordinates": [[[94.91320556, 24.89502778], [94.91320556, 24.89502778], [94.91320556, 24.89502778]]]}}, {"type": "Feature", "properties": {"fid": 1164, "area_code": "PAC", "airport_identifier": "VYNT", "procedure_identifier": "Q34", "transition_identifier": "NT1"}, "geometry": {"type": "MultiLineString", "coordinates": [[[96.20112222, 19.63255278], [96.20112222, 19.63255278], [96.2432, 19.51667778]]]}}, {"type": "Feature", "properties": {"fid": 1169, "area_code": "PAC", "airport_identifier": "VYNT", "procedure_identifier": "Q34", "transition_identifier": "NT2"}, "geometry": {"type": "MultiLineString", "coordinates": [[[96.20112222, 19.63255278], [96.20112222, 19.63255278], [96.2432, 19.51667778]]]}}, {"type": "Feature", "properties": {"fid": 1172, "area_code": "PAC", "airport_identifier": "VYNT", "procedure_identifier": "Q34", "transition_identifier": null}, "geometry": {"type": "MultiLineString", "coordinates": [[[96.2432, 19.51667778], [96.21443333, 19.59591389]]]}}, {"type": "Feature", "properties": {"fid": 1176, "area_code": "PAC", "airport_identifier": "VYNT", "procedure_identifier": "Q34", "transition_identifier": null}, "geometry": {"type": "MultiLineString", "coordinates": [[[96.20112222, 19.63255278], [96.20112222, 19.63255278]]]}}, {"type": "Feature", "properties": {"fid": 1180, "area_code": "PAC", "airport_identifier": "VYBG", "procedure_identifier": "N18", "transition_identifier": "BG1"}, "geometry": {"type": "MultiLineString", "coordinates": [[[94.92869444, 21.17652778], [94.92704167, 21.26516667]]]}}, {"type": "Feature", "properties": {"fid": 1184, "area_code": "PAC", "airport_identifier": "VYBG", "procedure_identifier": "N18", "transition_identifier": "BG2"}, "geometry": {"type": "MultiLineString", "coordinates": [[[94.92869444, 21.17652778], [94.92704167, 21.26516667]]]}}, {"type": "Feature", "properties": {"fid": 1187, "area_code": "PAC", "airport_identifier": "VYBG", "procedure_identifier": "N18", "transition_identifier": null}, "geometry": {"type": "MultiLineString", "coordinates": [[[94.92704167, 21.26516667], [94.93045278, 21.19068056]]]}}, {"type": "Feature", "properties": {"fid": 1192, "area_code": "PAC", "airport_identifier": "VYBG", "procedure_identifier": "N18", "transition_identifier": null}, "geometry": {"type": "MultiLineString", "coordinates": [[[94.92869444, 21.17652778], [94.92869444, 21.17652778], [94.92869444, 21.17652778]]]}}, {"type": "Feature", "properties": {"fid": 1197, "area_code": "PAC", "airport_identifier": "VYKI", "procedure_identifier": "N03", "transition_identifier": "KI1"}, "geometry": {"type": "MultiLineString", "coordinates": [[[95.67839722, 25.99050556], [95.67839722, 25.99050556], [95.61737778, 25.908675]]]}}, {"type": "Feature", "properties": {"fid": 1202, "area_code": "PAC", "airport_identifier": "VYKI", "procedure_identifier": "N03", "transition_identifier": "KI2"}, "geometry": {"type": "MultiLineString", "coordinates": [[[95.67839722, 25.99050556], [95.67839722, 25.99050556], [95.61737778, 25.908675]]]}}, {"type": "Feature", "properties": {"fid": 1205, "area_code": "PAC", "airport_identifier": "VYKI", "procedure_identifier": "N03", "transition_identifier": null}, "geometry": {"type": "MultiLineString", "coordinates": [[[95.61737778, 25.908675], [95.6611, 25.967325]]]}}, {"type": "Feature", "properties": {"fid": 1209, "area_code": "PAC", "airport_identifier": "VYKI", "procedure_identifier": "N03", "transition_identifier": null}, "geometry": {"type": "MultiLineString", "coordinates": [[[95.67839722, 25.99050556], [95.67839722, 25.99050556]]]}}, {"type": "Feature", "properties": {"fid": 1213, "area_code": "PAC", "airport_identifier": "VYBM", "procedure_identifier": "N33", "transition_identifier": "BM1"}, "geometry": {"type": "MultiLineString", "coordinates": [[[97.24849722, 24.26932778], [97.31462778, 24.19953333]]]}}, {"type": "Feature", "properties": {"fid": 1217, "area_code": "PAC", "airport_identifier": "VYBM", "procedure_identifier": "N33", "transition_identifier": "BM2"}, "geometry": {"type": "MultiLineString", "coordinates": [[[97.24849722, 24.26932778], [97.31462778, 24.19953333]]]}}, {"type": "Feature", "properties": {"fid": 1220, "area_code": "PAC", "airport_identifier": "VYBM", "procedure_identifier": "N33", "transition_identifier": null}, "geometry": {"type": "MultiLineString", "coordinates": [[[97.31462778, 24.19953333], [97.25321111, 24.26206389]]]}}, {"type": "Feature", "properties": {"fid": 1225, "area_code": "PAC", "airport_identifier": "VYBM", "procedure_identifier": "N33", "transition_identifier": null}, "geometry": {"type": "MultiLineString", "coordinates": [[[97.24849722, 24.26932778], [97.24849722, 24.26932778], [97.24849722, 24.26932778]]]}}, {"type": "Feature", "properties": {"fid": 1228, "area_code": "PAC", "airport_identifier": "VYNT", "procedure_identifier": "R34", "transition_identifier": "WUNNA"}, "geometry": {"type": "MultiLineString", "coordinates": [[[96.19547222, 19.41969444], [96.27677778, 19.45205556]]]}}, {"type": "Feature", "properties": {"fid": 1231, "area_code": "PAC", "airport_identifier": "VYNT", "procedure_identifier": "R34", "transition_identifier": "ZIBYU"}, "geometry": {"type": "MultiLineString", "coordinates": [[[96.31766667, 19.35947222], [96.27677778, 19.45205556]]]}}, {"type": "Feature", "properties": {"fid": 1235, "area_code": "PAC", "airport_identifier": "VYNT", "procedure_identifier": "R34", "transition_identifier": null}, "geometry": {"type": "MultiLineString", "coordinates": [[[96.27677778, 19.45205556], [96.24269444, 19.52922222], [96.20773333, 19.60832222]]]}}, {"type": "Feature", "properties": {"fid": 1240, "area_code": "PAC", "airport_identifier": "VYNT", "procedure_identifier": "R34", "transition_identifier": null}, "geometry": {"type": "MultiLineString", "coordinates": [[[96.18727778, 19.65461111], [96.16136111, 19.49686111], [96.19547222, 19.41969444], [96.19547222, 19.41969444]]]}}, {"type": "Feature", "properties": {"fid": 1245, "area_code": "PAC", "airport_identifier": "VYYY", "procedure_identifier": "I21-Z", "transition_identifier": "BAGOO"}, "geometry": {"type": "MultiLineString", "coordinates": [[[96.51986111, 17.3185], [96.32894444, 17.14961111], [96.251, 17.08030556], [96.20721944, 17.01695]]]}}, {"type": "Feature", "properties": {"fid": 1249, "area_code": "PAC", "airport_identifier": "VYYY", "procedure_identifier": "I21-Z", "transition_identifier": "DANSO"}, "geometry": {"type": "MultiLineString", "coordinates": [[[96.34541667, 17.02355556], [96.251, 17.08030556], [96.20721944, 17.01695]]]}}, {"type": "Feature", "properties": {"fid": 1253, "area_code": "PAC", "airport_identifier": "VYYY", "procedure_identifier": "I21-Z", "transition_identifier": "GONAS"}, "geometry": {"type": "MultiLineString", "coordinates": [[[96.19222222, 17.16733333], [96.251, 17.08030556], [96.20721944, 17.01695]]]}}, {"type": "Feature", "properties": {"fid": 1257, "area_code": "PAC", "airport_identifier": "VYYY", "procedure_identifier": "I21-Z", "transition_identifier": null}, "geometry": {"type": "MultiLineString", "coordinates": [[[96.20721944, 17.01695], [96.18655556, 16.98563889], [96.14445556, 16.92373611]]]}}, {"type": "Feature", "properties": {"fid": 1262, "area_code": "PAC", "airport_identifier": "VYYY", "procedure_identifier": "I21-Z", "transition_identifier": null}, "geometry": {"type": "MultiLineString", "coordinates": [[[96.08408333, 16.86352778], [95.93397222, 17.00297222], [95.93397222, 17.00297222]]]}}, {"type": "Feature", "properties": {"fid": 1266, "area_code": "PAC", "airport_identifier": "VYPN", "procedure_identifier": "D24", "transition_identifier": "PTN1"}, "geometry": {"type": "MultiLineString", "coordinates": [[[94.76955, 16.80868889], [94.86326667, 16.85268333]]]}}, {"type": "Feature", "properties": {"fid": 1270, "area_code": "PAC", "airport_identifier": "VYPN", "procedure_identifier": "D24", "transition_identifier": "PTN2"}, "geometry": {"type": "MultiLineString", "coordinates": [[[94.76955, 16.80868889], [94.86326667, 16.85268333]]]}}, {"type": "Feature", "properties": {"fid": 1273, "area_code": "PAC", "airport_identifier": "VYPN", "procedure_identifier": "D24", "transition_identifier": null}, "geometry": {"type": "MultiLineString", "coordinates": [[[94.86326667, 16.85268333], [94.79609722, 16.82115833]]]}}, {"type": "Feature", "properties": {"fid": 1278, "area_code": "PAC", "airport_identifier": "VYPN", "procedure_identifier": "D24", "transition_identifier": null}, "geometry": {"type": "MultiLineString", "coordinates": [[[94.76955, 16.80868889], [94.76955, 16.80868889]]]}}, {"type": "Feature", "properties": {"fid": 1282, "area_code": "PAC", "airport_identifier": "VYKT", "procedure_identifier": "N02", "transition_identifier": "KT1"}, "geometry": {"type": "MultiLineString", "coordinates": [[[98.54006944, 10.05000833], [98.49263056, 9.97474444]]]}}, {"type": "Feature", "properties": {"fid": 1286, "area_code": "PAC", "airport_identifier": "VYKT", "procedure_identifier": "N02", "transition_identifier": "KT2"}, "geometry": {"type": "MultiLineString", "coordinates": [[[98.54006944, 10.05000833], [98.49263056, 9.97474444]]]}}, {"type": "Feature", "properties": {"fid": 1289, "area_code": "PAC", "airport_identifier": "VYKT", "procedure_identifier": "N02", "transition_identifier": null}, "geometry": {"type": "MultiLineString", "coordinates": [[[98.49263056, 9.97474444], [98.52181111, 10.02104444]]]}}, {"type": "Feature", "properties": {"fid": 1293, "area_code": "PAC", "airport_identifier": "VYKT", "procedure_identifier": "N02", "transition_identifier": null}, "geometry": {"type": "MultiLineString", "coordinates": [[[98.54006944, 10.05000833], [98.54006944, 10.05000833]]]}}, {"type": "Feature", "properties": {"fid": 1296, "area_code": "PAC", "airport_identifier": "VYME", "procedure_identifier": "R18", "transition_identifier": "KALVO"}, "geometry": {"type": "MultiLineString", "coordinates": [[[98.63371667, 12.70300833], [98.62970556, 12.61939722]]]}}, {"type": "Feature", "properties": {"fid": 1299, "area_code": "PAC", "airport_identifier": "VYME", "procedure_identifier": "R18", "transition_identifier": "TEGAN"}, "geometry": {"type": "MultiLineString", "coordinates": [[[98.71483889, 12.61544444], [98.62970556, 12.61939722]]]}}, {"type": "Feature", "properties": {"fid": 1303, "area_code": "PAC", "airport_identifier": "VYME", "procedure_identifier": "R18", "transition_identifier": null}, "geometry": {"type": "MultiLineString", "coordinates": [[[98.62970556, 12.61939722], [98.62569444, 12.53578333], [98.62169444, 12.45235]]]}}, {"type": "Feature", "properties": {"fid": 1308, "area_code": "PAC", "airport_identifier": "VYME", "procedure_identifier": "R18", "transition_identifier": null}, "geometry": {"type": "MultiLineString", "coordinates": [[[98.61651111, 12.34416389], [98.736325, 12.48481111], [98.71483889, 12.61544444], [98.71483889, 12.61544444]]]}}, {"type": "Feature", "properties": {"fid": 1311, "area_code": "PAC", "airport_identifier": "VYBG", "procedure_identifier": "R36", "transition_identifier": "LAMIN"}, "geometry": {"type": "MultiLineString", "coordinates": [[[94.92808611, 20.91300556], [94.92879722, 20.99664167]]]}}, {"type": "Feature", "properties": {"fid": 1315, "area_code": "PAC", "airport_identifier": "VYBG", "procedure_identifier": "R36", "transition_identifier": "MAHAR"}, "geometry": {"type": "MultiLineString", "coordinates": [[[95.13454722, 21.1257], [95.01785556, 20.99594722], [94.92879722, 20.99664167]]]}}, {"type": "Feature", "properties": {"fid": 1319, "area_code": "PAC", "airport_identifier": "VYBG", "procedure_identifier": "R36", "transition_identifier": null}, "geometry": {"type": "MultiLineString", "coordinates": [[[94.92879722, 20.99664167], [94.92955, 21.08474722], [94.93025278, 21.16725278]]]}}, {"type": "Feature", "properties": {"fid": 1323, "area_code": "PAC", "airport_identifier": "VYBG", "procedure_identifier": "R36", "transition_identifier": null}, "geometry": {"type": "MultiLineString", "coordinates": [[[94.93125278, 21.28433611], [95.13454722, 21.1257], [95.13454722, 21.1257]]]}}, {"type": "Feature", "properties": {"fid": 1327, "area_code": "PAC", "airport_identifier": "VYTD", "procedure_identifier": "N02", "transition_identifier": "TD1"}, "geometry": {"type": "MultiLineString", "coordinates": [[[94.30104444, 18.45501944], [94.257, 18.37915278]]]}}, {"type": "Feature", "properties": {"fid": 1331, "area_code": "PAC", "airport_identifier": "VYTD", "procedure_identifier": "N02", "transition_identifier": "TD2"}, "geometry": {"type": "MultiLineString", "coordinates": [[[94.30104444, 18.45501944], [94.257, 18.37915278]]]}}, {"type": "Feature", "properties": {"fid": 1334, "area_code": "PAC", "airport_identifier": "VYTD", "procedure_identifier": "N02", "transition_identifier": null}, "geometry": {"type": "MultiLineString", "coordinates": [[[94.257, 18.37915278], [94.28643056, 18.42985556]]]}}, {"type": "Feature", "properties": {"fid": 1338, "area_code": "PAC", "airport_identifier": "VYTD", "procedure_identifier": "N02", "transition_identifier": null}, "geometry": {"type": "MultiLineString", "coordinates": [[[94.30104444, 18.45501944], [94.30104444, 18.45501944]]]}}, {"type": "Feature", "properties": {"fid": 1342, "area_code": "PAC", "airport_identifier": "VYAS", "procedure_identifier": "D21", "transition_identifier": "ASN1"}, "geometry": {"type": "MultiLineString", "coordinates": [[[96.41126944, 21.96295], [96.47194167, 22.08420556]]]}}, {"type": "Feature", "properties": {"fid": 1346, "area_code": "PAC", "airport_identifier": "VYAS", "procedure_identifier": "D21", "transition_identifier": "ASN2"}, "geometry": {"type": "MultiLineString", "coordinates": [[[96.41126944, 21.96295], [96.47194167, 22.08420556]]]}}, {"type": "Feature", "properties": {"fid": 1350, "area_code": "PAC", "airport_identifier": "VYAS", "procedure_identifier": "D21", "transition_identifier": null}, "geometry": {"type": "MultiLineString", "coordinates": [[[96.47194167, 22.08420556], [96.44538333, 22.03115833], [96.41253889, 21.96846111]]]}}, {"type": "Feature", "properties": {"fid": 1355, "area_code": "PAC", "airport_identifier": "VYAS", "procedure_identifier": "D21", "transition_identifier": null}, "geometry": {"type": "MultiLineString", "coordinates": [[[96.41126944, 21.96295], [96.41126944, 21.96295], [96.41126944, 21.96295]]]}}, {"type": "Feature", "properties": {"fid": 1359, "area_code": "PAC", "airport_identifier": "VYPN", "procedure_identifier": "N06", "transition_identifier": "PTN1"}, "geometry": {"type": "MultiLineString", "coordinates": [[[94.77969444, 16.8131], [94.69840278, 16.77144167]]]}}, {"type": "Feature", "properties": {"fid": 1363, "area_code": "PAC", "airport_identifier": "VYPN", "procedure_identifier": "N06", "transition_identifier": "PTN2"}, "geometry": {"type": "MultiLineString", "coordinates": [[[94.77969444, 16.8131], [94.69840278, 16.77144167]]]}}, {"type": "Feature", "properties": {"fid": 1366, "area_code": "PAC", "airport_identifier": "VYPN", "procedure_identifier": "N06", "transition_identifier": null}, "geometry": {"type": "MultiLineString", "coordinates": [[[94.69840278, 16.77144167], [94.761925, 16.80645833]]]}}, {"type": "Feature", "properties": {"fid": 1371, "area_code": "PAC", "airport_identifier": "VYPN", "procedure_identifier": "N06", "transition_identifier": null}, "geometry": {"type": "MultiLineString", "coordinates": [[[94.77969444, 16.8131], [94.77969444, 16.8131], [94.77969444, 16.8131]]]}}, {"type": "Feature", "properties": {"fid": 1375, "area_code": "PAC", "airport_identifier": "VYFS", "procedure_identifier": "D18", "transition_identifier": "SBG1"}, "geometry": {"type": "MultiLineString", "coordinates": [[[93.61666389, 22.92023056], [93.60304444, 23.1004]]]}}, {"type": "Feature", "properties": {"fid": 1379, "area_code": "PAC", "airport_identifier": "VYFS", "procedure_identifier": "D18", "transition_identifier": "SBG2"}, "geometry": {"type": "MultiLineString", "coordinates": [[[93.61666389, 22.92023056], [93.60304444, 23.1004]]]}}, {"type": "Feature", "properties": {"fid": 1383, "area_code": "PAC", "airport_identifier": "VYFS", "procedure_identifier": "D18", "transition_identifier": null}, "geometry": {"type": "MultiLineString", "coordinates": [[[93.60304444, 23.1004], [93.60834444, 23.03033611], [93.61475, 22.94735278]]]}}, {"type": "Feature", "properties": {"fid": 1388, "area_code": "PAC", "airport_identifier": "VYFS", "procedure_identifier": "D18", "transition_identifier": null}, "geometry": {"type": "MultiLineString", "coordinates": [[[93.61666389, 22.92023056], [93.61666389, 22.92023056]]]}}, {"type": "Feature", "properties": {"fid": 1393, "area_code": "PAC", "airport_identifier": "VYKG", "procedure_identifier": "N12", "transition_identifier": "KG1"}, "geometry": {"type": "MultiLineString", "coordinates": [[[99.63055833, 21.30273333], [99.63055833, 21.30273333], [99.56393333, 21.34481667]]]}}, {"type": "Feature", "properties": {"fid": 1398, "area_code": "PAC", "airport_identifier": "VYKG", "procedure_identifier": "N12", "transition_identifier": "KG2"}, "geometry": {"type": "MultiLineString", "coordinates": [[[99.63055833, 21.30273333], [99.63055833, 21.30273333], [99.56393333, 21.34481667]]]}}, {"type": "Feature", "properties": {"fid": 1401, "area_code": "PAC", "airport_identifier": "VYKG", "procedure_identifier": "N12", "transition_identifier": null}, "geometry": {"type": "MultiLineString", "coordinates": [[[99.56393333, 21.34481667], [99.6057, 21.31844167]]]}}, {"type": "Feature", "properties": {"fid": 1405, "area_code": "PAC", "airport_identifier": "VYKG", "procedure_identifier": "N12", "transition_identifier": null}, "geometry": {"type": "MultiLineString", "coordinates": [[[99.63055833, 21.30273333], [99.63055833, 21.30273333]]]}}, {"type": "Feature", "properties": {"fid": 1409, "area_code": "PAC", "airport_identifier": "VYMK", "procedure_identifier": "N22", "transition_identifier": "MK1"}, "geometry": {"type": "MultiLineString", "coordinates": [[[97.35706667, 25.38365], [97.40530278, 25.46259722]]]}}, {"type": "Feature", "properties": {"fid": 1413, "area_code": "PAC", "airport_identifier": "VYMK", "procedure_identifier": "N22", "transition_identifier": "MK2"}, "geometry": {"type": "MultiLineString", "coordinates": [[[97.35706667, 25.38365], [97.40530278, 25.46259722]]]}}, {"type": "Feature", "properties": {"fid": 1416, "area_code": "PAC", "airport_identifier": "VYMK", "procedure_identifier": "N22", "transition_identifier": null}, "geometry": {"type": "MultiLineString", "coordinates": [[[97.40530278, 25.46259722], [97.37806667, 25.41801111]]]}}, {"type": "Feature", "properties": {"fid": 1420, "area_code": "PAC", "airport_identifier": "VYMK", "procedure_identifier": "N22", "transition_identifier": null}, "geometry": {"type": "MultiLineString", "coordinates": [[[97.35706667, 25.38365], [97.35706667, 25.38365]]]}}, {"type": "Feature", "properties": {"fid": 1424, "area_code": "PAC", "airport_identifier": "VYYY", "procedure_identifier": "R21", "transition_identifier": "BAGOO"}, "geometry": {"type": "MultiLineString", "coordinates": [[[96.51986111, 17.3185], [96.32894444, 17.14961111], [96.251, 17.08030556]]]}}, {"type": "Feature", "properties": {"fid": 1427, "area_code": "PAC", "airport_identifier": "VYYY", "procedure_identifier": "R21", "transition_identifier": "DANSO"}, "geometry": {"type": "MultiLineString", "coordinates": [[[96.34541667, 17.02355556], [96.251, 17.08030556]]]}}, {"type": "Feature", "properties": {"fid": 1430, "area_code": "PAC", "airport_identifier": "VYYY", "procedure_identifier": "R21", "transition_identifier": "GONAS"}, "geometry": {"type": "MultiLineString", "coordinates": [[[96.19222222, 17.16733333], [96.251, 17.08030556]]]}}, {"type": "Feature", "properties": {"fid": 1434, "area_code": "PAC", "airport_identifier": "VYYY", "procedure_identifier": "R21", "transition_identifier": null}, "geometry": {"type": "MultiLineString", "coordinates": [[[96.251, 17.08030556], [96.18655556, 16.98563889], [96.14445556, 16.92373611]]]}}, {"type": "Feature", "properties": {"fid": 1438, "area_code": "PAC", "airport_identifier": "VYYY", "procedure_identifier": "R21", "transition_identifier": null}, "geometry": {"type": "MultiLineString", "coordinates": [[[96.08408333, 16.86352778], [95.93397222, 17.00297222], [95.93397222, 17.00297222]]]}}, {"type": "Feature", "properties": {"fid": 1442, "area_code": "PAC", "airport_identifier": "VYSW", "procedure_identifier": "D29", "transition_identifier": "STW1"}, "geometry": {"type": "MultiLineString", "coordinates": [[[92.87871111, 20.13291111], [92.96766389, 20.11037222]]]}}, {"type": "Feature", "properties": {"fid": 1446, "area_code": "PAC", "airport_identifier": "VYSW", "procedure_identifier": "D29", "transition_identifier": "STW2"}, "geometry": {"type": "MultiLineString", "coordinates": [[[92.87871111, 20.13291111], [92.96766389, 20.11037222]]]}}, {"type": "Feature", "properties": {"fid": 1449, "area_code": "PAC", "airport_identifier": "VYSW", "procedure_identifier": "D29", "transition_identifier": null}, "geometry": {"type": "MultiLineString", "coordinates": [[[92.96766389, 20.11037222], [92.88120833, 20.13075]]]}}, {"type": "Feature", "properties": {"fid": 1454, "area_code": "PAC", "airport_identifier": "VYSW", "procedure_identifier": "D29", "transition_identifier": null}, "geometry": {"type": "MultiLineString", "coordinates": [[[92.87871111, 20.13291111], [92.87871111, 20.13291111], [92.87871111, 20.13291111]]]}}, {"type": "Feature", "properties": {"fid": 1459, "area_code": "PAC", "airport_identifier": "VYTL", "procedure_identifier": "D22", "transition_identifier": "D274M"}, "geometry": {"type": "MultiLineString", "coordinates": [[[99.705, 20.49486944], [99.93548611, 20.48364167], [99.98353333, 20.69635], [100.06468889, 20.66388056]]]}}, {"type": "Feature", "properties": {"fid": 1463, "area_code": "PAC", "airport_identifier": "VYTL", "procedure_identifier": "D22", "transition_identifier": "D342P"}, "geometry": {"type": "MultiLineString", "coordinates": [[[99.84285833, 20.73668611], [100.06468889, 20.66388056]]]}}, {"type": "Feature", "properties": {"fid": 1467, "area_code": "PAC", "airport_identifier": "VYTL", "procedure_identifier": "D22", "transition_identifier": "TCL"}, "geometry": {"type": "MultiLineString", "coordinates": [[[99.93548611, 20.48364167], [99.98353333, 20.69635], [100.06468889, 20.66388056]]]}}, {"type": "Feature", "properties": {"fid": 1471, "area_code": "PAC", "airport_identifier": "VYTL", "procedure_identifier": "D22", "transition_identifier": null}, "geometry": {"type": "MultiLineString", "coordinates": [[[100.06468889, 20.66388056], [100.01495833, 20.59456944], [99.94104444, 20.49244722]]]}}, {"type": "Feature", "properties": {"fid": 1476, "area_code": "PAC", "airport_identifier": "VYTL", "procedure_identifier": "D22", "transition_identifier": null}, "geometry": {"type": "MultiLineString", "coordinates": [[[99.93548611, 20.48364167], [99.93548611, 20.48364167], [99.93548611, 20.48364167]]]}}, {"type": "Feature", "properties": {"fid": 1479, "area_code": "PAC", "airport_identifier": "VYYY", "procedure_identifier": "D21", "transition_identifier": "BGO"}, "geometry": {"type": "MultiLineString", "coordinates": [[[96.519875, 17.31849444], [96.251, 17.08030556]]]}}, {"type": "Feature", "properties": {"fid": 1484, "area_code": "PAC", "airport_identifier": "VYYY", "procedure_identifier": "D21", "transition_identifier": null}, "geometry": {"type": "MultiLineString", "coordinates": [[[96.251, 17.08030556], [96.18619167, 16.98510833], [96.14445556, 16.92373611]]]}}, {"type": "Feature", "properties": {"fid": 1488, "area_code": "PAC", "airport_identifier": "VYYY", "procedure_identifier": "D21", "transition_identifier": null}, "geometry": {"type": "MultiLineString", "coordinates": [[[96.251, 17.08030556], [96.251, 17.08030556]]]}}, {"type": "Feature", "properties": {"fid": 1493, "area_code": "PAC", "airport_identifier": "VYYY", "procedure_identifier": "I21-Y", "transition_identifier": "BGO"}, "geometry": {"type": "MultiLineString", "coordinates": [[[96.519875, 17.31849444], [96.251, 17.08030556], [96.251, 17.08030556], [96.20721944, 17.01695]]]}}, {"type": "Feature", "properties": {"fid": 1497, "area_code": "PAC", "airport_identifier": "VYYY", "procedure_identifier": "I21-Y", "transition_identifier": null}, "geometry": {"type": "MultiLineString", "coordinates": [[[96.20721944, 17.01695], [96.18655556, 16.98563889], [96.14445556, 16.92373611]]]}}, {"type": "Feature", "properties": {"fid": 1501, "area_code": "PAC", "airport_identifier": "VYYY", "procedure_identifier": "I21-Y", "transition_identifier": null}, "geometry": {"type": "MultiLineString", "coordinates": [[[96.251, 17.08030556], [96.251, 17.08030556]]]}}, {"type": "Feature", "properties": {"fid": 1505, "area_code": "PAC", "airport_identifier": "VYKL", "procedure_identifier": "N28", "transition_identifier": "KL1"}, "geometry": {"type": "MultiLineString", "coordinates": [[[94.05850278, 23.18873333], [94.14842222, 23.17404722]]]}}, {"type": "Feature", "properties": {"fid": 1509, "area_code": "PAC", "airport_identifier": "VYKL", "procedure_identifier": "N28", "transition_identifier": "KL2"}, "geometry": {"type": "MultiLineString", "coordinates": [[[94.05850278, 23.18873333], [94.14842222, 23.17404722]]]}}, {"type": "Feature", "properties": {"fid": 1512, "area_code": "PAC", "airport_identifier": "VYKL", "procedure_identifier": "N28", "transition_identifier": null}, "geometry": {"type": "MultiLineString", "coordinates": [[[94.14842222, 23.17404722], [94.07717222, 23.18568611]]]}}, {"type": "Feature", "properties": {"fid": 1517, "area_code": "PAC", "airport_identifier": "VYKL", "procedure_identifier": "N28", "transition_identifier": null}, "geometry": {"type": "MultiLineString", "coordinates": [[[94.05850278, 23.18873333], [94.05850278, 23.18873333]]]}}, {"type": "Feature", "properties": {"fid": 1521, "area_code": "PAC", "airport_identifier": "VYDW", "procedure_identifier": "D16", "transition_identifier": "DWI1"}, "geometry": {"type": "MultiLineString", "coordinates": [[[98.20680278, 14.10056111], [98.16329444, 14.19158056]]]}}, {"type": "Feature", "properties": {"fid": 1525, "area_code": "PAC", "airport_identifier": "VYDW", "procedure_identifier": "D16", "transition_identifier": "DWI2"}, "geometry": {"type": "MultiLineString", "coordinates": [[[98.20680278, 14.10056111], [98.16329444, 14.19158056]]]}}, {"type": "Feature", "properties": {"fid": 1528, "area_code": "PAC", "airport_identifier": "VYDW", "procedure_identifier": "D16", "transition_identifier": null}, "geometry": {"type": "MultiLineString", "coordinates": [[[98.16329444, 14.19158056], [98.20155833, 14.10908611]]]}}, {"type": "Feature", "properties": {"fid": 1533, "area_code": "PAC", "airport_identifier": "VYDW", "procedure_identifier": "D16", "transition_identifier": null}, "geometry": {"type": "MultiLineString", "coordinates": [[[98.20680278, 14.10056111], [98.21636944, 13.96697222], [98.20680278, 14.10056111], [98.20680278, 14.10056111]]]}}, {"type": "Feature", "properties": {"fid": 1537, "area_code": "PAC", "airport_identifier": "VYLK", "procedure_identifier": "N19", "transition_identifier": "LK1"}, "geometry": {"type": "MultiLineString", "coordinates": [[[97.213275, 19.69045556], [97.22871667, 19.78275278]]]}}, {"type": "Feature", "properties": {"fid": 1541, "area_code": "PAC", "airport_identifier": "VYLK", "procedure_identifier": "N19", "transition_identifier": "LK2"}, "geometry": {"type": "MultiLineString", "coordinates": [[[97.213275, 19.69045556], [97.22871667, 19.78275278]]]}}, {"type": "Feature", "properties": {"fid": 1544, "area_code": "PAC", "airport_identifier": "VYLK", "procedure_identifier": "N19", "transition_identifier": null}, "geometry": {"type": "MultiLineString", "coordinates": [[[97.22871667, 19.78275278], [97.217775, 19.717375]]]}}, {"type": "Feature", "properties": {"fid": 1548, "area_code": "PAC", "airport_identifier": "VYLK", "procedure_identifier": "N19", "transition_identifier": null}, "geometry": {"type": "MultiLineString", "coordinates": [[[97.213275, 19.69045556], [97.213275, 19.69045556]]]}}, {"type": "Feature", "properties": {"fid": 1552, "area_code": "PAC", "airport_identifier": "VYMD", "procedure_identifier": "D17", "transition_identifier": "MIA1"}, "geometry": {"type": "MultiLineString", "coordinates": [[[95.97901389, 21.71147222], [95.94934167, 21.81486667]]]}}, {"type": "Feature", "properties": {"fid": 1556, "area_code": "PAC", "airport_identifier": "VYMD", "procedure_identifier": "D17", "transition_identifier": "MIA2"}, "geometry": {"type": "MultiLineString", "coordinates": [[[95.97901389, 21.71147222], [95.94934167, 21.81486667]]]}}, {"type": "Feature", "properties": {"fid": 1559, "area_code": "PAC", "airport_identifier": "VYMD", "procedure_identifier": "D17", "transition_identifier": null}, "geometry": {"type": "MultiLineString", "coordinates": [[[95.94934167, 21.81486667], [95.97136667, 21.73812778]]]}}, {"type": "Feature", "properties": {"fid": 1563, "area_code": "PAC", "airport_identifier": "VYMD", "procedure_identifier": "D17", "transition_identifier": null}, "geometry": {"type": "MultiLineString", "coordinates": [[[95.97901389, 21.71147222], [95.97901389, 21.71147222]]]}}, {"type": "Feature", "properties": {"fid": 1568, "area_code": "PAC", "airport_identifier": "VYMD", "procedure_identifier": "I17", "transition_identifier": null}, "geometry": {"type": "MultiLineString", "coordinates": [[[95.94482222, 21.87565278], [95.95174722, 21.83510833], [95.97401111, 21.72005833]]]}}, {"type": "Feature", "properties": {"fid": 1572, "area_code": "PAC", "airport_identifier": "VYMD", "procedure_identifier": "I17", "transition_identifier": null}, "geometry": {"type": "MultiLineString", "coordinates": [[[95.94482222, 21.87565278], [95.94482222, 21.87565278]]]}}, {"type": "Feature", "properties": {"fid": 1576, "area_code": "PAC", "airport_identifier": "VYPT", "procedure_identifier": "N17", "transition_identifier": "PT1"}, "geometry": {"type": "MultiLineString", "coordinates": [[[97.42415556, 27.32605], [97.422425, 27.41451944]]]}}, {"type": "Feature", "properties": {"fid": 1580, "area_code": "PAC", "airport_identifier": "VYPT", "procedure_identifier": "N17", "transition_identifier": "PT2"}, "geometry": {"type": "MultiLineString", "coordinates": [[[97.42415556, 27.32605], [97.422425, 27.41451944]]]}}, {"type": "Feature", "properties": {"fid": 1583, "area_code": "PAC", "airport_identifier": "VYPT", "procedure_identifier": "N17", "transition_identifier": null}, "geometry": {"type": "MultiLineString", "coordinates": [[[97.422425, 27.41451944], [97.42341389, 27.36389167]]]}}, {"type": "Feature", "properties": {"fid": 1587, "area_code": "PAC", "airport_identifier": "VYPT", "procedure_identifier": "N17", "transition_identifier": null}, "geometry": {"type": "MultiLineString", "coordinates": [[[97.42415556, 27.32605], [97.42415556, 27.32605]]]}}, {"type": "Feature", "properties": {"fid": 1590, "area_code": "PAC", "airport_identifier": "VYTD", "procedure_identifier": "R02", "transition_identifier": "NODEN"}, "geometry": {"type": "MultiLineString", "coordinates": [[[94.15338056, 18.32346944], [94.23556944, 18.29454167]]]}}, {"type": "Feature", "properties": {"fid": 1593, "area_code": "PAC", "airport_identifier": "VYTD", "procedure_identifier": "R02", "transition_identifier": "SUSEN"}, "geometry": {"type": "MultiLineString", "coordinates": [[[94.31773056, 18.26558056], [94.23556944, 18.29454167]]]}}, {"type": "Feature", "properties": {"fid": 1597, "area_code": "PAC", "airport_identifier": "VYTD", "procedure_identifier": "R02", "transition_identifier": null}, "geometry": {"type": "MultiLineString", "coordinates": [[[94.23556944, 18.29454167], [94.26587222, 18.37303889], [94.29709722, 18.45389167]]]}}, {"type": "Feature", "properties": {"fid": 1602, "area_code": "PAC", "airport_identifier": "VYTD", "procedure_identifier": "R02", "transition_identifier": null}, "geometry": {"type": "MultiLineString", "coordinates": [[[94.32742778, 18.53238889], [94.20349167, 18.48487778], [94.15338056, 18.32346944], [94.15338056, 18.32346944]]]}}, {"type": "Feature", "properties": {"fid": 1606, "area_code": "PAC", "airport_identifier": "VYMD", "procedure_identifier": "Q17", "transition_identifier": "MIA1"}, "geometry": {"type": "MultiLineString", "coordinates": [[[95.98685833, 21.68814722], [95.95280278, 21.81568056]]]}}, {"type": "Feature", "properties": {"fid": 1610, "area_code": "PAC", "airport_identifier": "VYMD", "procedure_identifier": "Q17", "transition_identifier": "MIA2"}, "geometry": {"type": "MultiLineString", "coordinates": [[[95.98685833, 21.68814722], [95.95280278, 21.81568056]]]}}, {"type": "Feature", "properties": {"fid": 1613, "area_code": "PAC", "airport_identifier": "VYMD", "procedure_identifier": "Q17", "transition_identifier": null}, "geometry": {"type": "MultiLineString", "coordinates": [[[95.95280278, 21.81568056], [95.97340278, 21.73856667]]]}}, {"type": "Feature", "properties": {"fid": 1617, "area_code": "PAC", "airport_identifier": "VYMD", "procedure_identifier": "Q17", "transition_identifier": null}, "geometry": {"type": "MultiLineString", "coordinates": [[[95.98685833, 21.68814722], [95.98685833, 21.68814722]]]}}, {"type": "Feature", "properties": {"fid": 1621, "area_code": "PAC", "airport_identifier": "VYPN", "procedure_identifier": "D06", "transition_identifier": "PTN1"}, "geometry": {"type": "MultiLineString", "coordinates": [[[94.76955, 16.80868889], [94.68523611, 16.74965]]]}}, {"type": "Feature", "properties": {"fid": 1625, "area_code": "PAC", "airport_identifier": "VYPN", "procedure_identifier": "D06", "transition_identifier": "PTN2"}, "geometry": {"type": "MultiLineString", "coordinates": [[[94.76955, 16.80868889], [94.68523611, 16.74965]]]}}, {"type": "Feature", "properties": {"fid": 1628, "area_code": "PAC", "airport_identifier": "VYPN", "procedure_identifier": "D06", "transition_identifier": null}, "geometry": {"type": "MultiLineString", "coordinates": [[[94.68523611, 16.74965], [94.74284444, 16.78999722]]]}}, {"type": "Feature", "properties": {"fid": 1632, "area_code": "PAC", "airport_identifier": "VYPN", "procedure_identifier": "D06", "transition_identifier": null}, "geometry": {"type": "MultiLineString", "coordinates": [[[94.76955, 16.80868889], [94.76955, 16.80868889]]]}}, {"type": "Feature", "properties": {"fid": 1635, "area_code": "PAC", "airport_identifier": "VYKP", "procedure_identifier": "N18", "transition_identifier": null}, "geometry": {"type": "MultiLineString", "coordinates": [[[93.52693889, 19.51668889], [93.53467778, 19.43289722]]]}}, {"type": "Feature", "properties": {"fid": 1640, "area_code": "PAC", "airport_identifier": "VYKP", "procedure_identifier": "N18", "transition_identifier": null}, "geometry": {"type": "MultiLineString", "coordinates": [[[93.53663889, 19.42919444], [93.53663889, 19.42919444], [93.53663889, 19.42919444]]]}}, {"type": "Feature", "properties": {"fid": 1644, "area_code": "PAC", "airport_identifier": "VYMK", "procedure_identifier": "D04", "transition_identifier": "D186Y"}, "geometry": {"type": "MultiLineString", "coordinates": [[[97.31845278, 24.97126667], [97.06963611, 25.06254722], [97.22538889, 25.23817222]]]}}, {"type": "Feature", "properties": {"fid": 1648, "area_code": "PAC", "airport_identifier": "VYMK", "procedure_identifier": "D04", "transition_identifier": "D200Y"}, "geometry": {"type": "MultiLineString", "coordinates": [[[97.20910833, 24.99237778], [97.06963611, 25.06254722], [97.22538889, 25.23817222]]]}}, {"type": "Feature", "properties": {"fid": 1652, "area_code": "PAC", "airport_identifier": "VYMK", "procedure_identifier": "D04", "transition_identifier": "MKN1"}, "geometry": {"type": "MultiLineString", "coordinates": [[[97.35841944, 25.38765], [97.32536111, 25.19775], [97.22538889, 25.23817222]]]}}, {"type": "Feature", "properties": {"fid": 1656, "area_code": "PAC", "airport_identifier": "VYMK", "procedure_identifier": "D04", "transition_identifier": "MKN2"}, "geometry": {"type": "MultiLineString", "coordinates": [[[97.35841944, 25.38765], [97.27245833, 25.21198333], [97.22538889, 25.23817222]]]}}, {"type": "Feature", "properties": {"fid": 1660, "area_code": "PAC", "airport_identifier": "VYMK", "procedure_identifier": "D04", "transition_identifier": null}, "geometry": {"type": "MultiLineString", "coordinates": [[[97.22538889, 25.23817222], [97.28665833, 25.30707778], [97.34728333, 25.376025]]]}}, {"type": "Feature", "properties": {"fid": 1664, "area_code": "PAC", "airport_identifier": "VYMK", "procedure_identifier": "D04", "transition_identifier": null}, "geometry": {"type": "MultiLineString", "coordinates": [[[97.35841944, 25.38765], [97.41635833, 25.4526], [97.35841944, 25.38765]]]}}, {"type": "Feature", "properties": {"fid": 1667, "area_code": "PAC", "airport_identifier": "VYMM", "procedure_identifier": "N22", "transition_identifier": null}, "geometry": {"type": "MultiLineString", "coordinates": [[[97.71046667, 16.51596944], [97.66522778, 16.45078333]]]}}, {"type": "Feature", "properties": {"fid": 1672, "area_code": "PAC", "airport_identifier": "VYMM", "procedure_identifier": "N22", "transition_identifier": null}, "geometry": {"type": "MultiLineString", "coordinates": [[[97.65773056, 16.44331944], [97.65773056, 16.44331944], [97.65773056, 16.44331944]]]}}, {"type": "Feature", "properties": {"fid": 1676, "area_code": "PAC", "airport_identifier": "VYNT", "procedure_identifier": "I16", "transition_identifier": "NPT"}, "geometry": {"type": "MultiLineString", "coordinates": [[[96.19558333, 19.62655556], [96.12024444, 19.80558056]]]}}, {"type": "Feature", "properties": {"fid": 1680, "area_code": "PAC", "airport_identifier": "VYNT", "procedure_identifier": "I16", "transition_identifier": null}, "geometry": {"type": "MultiLineString", "coordinates": [[[96.12024444, 19.80558056], [96.15448333, 19.72846667], [96.19425556, 19.63878611]]]}}, {"type": "Feature", "properties": {"fid": 1684, "area_code": "PAC", "airport_identifier": "VYNT", "procedure_identifier": "I16", "transition_identifier": null}, "geometry": {"type": "MultiLineString", "coordinates": [[[96.19558333, 19.62655556], [96.19558333, 19.62655556]]]}}, {"type": "Feature", "properties": {"fid": 1688, "area_code": "PAC", "airport_identifier": "VYPN", "procedure_identifier": "N24", "transition_identifier": "PTN1"}, "geometry": {"type": "MultiLineString", "coordinates": [[[94.77969444, 16.8131], [94.85421389, 16.86521944]]]}}, {"type": "Feature", "properties": {"fid": 1692, "area_code": "PAC", "airport_identifier": "VYPN", "procedure_identifier": "N24", "transition_identifier": "PTN2"}, "geometry": {"type": "MultiLineString", "coordinates": [[[94.77969444, 16.8131], [94.85421389, 16.86521944]]]}}, {"type": "Feature", "properties": {"fid": 1695, "area_code": "PAC", "airport_identifier": "VYPN", "procedure_identifier": "N24", "transition_identifier": null}, "geometry": {"type": "MultiLineString", "coordinates": [[[94.85421389, 16.86521944], [94.78503056, 16.81738333]]]}}, {"type": "Feature", "properties": {"fid": 1700, "area_code": "PAC", "airport_identifier": "VYPN", "procedure_identifier": "N24", "transition_identifier": null}, "geometry": {"type": "MultiLineString", "coordinates": [[[94.77969444, 16.8131], [94.77969444, 16.8131], [94.77969444, 16.8131]]]}}, {"type": "Feature", "properties": {"fid": 1704, "area_code": "PAC", "airport_identifier": "VYBG", "procedure_identifier": "N36", "transition_identifier": "BG1"}, "geometry": {"type": "MultiLineString", "coordinates": [[[94.92869444, 21.17652778], [94.93034167, 21.08788611]]]}}, {"type": "Feature", "properties": {"fid": 1708, "area_code": "PAC", "airport_identifier": "VYBG", "procedure_identifier": "N36", "transition_identifier": "BG2"}, "geometry": {"type": "MultiLineString", "coordinates": [[[94.92869444, 21.17652778], [94.93034167, 21.08788611]]]}}, {"type": "Feature", "properties": {"fid": 1711, "area_code": "PAC", "airport_identifier": "VYBG", "procedure_identifier": "N36", "transition_identifier": null}, "geometry": {"type": "MultiLineString", "coordinates": [[[94.93034167, 21.08788611], [94.93025278, 21.16725278]]]}}, {"type": "Feature", "properties": {"fid": 1716, "area_code": "PAC", "airport_identifier": "VYBG", "procedure_identifier": "N36", "transition_identifier": null}, "geometry": {"type": "MultiLineString", "coordinates": [[[94.92869444, 21.17652778], [94.92869444, 21.17652778], [94.92869444, 21.17652778]]]}}, {"type": "Feature", "properties": {"fid": 1719, "area_code": "PAC", "airport_identifier": "VYHL", "procedure_identifier": "N16", "transition_identifier": null}, "geometry": {"type": "MultiLineString", "coordinates": [[[94.88477778, 24.97976111], [94.90824167, 24.91441944]]]}}, {"type": "Feature", "properties": {"fid": 1724, "area_code": "PAC", "airport_identifier": "VYHL", "procedure_identifier": "N16", "transition_identifier": null}, "geometry": {"type": "MultiLineString", "coordinates": [[[94.91320556, 24.89502778], [94.91320556, 24.89502778], [94.91320556, 24.89502778]]]}}, {"type": "Feature", "properties": {"fid": 1727, "area_code": "PAC", "airport_identifier": "VYYY", "procedure_identifier": "R03", "transition_identifier": "EMREL"}, "geometry": {"type": "MultiLineString", "coordinates": [[[95.95386111, 16.80977778], [96.03311111, 16.75986111]]]}}, {"type": "Feature", "properties": {"fid": 1730, "area_code": "PAC", "airport_identifier": "VYYY", "procedure_identifier": "R03", "transition_identifier": "OSIDA"}, "geometry": {"type": "MultiLineString", "coordinates": [[[95.98427778, 16.68783333], [96.03311111, 16.75986111]]]}}, {"type": "Feature", "properties": {"fid": 1733, "area_code": "PAC", "airport_identifier": "VYYY", "procedure_identifier": "R03", "transition_identifier": "PALPO"}, "geometry": {"type": "MultiLineString", "coordinates": [[[96.11230556, 16.70988889], [96.03311111, 16.75986111]]]}}, {"type": "Feature", "properties": {"fid": 1737, "area_code": "PAC", "airport_identifier": "VYYY", "procedure_identifier": "R03", "transition_identifier": null}, "geometry": {"type": "MultiLineString", "coordinates": [[[96.03311111, 16.75986111], [96.07788889, 16.82580556], [96.12688889, 16.89793889]]]}}, {"type": "Feature", "properties": {"fid": 1742, "area_code": "PAC", "airport_identifier": "VYYY", "procedure_identifier": "R03", "transition_identifier": null}, "geometry": {"type": "MultiLineString", "coordinates": [[[96.15519444, 16.97705556], [95.99072222, 17.03147222], [95.96241667, 16.95236111], [95.96241667, 16.95236111]]]}}]}