{"type": "FeatureCollection", "name": "pbn_leg", "crs": {"type": "name", "properties": {"name": "urn:ogc:def:crs:OGC:1.3:CRS84"}}, "features": [{"type": "Feature", "properties": {"fid": 692, "area_code": "PAC", "airport_identifier": "VYNT", "procedure_identifier": "R16", "transition_identifier": "MINGO"}, "geometry": {"type": "MultiLineString", "coordinates": [[[96.01002778, 19.83827778], [96.09155556, 19.87061111]]]}}, {"type": "Feature", "properties": {"fid": 695, "area_code": "PAC", "airport_identifier": "VYNT", "procedure_identifier": "R16", "transition_identifier": "THIRI"}, "geometry": {"type": "MultiLineString", "coordinates": [[[96.05736111, 19.94775], [96.09155556, 19.87061111]]]}}, {"type": "Feature", "properties": {"fid": 699, "area_code": "PAC", "airport_identifier": "VYNT", "procedure_identifier": "R16", "transition_identifier": null}, "geometry": {"type": "MultiLineString", "coordinates": [[[96.09155556, 19.87061111], [96.15508333, 19.72730556], [96.19425556, 19.63878611]]]}}, {"type": "Feature", "properties": {"fid": 704, "area_code": "PAC", "airport_identifier": "VYNT", "procedure_identifier": "R16", "transition_identifier": null}, "geometry": {"type": "MultiLineString", "coordinates": [[[96.22838889, 19.56163889], [96.11286111, 19.60641667], [96.01002778, 19.83827778], [96.01002778, 19.83827778]]]}}, {"type": "Feature", "properties": {"fid": 751, "area_code": "PAC", "airport_identifier": "VYSW", "procedure_identifier": "R29", "transition_identifier": "AKYAB"}, "geometry": {"type": "MultiLineString", "coordinates": [[[93.13994444, 20.0695], [93.05405556, 20.08983333]]]}}, {"type": "Feature", "properties": {"fid": 755, "area_code": "PAC", "airport_identifier": "VYSW", "procedure_identifier": "R29", "transition_identifier": "WADIE"}, "geometry": {"type": "MultiLineString", "coordinates": [[[92.81436111, 19.94558333], [93.02397222, 19.97622222], [93.05405556, 20.08983333]]]}}, {"type": "Feature", "properties": {"fid": 759, "area_code": "PAC", "airport_identifier": "VYSW", "procedure_identifier": "R29", "transition_identifier": null}, "geometry": {"type": "MultiLineString", "coordinates": [[[93.05405556, 20.08983333], [92.96816667, 20.11016667], [92.88120833, 20.13075]]]}}, {"type": "Feature", "properties": {"fid": 763, "area_code": "PAC", "airport_identifier": "VYSW", "procedure_identifier": "R29", "transition_identifier": null}, "geometry": {"type": "MultiLineString", "coordinates": [[[92.80833333, 20.14797222], [92.81436111, 19.94558333], [92.81436111, 19.94558333]]]}}, {"type": "Feature", "properties": {"fid": 804, "area_code": "PAC", "airport_identifier": "VYMD", "procedure_identifier": "R35", "transition_identifier": "MDS01"}, "geometry": {"type": "MultiLineString", "coordinates": [[[95.91480556, 21.49627778], [96.01058333, 21.51372222]]]}}, {"type": "Feature", "properties": {"fid": 807, "area_code": "PAC", "airport_identifier": "VYMD", "procedure_identifier": "R35", "transition_identifier": "MDS02"}, "geometry": {"type": "MultiLineString", "coordinates": [[[96.02811111, 21.42933333], [96.01058333, 21.51372222]]]}}, {"type": "Feature", "properties": {"fid": 810, "area_code": "PAC", "airport_identifier": "VYMD", "procedure_identifier": "R35", "transition_identifier": "MDS03"}, "geometry": {"type": "MultiLineString", "coordinates": [[[96.10641667, 21.53113889], [96.01058333, 21.51372222]]]}}, {"type": "Feature", "properties": {"fid": 814, "area_code": "PAC", "airport_identifier": "VYMD", "procedure_identifier": "R35", "transition_identifier": null}, "geometry": {"type": "MultiLineString", "coordinates": [[[96.01058333, 21.51372222], [95.99594444, 21.59658333], [95.98074444, 21.68203333]]]}}, {"type": "Feature", "properties": {"fid": 819, "area_code": "PAC", "airport_identifier": "VYMD", "procedure_identifier": "R35", "transition_identifier": null}, "geometry": {"type": "MultiLineString", "coordinates": [[[95.94872222, 21.76011111], [95.78163889, 21.70008333], [95.81369444, 21.62202778], [95.81369444, 21.62202778]]]}}, {"type": "Feature", "properties": {"fid": 920, "area_code": "PAC", "airport_identifier": "VYME", "procedure_identifier": "R36", "transition_identifier": "TELAM"}, "geometry": {"type": "MultiLineString", "coordinates": [[[98.60843333, 12.17551389], [98.61243889, 12.25912778]]]}}, {"type": "Feature", "properties": {"fid": 923, "area_code": "PAC", "airport_identifier": "VYME", "procedure_identifier": "R36", "transition_identifier": "VIMUM"}, "geometry": {"type": "MultiLineString", "coordinates": [[[98.52741944, 12.26305278], [98.61243889, 12.25912778]]]}}, {"type": "Feature", "properties": {"fid": 927, "area_code": "PAC", "airport_identifier": "VYME", "procedure_identifier": "R36", "transition_identifier": null}, "geometry": {"type": "MultiLineString", "coordinates": [[[98.61243889, 12.25912778], [98.61644167, 12.34274167], [98.62051667, 12.42777778]]]}}, {"type": "Feature", "properties": {"fid": 932, "area_code": "PAC", "airport_identifier": "VYME", "procedure_identifier": "R36", "transition_identifier": null}, "geometry": {"type": "MultiLineString", "coordinates": [[[98.62570278, 12.53596389], [98.49894167, 12.44730833], [98.52741944, 12.26305278], [98.52741944, 12.26305278]]]}}, {"type": "Feature", "properties": {"fid": 935, "area_code": "PAC", "airport_identifier": "VYHH", "procedure_identifier": "R36", "transition_identifier": "DUMER"}, "geometry": {"type": "MultiLineString", "coordinates": [[[96.79061111, 20.41258333], [96.79113889, 20.54105556]]]}}, {"type": "Feature", "properties": {"fid": 939, "area_code": "PAC", "airport_identifier": "VYHH", "procedure_identifier": "R36", "transition_identifier": "GUSUM"}, "geometry": {"type": "MultiLineString", "coordinates": [[[96.51355556, 20.66413889], [96.68458333, 20.54144444], [96.79113889, 20.54105556]]]}}, {"type": "Feature", "properties": {"fid": 943, "area_code": "PAC", "airport_identifier": "VYHH", "procedure_identifier": "R36", "transition_identifier": null}, "geometry": {"type": "MultiLineString", "coordinates": [[[96.79113889, 20.54105556], [96.7915, 20.62472222], [96.79188889, 20.71866667]]]}}, {"type": "Feature", "properties": {"fid": 948, "area_code": "PAC", "airport_identifier": "VYHH", "procedure_identifier": "R36", "transition_identifier": null}, "geometry": {"type": "MultiLineString", "coordinates": [[[96.77736111, 20.81644444], [96.60994444, 20.78663889], [96.51355556, 20.66413889], [96.51355556, 20.66413889]]]}}, {"type": "Feature", "properties": {"fid": 1033, "area_code": "PAC", "airport_identifier": "VYBG", "procedure_identifier": "R18", "transition_identifier": "LAWKA"}, "geometry": {"type": "MultiLineString", "coordinates": [[[95.02115556, 21.35725], [94.93189167, 21.35901111]]]}}, {"type": "Feature", "properties": {"fid": 1037, "area_code": "PAC", "airport_identifier": "VYBG", "procedure_identifier": "R18", "transition_identifier": null}, "geometry": {"type": "MultiLineString", "coordinates": [[[94.93189167, 21.35901111], [94.931175, 21.27538056], [94.93045278, 21.19068056]]]}}, {"type": "Feature", "properties": {"fid": 1043, "area_code": "PAC", "airport_identifier": "VYBG", "procedure_identifier": "R18", "transition_identifier": null}, "geometry": {"type": "MultiLineString", "coordinates": [[[94.92945278, 21.07359444], [94.92815278, 21.16953333], [95.02046389, 21.27587778], [95.02115556, 21.35725], [95.02115556, 21.35725]]]}}, {"type": "Feature", "properties": {"fid": 1046, "area_code": "PAC", "airport_identifier": "VYSW", "procedure_identifier": "R11", "transition_identifier": "BYALA"}, "geometry": {"type": "MultiLineString", "coordinates": [[[92.7135, 20.25655556], [92.692, 20.17541667]]]}}, {"type": "Feature", "properties": {"fid": 1049, "area_code": "PAC", "airport_identifier": "VYSW", "procedure_identifier": "R11", "transition_identifier": "SIDRA"}, "geometry": {"type": "MultiLineString", "coordinates": [[[92.6705, 20.09427778], [92.692, 20.17541667]]]}}, {"type": "Feature", "properties": {"fid": 1053, "area_code": "PAC", "airport_identifier": "VYSW", "procedure_identifier": "R11", "transition_identifier": null}, "geometry": {"type": "MultiLineString", "coordinates": [[[92.692, 20.17541667], [92.77794444, 20.15513889], [92.85990278, 20.13578889]]]}}, {"type": "Feature", "properties": {"fid": 1058, "area_code": "PAC", "airport_identifier": "VYSW", "procedure_identifier": "R11", "transition_identifier": null}, "geometry": {"type": "MultiLineString", "coordinates": [[[92.93275, 20.11855556], [92.80338889, 20.06288889], [92.6705, 20.09427778], [92.6705, 20.09427778]]]}}, {"type": "Feature", "properties": {"fid": 1088, "area_code": "PAC", "airport_identifier": "VYMD", "procedure_identifier": "R17", "transition_identifier": "MDN02"}, "geometry": {"type": "MultiLineString", "coordinates": [[[95.92802778, 21.96552778], [95.94513889, 21.88344444]]]}}, {"type": "Feature", "properties": {"fid": 1091, "area_code": "PAC", "airport_identifier": "VYMD", "procedure_identifier": "R17", "transition_identifier": "MDN03"}, "geometry": {"type": "MultiLineString", "coordinates": [[[95.85488889, 21.86702778], [95.94513889, 21.88344444]]]}}, {"type": "Feature", "properties": {"fid": 1095, "area_code": "PAC", "airport_identifier": "VYMD", "procedure_identifier": "R17", "transition_identifier": "THADU"}, "geometry": {"type": "MultiLineString", "coordinates": [[[96.12975, 21.93427778], [96.03327778, 21.90777778], [95.94513889, 21.88344444]]]}}, {"type": "Feature", "properties": {"fid": 1099, "area_code": "PAC", "airport_identifier": "VYMD", "procedure_identifier": "R17", "transition_identifier": null}, "geometry": {"type": "MultiLineString", "coordinates": [[[95.94513889, 21.88344444], [95.95883333, 21.80622222], [95.97401111, 21.72005833]]]}}, {"type": "Feature", "properties": {"fid": 1104, "area_code": "PAC", "airport_identifier": "VYMD", "procedure_identifier": "R17", "transition_identifier": null}, "geometry": {"type": "MultiLineString", "coordinates": [[[95.98872222, 21.63755556], [95.81313889, 21.60555556], [95.79127778, 21.71063889], [95.79127778, 21.71063889]]]}}, {"type": "Feature", "properties": {"fid": 1228, "area_code": "PAC", "airport_identifier": "VYNT", "procedure_identifier": "R34", "transition_identifier": "WUNNA"}, "geometry": {"type": "MultiLineString", "coordinates": [[[96.19547222, 19.41969444], [96.27677778, 19.45205556]]]}}, {"type": "Feature", "properties": {"fid": 1231, "area_code": "PAC", "airport_identifier": "VYNT", "procedure_identifier": "R34", "transition_identifier": "ZIBYU"}, "geometry": {"type": "MultiLineString", "coordinates": [[[96.31766667, 19.35947222], [96.27677778, 19.45205556]]]}}, {"type": "Feature", "properties": {"fid": 1235, "area_code": "PAC", "airport_identifier": "VYNT", "procedure_identifier": "R34", "transition_identifier": null}, "geometry": {"type": "MultiLineString", "coordinates": [[[96.27677778, 19.45205556], [96.24269444, 19.52922222], [96.20773333, 19.60832222]]]}}, {"type": "Feature", "properties": {"fid": 1240, "area_code": "PAC", "airport_identifier": "VYNT", "procedure_identifier": "R34", "transition_identifier": null}, "geometry": {"type": "MultiLineString", "coordinates": [[[96.18727778, 19.65461111], [96.16136111, 19.49686111], [96.19547222, 19.41969444], [96.19547222, 19.41969444]]]}}, {"type": "Feature", "properties": {"fid": 1296, "area_code": "PAC", "airport_identifier": "VYME", "procedure_identifier": "R18", "transition_identifier": "KALVO"}, "geometry": {"type": "MultiLineString", "coordinates": [[[98.63371667, 12.70300833], [98.62970556, 12.61939722]]]}}, {"type": "Feature", "properties": {"fid": 1299, "area_code": "PAC", "airport_identifier": "VYME", "procedure_identifier": "R18", "transition_identifier": "TEGAN"}, "geometry": {"type": "MultiLineString", "coordinates": [[[98.71483889, 12.61544444], [98.62970556, 12.61939722]]]}}, {"type": "Feature", "properties": {"fid": 1303, "area_code": "PAC", "airport_identifier": "VYME", "procedure_identifier": "R18", "transition_identifier": null}, "geometry": {"type": "MultiLineString", "coordinates": [[[98.62970556, 12.61939722], [98.62569444, 12.53578333], [98.62169444, 12.45235]]]}}, {"type": "Feature", "properties": {"fid": 1308, "area_code": "PAC", "airport_identifier": "VYME", "procedure_identifier": "R18", "transition_identifier": null}, "geometry": {"type": "MultiLineString", "coordinates": [[[98.61651111, 12.34416389], [98.736325, 12.48481111], [98.71483889, 12.61544444], [98.71483889, 12.61544444]]]}}, {"type": "Feature", "properties": {"fid": 1311, "area_code": "PAC", "airport_identifier": "VYBG", "procedure_identifier": "R36", "transition_identifier": "LAMIN"}, "geometry": {"type": "MultiLineString", "coordinates": [[[94.92808611, 20.91300556], [94.92879722, 20.99664167]]]}}, {"type": "Feature", "properties": {"fid": 1315, "area_code": "PAC", "airport_identifier": "VYBG", "procedure_identifier": "R36", "transition_identifier": "MAHAR"}, "geometry": {"type": "MultiLineString", "coordinates": [[[95.13454722, 21.1257], [95.01785556, 20.99594722], [94.92879722, 20.99664167]]]}}, {"type": "Feature", "properties": {"fid": 1319, "area_code": "PAC", "airport_identifier": "VYBG", "procedure_identifier": "R36", "transition_identifier": null}, "geometry": {"type": "MultiLineString", "coordinates": [[[94.92879722, 20.99664167], [94.92955, 21.08474722], [94.93025278, 21.16725278]]]}}, {"type": "Feature", "properties": {"fid": 1323, "area_code": "PAC", "airport_identifier": "VYBG", "procedure_identifier": "R36", "transition_identifier": null}, "geometry": {"type": "MultiLineString", "coordinates": [[[94.93125278, 21.28433611], [95.13454722, 21.1257], [95.13454722, 21.1257]]]}}, {"type": "Feature", "properties": {"fid": 1424, "area_code": "PAC", "airport_identifier": "VYYY", "procedure_identifier": "R21", "transition_identifier": "BAGOO"}, "geometry": {"type": "MultiLineString", "coordinates": [[[96.51986111, 17.3185], [96.32894444, 17.14961111], [96.251, 17.08030556]]]}}, {"type": "Feature", "properties": {"fid": 1427, "area_code": "PAC", "airport_identifier": "VYYY", "procedure_identifier": "R21", "transition_identifier": "DANSO"}, "geometry": {"type": "MultiLineString", "coordinates": [[[96.34541667, 17.02355556], [96.251, 17.08030556]]]}}, {"type": "Feature", "properties": {"fid": 1430, "area_code": "PAC", "airport_identifier": "VYYY", "procedure_identifier": "R21", "transition_identifier": "GONAS"}, "geometry": {"type": "MultiLineString", "coordinates": [[[96.19222222, 17.16733333], [96.251, 17.08030556]]]}}, {"type": "Feature", "properties": {"fid": 1434, "area_code": "PAC", "airport_identifier": "VYYY", "procedure_identifier": "R21", "transition_identifier": null}, "geometry": {"type": "MultiLineString", "coordinates": [[[96.251, 17.08030556], [96.18655556, 16.98563889], [96.14445556, 16.92373611]]]}}, {"type": "Feature", "properties": {"fid": 1438, "area_code": "PAC", "airport_identifier": "VYYY", "procedure_identifier": "R21", "transition_identifier": null}, "geometry": {"type": "MultiLineString", "coordinates": [[[96.08408333, 16.86352778], [95.93397222, 17.00297222], [95.93397222, 17.00297222]]]}}, {"type": "Feature", "properties": {"fid": 1590, "area_code": "PAC", "airport_identifier": "VYTD", "procedure_identifier": "R02", "transition_identifier": "NODEN"}, "geometry": {"type": "MultiLineString", "coordinates": [[[94.15338056, 18.32346944], [94.23556944, 18.29454167]]]}}, {"type": "Feature", "properties": {"fid": 1593, "area_code": "PAC", "airport_identifier": "VYTD", "procedure_identifier": "R02", "transition_identifier": "SUSEN"}, "geometry": {"type": "MultiLineString", "coordinates": [[[94.31773056, 18.26558056], [94.23556944, 18.29454167]]]}}, {"type": "Feature", "properties": {"fid": 1597, "area_code": "PAC", "airport_identifier": "VYTD", "procedure_identifier": "R02", "transition_identifier": null}, "geometry": {"type": "MultiLineString", "coordinates": [[[94.23556944, 18.29454167], [94.26587222, 18.37303889], [94.29709722, 18.45389167]]]}}, {"type": "Feature", "properties": {"fid": 1602, "area_code": "PAC", "airport_identifier": "VYTD", "procedure_identifier": "R02", "transition_identifier": null}, "geometry": {"type": "MultiLineString", "coordinates": [[[94.32742778, 18.53238889], [94.20349167, 18.48487778], [94.15338056, 18.32346944], [94.15338056, 18.32346944]]]}}, {"type": "Feature", "properties": {"fid": 1727, "area_code": "PAC", "airport_identifier": "VYYY", "procedure_identifier": "R03", "transition_identifier": "EMREL"}, "geometry": {"type": "MultiLineString", "coordinates": [[[95.95386111, 16.80977778], [96.03311111, 16.75986111]]]}}, {"type": "Feature", "properties": {"fid": 1730, "area_code": "PAC", "airport_identifier": "VYYY", "procedure_identifier": "R03", "transition_identifier": "OSIDA"}, "geometry": {"type": "MultiLineString", "coordinates": [[[95.98427778, 16.68783333], [96.03311111, 16.75986111]]]}}, {"type": "Feature", "properties": {"fid": 1733, "area_code": "PAC", "airport_identifier": "VYYY", "procedure_identifier": "R03", "transition_identifier": "PALPO"}, "geometry": {"type": "MultiLineString", "coordinates": [[[96.11230556, 16.70988889], [96.03311111, 16.75986111]]]}}, {"type": "Feature", "properties": {"fid": 1737, "area_code": "PAC", "airport_identifier": "VYYY", "procedure_identifier": "R03", "transition_identifier": null}, "geometry": {"type": "MultiLineString", "coordinates": [[[96.03311111, 16.75986111], [96.07788889, 16.82580556], [96.12688889, 16.89793889]]]}}, {"type": "Feature", "properties": {"fid": 1742, "area_code": "PAC", "airport_identifier": "VYYY", "procedure_identifier": "R03", "transition_identifier": null}, "geometry": {"type": "MultiLineString", "coordinates": [[[96.15519444, 16.97705556], [95.99072222, 17.03147222], [95.96241667, 16.95236111], [95.96241667, 16.95236111]]]}}]}