{"type": "FeatureCollection", "name": "sid_line", "crs": {"type": "name", "properties": {"name": "urn:ogc:def:crs:OGC:1.3:CRS84"}}, "features": [{"type": "Feature", "properties": {"fid": 6, "area_code": "PAC", "airport_identifier": "VYME", "procedure_identifier": "MELO1E", "transition_identifier": "RW18"}, "geometry": {"type": "MultiLineString", "coordinates": [[[98.61250556, 12.26055], [98.43470556, 12.26041389], [98.43265833, 12.45527778], [98.42920278, 12.78136389], [98.50092222, 12.92845]]]}}, {"type": "Feature", "properties": {"fid": 12, "area_code": "PAC", "airport_identifier": "VYYY", "procedure_identifier": "VISA1A", "transition_identifier": "RW21"}, "geometry": {"type": "MultiLineString", "coordinates": [[[95.94608333, 16.71743889], [95.95852778, 16.91172222], [96.19222222, 17.16733333], [97.15594444, 17.10499722]]]}}, {"type": "Feature", "properties": {"fid": 15, "area_code": "PAC", "airport_identifier": "VYYY", "procedure_identifier": "VISA1A", "transition_identifier": "BOMAS"}, "geometry": {"type": "MultiLineString", "coordinates": [[[97.15594444, 17.10499722], [98.09697222, 17.38466667]]]}}, {"type": "Feature", "properties": {"fid": 18, "area_code": "PAC", "airport_identifier": "VYYY", "procedure_identifier": "VISA1A", "transition_identifier": "MAKAS"}, "geometry": {"type": "MultiLineString", "coordinates": [[[97.15594444, 17.10499722], [98.49691667, 16.82972222]]]}}, {"type": "Feature", "properties": {"fid": 22, "area_code": "PAC", "airport_identifier": "VYSW", "procedure_identifier": "POME1C", "transition_identifier": "RW11"}, "geometry": {"type": "MultiLineString", "coordinates": [[[92.93275, 20.11855556], [93.21, 20.03055556], [93.46113889, 19.95036111]]]}}, {"type": "Feature", "properties": {"fid": 28, "area_code": "PAC", "airport_identifier": "VYSW", "procedure_identifier": "NOGI1A", "transition_identifier": "RW29"}, "geometry": {"type": "MultiLineString", "coordinates": [[[92.77397222, 20.15608333], [92.74388889, 20.04247222], [93.113, 19.88697222], [93.24327778, 19.83388889], [93.31369444, 19.80513889]]]}}, {"type": "Feature", "properties": {"fid": 32, "area_code": "PAC", "airport_identifier": "VYYY", "procedure_identifier": "POME1A", "transition_identifier": "RW21"}, "geometry": {"type": "MultiLineString", "coordinates": [[[95.94608333, 16.71743889], [96.47990556, 15.96117778]]]}}, {"type": "Feature", "properties": {"fid": 35, "area_code": "PAC", "airport_identifier": "VYYY", "procedure_identifier": "POME1A", "transition_identifier": "DWI"}, "geometry": {"type": "MultiLineString", "coordinates": [[[96.47990556, 15.96117778], [98.20046111, 14.09961389]]]}}, {"type": "Feature", "properties": {"fid": 38, "area_code": "PAC", "airport_identifier": "VYYY", "procedure_identifier": "POME1A", "transition_identifier": "KT"}, "geometry": {"type": "MultiLineString", "coordinates": [[[96.47990556, 15.96117778], [98.54006944, 10.05000833]]]}}, {"type": "Feature", "properties": {"fid": 41, "area_code": "PAC", "airport_identifier": "VYYY", "procedure_identifier": "POME1A", "transition_identifier": "ME"}, "geometry": {"type": "MultiLineString", "coordinates": [[[96.47990556, 15.96117778], [98.61968611, 12.45006667]]]}}, {"type": "Feature", "properties": {"fid": 44, "area_code": "PAC", "airport_identifier": "VYYY", "procedure_identifier": "POME1A", "transition_identifier": "POXEM"}, "geometry": {"type": "MultiLineString", "coordinates": [[[96.47990556, 15.96117778], [97.49638889, 15.44308333]]]}}, {"type": "Feature", "properties": {"fid": 49, "area_code": "PAC", "airport_identifier": "VYSW", "procedure_identifier": "ENKE1A", "transition_identifier": "RW29"}, "geometry": {"type": "MultiLineString", "coordinates": [[[92.77397222, 20.15608333], [92.74388889, 20.04247222], [93.113, 19.88697222], [93.24202778, 19.74533333]]]}}, {"type": "Feature", "properties": {"fid": 57, "area_code": "PAC", "airport_identifier": "VYHH", "procedure_identifier": "SURO1A", "transition_identifier": "RW18"}, "geometry": {"type": "MultiLineString", "coordinates": [[[96.76844444, 20.63844444], [96.86747222, 20.58111111], [96.94816667, 20.66875], [96.87519444, 20.81677778], [96.77961111, 20.94308333], [96.40605556, 21.2065]]]}}, {"type": "Feature", "properties": {"fid": 64, "area_code": "PAC", "airport_identifier": "VYYY", "procedure_identifier": "PARL1A", "transition_identifier": "RW21"}, "geometry": {"type": "MultiLineString", "coordinates": [[[95.94608333, 16.71743889], [95.95852778, 16.91172222], [96.19222222, 17.16733333], [96.173475, 17.49903333], [96.14998611, 17.91042778]]]}}, {"type": "Feature", "properties": {"fid": 67, "area_code": "PAC", "airport_identifier": "VYYY", "procedure_identifier": "PARL1A", "transition_identifier": "BGN"}, "geometry": {"type": "MultiLineString", "coordinates": [[[96.14998611, 17.91042778], [94.92815278, 21.16953611]]]}}, {"type": "Feature", "properties": {"fid": 70, "area_code": "PAC", "airport_identifier": "VYYY", "procedure_identifier": "PARL1A", "transition_identifier": "MOXIS"}, "geometry": {"type": "MultiLineString", "coordinates": [[[96.14998611, 17.91042778], [96.29219722, 19.64729167]]]}}, {"type": "Feature", "properties": {"fid": 73, "area_code": "PAC", "airport_identifier": "VYYY", "procedure_identifier": "PARL1A", "transition_identifier": "NPT"}, "geometry": {"type": "MultiLineString", "coordinates": [[[96.14998611, 17.91042778], [96.19558333, 19.62655556]]]}}, {"type": "Feature", "properties": {"fid": 81, "area_code": "PAC", "airport_identifier": "VYHH", "procedure_identifier": "REMI1A", "transition_identifier": "RW18"}, "geometry": {"type": "MultiLineString", "coordinates": [[[96.76844444, 20.63844444], [96.71116667, 20.60508333], [96.66675, 20.51588889], [96.66638889, 20.38788889], [96.6655, 20.30480556], [96.74366667, 20.16347222]]]}}, {"type": "Feature", "properties": {"fid": 88, "area_code": "PAC", "airport_identifier": "VYSW", "procedure_identifier": "POME1A", "transition_identifier": "RW29"}, "geometry": {"type": "MultiLineString", "coordinates": [[[92.77397222, 20.15608333], [92.80411111, 20.26966667], [93.20725, 20.24336111], [93.36175, 20.13344444], [93.40686111, 20.05069444], [93.46113889, 19.95036111]]]}}, {"type": "Feature", "properties": {"fid": 93, "area_code": "PAC", "airport_identifier": "VYMD", "procedure_identifier": "THAZ1N", "transition_identifier": "RW35"}, "geometry": {"type": "MultiLineString", "coordinates": [[[95.96569444, 21.76963889], [96.17019444, 21.60202778], [96.31733333, 21.37258333], [96.35636111, 21.25866667]]]}}, {"type": "Feature", "properties": {"fid": 99, "area_code": "PAC", "airport_identifier": "VYYY", "procedure_identifier": "MULG1A", "transition_identifier": "RW21"}, "geometry": {"type": "MultiLineString", "coordinates": [[[96.00631389, 16.77761667], [95.92146944, 16.86191111], [95.7522, 17.29427222], [95.420175, 17.639825]]]}}, {"type": "Feature", "properties": {"fid": 102, "area_code": "PAC", "airport_identifier": "VYYY", "procedure_identifier": "MULG1A", "transition_identifier": "DORLI"}, "geometry": {"type": "MultiLineString", "coordinates": [[[95.420175, 17.639825], [94.70424722, 19.25747778]]]}}, {"type": "Feature", "properties": {"fid": 105, "area_code": "PAC", "airport_identifier": "VYYY", "procedure_identifier": "MULG1A", "transition_identifier": "KP"}, "geometry": {"type": "MultiLineString", "coordinates": [[[95.420175, 17.639825], [93.53663889, 19.42919444]]]}}, {"type": "Feature", "properties": {"fid": 108, "area_code": "PAC", "airport_identifier": "VYYY", "procedure_identifier": "MULG1A", "transition_identifier": "STW"}, "geometry": {"type": "MultiLineString", "coordinates": [[[95.420175, 17.639825], [92.87871111, 20.13291111]]]}}, {"type": "Feature", "properties": {"fid": 111, "area_code": "PAC", "airport_identifier": "VYYY", "procedure_identifier": "MULG1A", "transition_identifier": "SUMSU"}, "geometry": {"type": "MultiLineString", "coordinates": [[[95.420175, 17.639825], [94.72381111, 18.57933611]]]}}, {"type": "Feature", "properties": {"fid": 114, "area_code": "PAC", "airport_identifier": "VYYY", "procedure_identifier": "MULG1A", "transition_identifier": "TDE"}, "geometry": {"type": "MultiLineString", "coordinates": [[[95.420175, 17.639825], [94.29576389, 18.45671389]]]}}, {"type": "Feature", "properties": {"fid": 120, "area_code": "PAC", "airport_identifier": "VYSW", "procedure_identifier": "GOKE1A", "transition_identifier": "RW29"}, "geometry": {"type": "MultiLineString", "coordinates": [[[92.77397222, 20.15608333], [92.80411111, 20.26966667], [93.20725, 20.24336111], [93.36175, 20.13344444], [93.48566667, 20.04508333]]]}}, {"type": "Feature", "properties": {"fid": 124, "area_code": "PAC", "airport_identifier": "VYSW", "procedure_identifier": "ENKE1C", "transition_identifier": "RW11"}, "geometry": {"type": "MultiLineString", "coordinates": [[[92.93275, 20.11855556], [93.15658333, 19.93269444], [93.24202778, 19.74533333]]]}}, {"type": "Feature", "properties": {"fid": 129, "area_code": "PAC", "airport_identifier": "VYYY", "procedure_identifier": "MARD1A", "transition_identifier": "RW21"}, "geometry": {"type": "MultiLineString", "coordinates": [[[95.94608333, 16.71743889], [96.09242778, 16.61441944], [96.78414444, 16.12435556]]]}}, {"type": "Feature", "properties": {"fid": 132, "area_code": "PAC", "airport_identifier": "VYYY", "procedure_identifier": "MARD1A", "transition_identifier": "BETNO"}, "geometry": {"type": "MultiLineString", "coordinates": [[[96.78414444, 16.12435556], [98.20866667, 15.09819444]]]}}, {"type": "Feature", "properties": {"fid": 136, "area_code": "PAC", "airport_identifier": "VYTD", "procedure_identifier": "ANLO1A", "transition_identifier": "RW02"}, "geometry": {"type": "MultiLineString", "coordinates": [[[94.34150556, 18.56875278], [94.1971, 18.69485556], [93.92921389, 18.928025]]]}}, {"type": "Feature", "properties": {"fid": 140, "area_code": "PAC", "airport_identifier": "VYME", "procedure_identifier": "MELO1C", "transition_identifier": "RW36"}, "geometry": {"type": "MultiLineString", "coordinates": [[[98.62570278, 12.53596389], [98.56544444, 12.79225278], [98.50092222, 12.92845]]]}}, {"type": "Feature", "properties": {"fid": 144, "area_code": "PAC", "airport_identifier": "VYMD", "procedure_identifier": "THAZ1S", "transition_identifier": "RW17"}, "geometry": {"type": "MultiLineString", "coordinates": [[[96.02811111, 21.42933333], [96.20208333, 21.33891667], [96.35636111, 21.25866667]]]}}, {"type": "Feature", "properties": {"fid": 148, "area_code": "PAC", "airport_identifier": "VYME", "procedure_identifier": "KIDU1C", "transition_identifier": "RW36"}, "geometry": {"type": "MultiLineString", "coordinates": [[[98.62570278, 12.53596389], [98.56544444, 12.79225278], [98.42789444, 12.90530833]]]}}, {"type": "Feature", "properties": {"fid": 154, "area_code": "PAC", "airport_identifier": "VYYY", "procedure_identifier": "REBO1A", "transition_identifier": "RW03"}, "geometry": {"type": "MultiLineString", "coordinates": [[[96.17302778, 16.96575], [96.82797222, 16.88055556], [96.9045, 16.80122222], [97.11813889, 16.57916667], [98.20866667, 15.09819444]]]}}, {"type": "Feature", "properties": {"fid": 159, "area_code": "PAC", "airport_identifier": "VYMD", "procedure_identifier": "DOGI1N", "transition_identifier": "RW35"}, "geometry": {"type": "MultiLineString", "coordinates": [[[95.96569444, 21.76963889], [96.17019444, 21.60202778], [96.18713889, 21.46236111], [96.27461111, 20.73691667]]]}}, {"type": "Feature", "properties": {"fid": 165, "area_code": "PAC", "airport_identifier": "VYYY", "procedure_identifier": "VISA1C", "transition_identifier": "RW21"}, "geometry": {"type": "MultiLineString", "coordinates": [[[96.00631389, 16.77761667], [95.95852778, 16.91172222], [96.19222222, 17.16733333], [97.15594444, 17.10499722]]]}}, {"type": "Feature", "properties": {"fid": 168, "area_code": "PAC", "airport_identifier": "VYYY", "procedure_identifier": "VISA1C", "transition_identifier": "BOMAS"}, "geometry": {"type": "MultiLineString", "coordinates": [[[97.15594444, 17.10499722], [98.09697222, 17.38466667]]]}}, {"type": "Feature", "properties": {"fid": 171, "area_code": "PAC", "airport_identifier": "VYYY", "procedure_identifier": "VISA1C", "transition_identifier": "MAKAS"}, "geometry": {"type": "MultiLineString", "coordinates": [[[97.15594444, 17.10499722], [98.49691667, 16.82972222]]]}}, {"type": "Feature", "properties": {"fid": 176, "area_code": "PAC", "airport_identifier": "VYME", "procedure_identifier": "PAPG1C", "transition_identifier": "RW36"}, "geometry": {"type": "MultiLineString", "coordinates": [[[98.62570278, 12.53596389], [98.75109167, 12.42416944], [98.7388, 12.10999722], [98.66557222, 11.93956667]]]}}, {"type": "Feature", "properties": {"fid": 179, "area_code": "PAC", "airport_identifier": "VYME", "procedure_identifier": "PAPG1A", "transition_identifier": "RW18"}, "geometry": {"type": "MultiLineString", "coordinates": [[[98.61651111, 12.34416389], [98.66557222, 11.93956667]]]}}, {"type": "Feature", "properties": {"fid": 186, "area_code": "PAC", "airport_identifier": "VYYY", "procedure_identifier": "DOLB1A", "transition_identifier": "RW21"}, "geometry": {"type": "MultiLineString", "coordinates": [[[95.94608333, 16.71743889], [95.95852778, 16.91172222], [96.19222222, 17.16733333], [96.51319722, 17.54455556], [96.69679444, 17.752275]]]}}, {"type": "Feature", "properties": {"fid": 189, "area_code": "PAC", "airport_identifier": "VYYY", "procedure_identifier": "DOLB1A", "transition_identifier": "HHO"}, "geometry": {"type": "MultiLineString", "coordinates": [[[96.69679444, 17.752275], [96.78992778, 20.74802778]]]}}, {"type": "Feature", "properties": {"fid": 192, "area_code": "PAC", "airport_identifier": "VYYY", "procedure_identifier": "DOLB1A", "transition_identifier": "LK"}, "geometry": {"type": "MultiLineString", "coordinates": [[[96.69679444, 17.752275], [97.213275, 19.69045556]]]}}, {"type": "Feature", "properties": {"fid": 195, "area_code": "PAC", "airport_identifier": "VYYY", "procedure_identifier": "DOLB1A", "transition_identifier": "LSO"}, "geometry": {"type": "MultiLineString", "coordinates": [[[96.69679444, 17.752275], [97.75421944, 22.98096389]]]}}, {"type": "Feature", "properties": {"fid": 199, "area_code": "PAC", "airport_identifier": "VYTD", "procedure_identifier": "POPI1A", "transition_identifier": "RW02"}, "geometry": {"type": "MultiLineString", "coordinates": [[[94.34150556, 18.56875278], [94.42128056, 18.774625], [94.73819444, 18.870925]]]}}, {"type": "Feature", "properties": {"fid": 204, "area_code": "PAC", "airport_identifier": "VYME", "procedure_identifier": "PAPG1E", "transition_identifier": "RW36"}, "geometry": {"type": "MultiLineString", "coordinates": [[[98.62570278, 12.53596389], [98.49945556, 12.44731944], [98.50754444, 12.10934167], [98.66557222, 11.93956667]]]}}, {"type": "Feature", "properties": {"fid": 208, "area_code": "PAC", "airport_identifier": "VYYY", "procedure_identifier": "PTN1A", "transition_identifier": "RW21"}, "geometry": {"type": "MultiLineString", "coordinates": [[[96.00631389, 16.77761667], [94.76955, 16.80868889]]]}}, {"type": "Feature", "properties": {"fid": 213, "area_code": "PAC", "airport_identifier": "VYYY", "procedure_identifier": "MULG1B", "transition_identifier": "RW21"}, "geometry": {"type": "MultiLineString", "coordinates": [[[96.00631389, 16.77761667], [95.88035833, 16.81543333], [95.420175, 17.639825]]]}}, {"type": "Feature", "properties": {"fid": 216, "area_code": "PAC", "airport_identifier": "VYYY", "procedure_identifier": "MULG1B", "transition_identifier": "DORLI"}, "geometry": {"type": "MultiLineString", "coordinates": [[[95.420175, 17.639825], [94.70424722, 19.25747778]]]}}, {"type": "Feature", "properties": {"fid": 219, "area_code": "PAC", "airport_identifier": "VYYY", "procedure_identifier": "MULG1B", "transition_identifier": "KP"}, "geometry": {"type": "MultiLineString", "coordinates": [[[95.420175, 17.639825], [93.53663889, 19.42919444]]]}}, {"type": "Feature", "properties": {"fid": 222, "area_code": "PAC", "airport_identifier": "VYYY", "procedure_identifier": "MULG1B", "transition_identifier": "STW"}, "geometry": {"type": "MultiLineString", "coordinates": [[[95.420175, 17.639825], [92.87871111, 20.13291111]]]}}, {"type": "Feature", "properties": {"fid": 225, "area_code": "PAC", "airport_identifier": "VYYY", "procedure_identifier": "MULG1B", "transition_identifier": "SUMSU"}, "geometry": {"type": "MultiLineString", "coordinates": [[[95.420175, 17.639825], [94.72381111, 18.57933611]]]}}, {"type": "Feature", "properties": {"fid": 228, "area_code": "PAC", "airport_identifier": "VYYY", "procedure_identifier": "MULG1B", "transition_identifier": "TDE"}, "geometry": {"type": "MultiLineString", "coordinates": [[[95.420175, 17.639825], [94.29576389, 18.45671389]]]}}, {"type": "Feature", "properties": {"fid": 234, "area_code": "PAC", "airport_identifier": "VYYY", "procedure_identifier": "BOSP1B", "transition_identifier": "RW21"}, "geometry": {"type": "MultiLineString", "coordinates": [[[96.00631389, 16.77761667], [95.95852778, 16.91172222], [96.19222222, 17.16733333], [97.17290556, 16.83455278]]]}}, {"type": "Feature", "properties": {"fid": 237, "area_code": "PAC", "airport_identifier": "VYYY", "procedure_identifier": "BOSP1B", "transition_identifier": "ARATO"}, "geometry": {"type": "MultiLineString", "coordinates": [[[97.17290556, 16.83455278], [97.79633333, 16.36802778]]]}}, {"type": "Feature", "properties": {"fid": 240, "area_code": "PAC", "airport_identifier": "VYYY", "procedure_identifier": "BOSP1B", "transition_identifier": "MM"}, "geometry": {"type": "MultiLineString", "coordinates": [[[97.17290556, 16.83455278], [97.65773056, 16.44331944]]]}}, {"type": "Feature", "properties": {"fid": 245, "area_code": "PAC", "airport_identifier": "VYYY", "procedure_identifier": "RISN1A", "transition_identifier": "RW03"}, "geometry": {"type": "MultiLineString", "coordinates": [[[96.17302778, 16.96575], [96.82797222, 16.88055556], [97.17330556, 16.83455556], [98.59166667, 15.48034167]]]}}, {"type": "Feature", "properties": {"fid": 252, "area_code": "PAC", "airport_identifier": "VYYY", "procedure_identifier": "PARL1B", "transition_identifier": "RW21"}, "geometry": {"type": "MultiLineString", "coordinates": [[[96.00631389, 16.77761667], [95.95852778, 16.91172222], [96.19222222, 17.16733333], [96.173475, 17.49903333], [96.14998611, 17.91042778]]]}}, {"type": "Feature", "properties": {"fid": 255, "area_code": "PAC", "airport_identifier": "VYYY", "procedure_identifier": "PARL1B", "transition_identifier": "BGN"}, "geometry": {"type": "MultiLineString", "coordinates": [[[96.14998611, 17.91042778], [94.92815278, 21.16953611]]]}}, {"type": "Feature", "properties": {"fid": 258, "area_code": "PAC", "airport_identifier": "VYYY", "procedure_identifier": "PARL1B", "transition_identifier": "MOXIS"}, "geometry": {"type": "MultiLineString", "coordinates": [[[96.14998611, 17.91042778], [96.29219722, 19.64729167]]]}}, {"type": "Feature", "properties": {"fid": 261, "area_code": "PAC", "airport_identifier": "VYYY", "procedure_identifier": "PARL1B", "transition_identifier": "NPT"}, "geometry": {"type": "MultiLineString", "coordinates": [[[96.14998611, 17.91042778], [96.19558333, 19.62655556]]]}}, {"type": "Feature", "properties": {"fid": 266, "area_code": "PAC", "airport_identifier": "VYME", "procedure_identifier": "MELO1A", "transition_identifier": "RW18"}, "geometry": {"type": "MultiLineString", "coordinates": [[[98.61651111, 12.34416389], [98.43265833, 12.45527778], [98.42920278, 12.78136389], [98.50092222, 12.92845]]]}}, {"type": "Feature", "properties": {"fid": 272, "area_code": "PAC", "airport_identifier": "VYYY", "procedure_identifier": "BOSP1A", "transition_identifier": "RW21"}, "geometry": {"type": "MultiLineString", "coordinates": [[[95.94608333, 16.71743889], [95.95852778, 16.91172222], [96.19222222, 17.16733333], [97.17290556, 16.83455278]]]}}, {"type": "Feature", "properties": {"fid": 275, "area_code": "PAC", "airport_identifier": "VYYY", "procedure_identifier": "BOSP1A", "transition_identifier": "ARATO"}, "geometry": {"type": "MultiLineString", "coordinates": [[[97.17290556, 16.83455278], [97.79633333, 16.36802778]]]}}, {"type": "Feature", "properties": {"fid": 278, "area_code": "PAC", "airport_identifier": "VYYY", "procedure_identifier": "BOSP1A", "transition_identifier": "MM"}, "geometry": {"type": "MultiLineString", "coordinates": [[[97.17290556, 16.83455278], [97.65773056, 16.44331944]]]}}, {"type": "Feature", "properties": {"fid": 282, "area_code": "PAC", "airport_identifier": "VYMD", "procedure_identifier": "DOGI1S", "transition_identifier": "RW17"}, "geometry": {"type": "MultiLineString", "coordinates": [[[96.02811111, 21.42933333], [96.08733333, 21.05094444], [96.27461111, 20.73691667]]]}}, {"type": "Feature", "properties": {"fid": 287, "area_code": "PAC", "airport_identifier": "VYSW", "procedure_identifier": "GOKE1C", "transition_identifier": "RW11"}, "geometry": {"type": "MultiLineString", "coordinates": [[[92.93275, 20.11855556], [93.21, 20.03055556], [93.34375, 20.03766667], [93.48566667, 20.04508333]]]}}, {"type": "Feature", "properties": {"fid": 293, "area_code": "PAC", "airport_identifier": "VYME", "procedure_identifier": "KIDU1E", "transition_identifier": "RW18"}, "geometry": {"type": "MultiLineString", "coordinates": [[[98.61250556, 12.26055], [98.43470556, 12.26041389], [98.43265833, 12.45527778], [98.42920278, 12.78136389], [98.42789444, 12.90530833]]]}}, {"type": "Feature", "properties": {"fid": 300, "area_code": "PAC", "airport_identifier": "VYYY", "procedure_identifier": "VISA1B", "transition_identifier": "RW21"}, "geometry": {"type": "MultiLineString", "coordinates": [[[95.94608333, 16.71743889], [96.09242778, 16.61441944], [96.48135556, 16.79522778], [96.641475, 16.86963333], [97.15594444, 17.10499722]]]}}, {"type": "Feature", "properties": {"fid": 303, "area_code": "PAC", "airport_identifier": "VYYY", "procedure_identifier": "VISA1B", "transition_identifier": "BOMAS"}, "geometry": {"type": "MultiLineString", "coordinates": [[[97.15594444, 17.10499722], [98.09697222, 17.38466667]]]}}, {"type": "Feature", "properties": {"fid": 306, "area_code": "PAC", "airport_identifier": "VYYY", "procedure_identifier": "VISA1B", "transition_identifier": "MAKAS"}, "geometry": {"type": "MultiLineString", "coordinates": [[[97.15594444, 17.10499722], [98.49691667, 16.82972222]]]}}, {"type": "Feature", "properties": {"fid": 310, "area_code": "PAC", "airport_identifier": "VYTD", "procedure_identifier": "TOGE1A", "transition_identifier": "RW02"}, "geometry": {"type": "MultiLineString", "coordinates": [[[94.34150556, 18.56875278], [94.42128056, 18.774625], [94.81464167, 18.77997778]]]}}, {"type": "Feature", "properties": {"fid": 314, "area_code": "PAC", "airport_identifier": "VYSW", "procedure_identifier": "NOGI1C", "transition_identifier": "RW11"}, "geometry": {"type": "MultiLineString", "coordinates": [[[92.93275, 20.11855556], [93.21, 20.03055556], [93.31369444, 19.80513889]]]}}, {"type": "Feature", "properties": {"fid": 318, "area_code": "PAC", "airport_identifier": "VYTD", "procedure_identifier": "BITA1A", "transition_identifier": "RW02"}, "geometry": {"type": "MultiLineString", "coordinates": [[[94.34150556, 18.56875278], [94.42128056, 18.774625], [94.42807778, 19.03343056]]]}}, {"type": "Feature", "properties": {"fid": 323, "area_code": "PAC", "airport_identifier": "VYTD", "procedure_identifier": "MUPI1A", "transition_identifier": "RW02"}, "geometry": {"type": "MultiLineString", "coordinates": [[[94.34150556, 18.56875278], [94.456725, 18.52823333], [94.55973056, 18.43521944], [94.83915, 18.18215556]]]}}, {"type": "Feature", "properties": {"fid": 330, "area_code": "PAC", "airport_identifier": "VYYY", "procedure_identifier": "MAPK1A", "transition_identifier": "RW03"}, "geometry": {"type": "MultiLineString", "coordinates": [[[96.17302778, 16.96575], [96.82797222, 16.88055556], [96.9045, 16.80122222], [96.95836111, 16.56291667], [97.00491667, 16.35775], [97.49638889, 15.44308333]]]}}, {"type": "Feature", "properties": {"fid": 337, "area_code": "PAC", "airport_identifier": "VYMD", "procedure_identifier": "IBON1S", "transition_identifier": "RW17"}, "geometry": {"type": "MultiLineString", "coordinates": [[[95.99594444, 21.59658333], [95.82041667, 21.56455556], [95.78625, 21.72875], [95.92802778, 21.96552778], [96.52383333, 22.33633333], [96.8, 22.35138889]]]}}, {"type": "Feature", "properties": {"fid": 344, "area_code": "PAC", "airport_identifier": "VYYY", "procedure_identifier": "DOLB1B", "transition_identifier": "RW21"}, "geometry": {"type": "MultiLineString", "coordinates": [[[96.00631389, 16.77761667], [95.95852778, 16.91172222], [96.19222222, 17.16733333], [96.51319722, 17.54455556], [96.69679444, 17.752275]]]}}, {"type": "Feature", "properties": {"fid": 347, "area_code": "PAC", "airport_identifier": "VYYY", "procedure_identifier": "DOLB1B", "transition_identifier": "HHO"}, "geometry": {"type": "MultiLineString", "coordinates": [[[96.69679444, 17.752275], [96.78992778, 20.74802778]]]}}, {"type": "Feature", "properties": {"fid": 350, "area_code": "PAC", "airport_identifier": "VYYY", "procedure_identifier": "DOLB1B", "transition_identifier": "LK"}, "geometry": {"type": "MultiLineString", "coordinates": [[[96.69679444, 17.752275], [97.213275, 19.69045556]]]}}, {"type": "Feature", "properties": {"fid": 353, "area_code": "PAC", "airport_identifier": "VYYY", "procedure_identifier": "DOLB1B", "transition_identifier": "LSO"}, "geometry": {"type": "MultiLineString", "coordinates": [[[96.69679444, 17.752275], [97.75421944, 22.98096389]]]}}, {"type": "Feature", "properties": {"fid": 357, "area_code": "PAC", "airport_identifier": "VYTD", "procedure_identifier": "MELE1A", "transition_identifier": "RW02"}, "geometry": {"type": "MultiLineString", "coordinates": [[[94.34150556, 18.56875278], [94.42128056, 18.774625], [94.56524167, 18.98886389]]]}}, {"type": "Feature", "properties": {"fid": 362, "area_code": "PAC", "airport_identifier": "VYME", "procedure_identifier": "KIDU1A", "transition_identifier": "RW18"}, "geometry": {"type": "MultiLineString", "coordinates": [[[98.61651111, 12.34416389], [98.43265833, 12.45527778], [98.42920278, 12.78136389], [98.42789444, 12.90530833]]]}}, {"type": "Feature", "properties": {"fid": 365, "area_code": "PAC", "airport_identifier": "VYYY", "procedure_identifier": "BAGO1A", "transition_identifier": "RW03"}, "geometry": {"type": "MultiLineString", "coordinates": [[[96.251, 17.08030556], [96.51986111, 17.3185]]]}}, {"type": "Feature", "properties": {"fid": 369, "area_code": "PAC", "airport_identifier": "VYMD", "procedure_identifier": "IBON1N", "transition_identifier": "RW35"}, "geometry": {"type": "MultiLineString", "coordinates": [[[95.92802778, 21.96552778], [96.52383333, 22.33633333], [96.8, 22.35138889]]]}}]}