{"type": "FeatureCollection", "name": "star_line", "crs": {"type": "name", "properties": {"name": "urn:ogc:def:crs:OGC:1.3:CRS84"}}, "features": [{"type": "Feature", "properties": {"fid": 372, "area_code": "PAC", "airport_identifier": "VYYY", "procedure_identifier": "ENSI1B", "transition_identifier": "BETNO"}, "geometry": {"type": "MultiLineString", "coordinates": [[[98.20866667, 15.09819444], [97.01456667, 16.37297778]]]}}, {"type": "Feature", "properties": {"fid": 375, "area_code": "PAC", "airport_identifier": "VYYY", "procedure_identifier": "ENSI1B", "transition_identifier": "DWI"}, "geometry": {"type": "MultiLineString", "coordinates": [[[98.20680278, 14.10056111], [97.01456667, 16.37297778]]]}}, {"type": "Feature", "properties": {"fid": 378, "area_code": "PAC", "airport_identifier": "VYYY", "procedure_identifier": "ENSI1B", "transition_identifier": "KT"}, "geometry": {"type": "MultiLineString", "coordinates": [[[98.54006944, 10.05000833], [97.01456667, 16.37297778]]]}}, {"type": "Feature", "properties": {"fid": 381, "area_code": "PAC", "airport_identifier": "VYYY", "procedure_identifier": "ENSI1B", "transition_identifier": "LUDVI"}, "geometry": {"type": "MultiLineString", "coordinates": [[[98.59166667, 15.48034167], [97.01456667, 16.37297778]]]}}, {"type": "Feature", "properties": {"fid": 384, "area_code": "PAC", "airport_identifier": "VYYY", "procedure_identifier": "ENSI1B", "transition_identifier": "ME"}, "geometry": {"type": "MultiLineString", "coordinates": [[[98.61968611, 12.45006667], [97.01456667, 16.37297778]]]}}, {"type": "Feature", "properties": {"fid": 387, "area_code": "PAC", "airport_identifier": "VYYY", "procedure_identifier": "ENSI1B", "transition_identifier": "MM"}, "geometry": {"type": "MultiLineString", "coordinates": [[[97.65773056, 16.44331944], [97.01456667, 16.37297778]]]}}, {"type": "Feature", "properties": {"fid": 390, "area_code": "PAC", "airport_identifier": "VYYY", "procedure_identifier": "ENSI1B", "transition_identifier": "POXEM"}, "geometry": {"type": "MultiLineString", "coordinates": [[[97.49638889, 15.44308333], [97.01456667, 16.37297778]]]}}, {"type": "Feature", "properties": {"fid": 394, "area_code": "PAC", "airport_identifier": "VYYY", "procedure_identifier": "ENSI1B", "transition_identifier": "RW21"}, "geometry": {"type": "MultiLineString", "coordinates": [[[97.01456667, 16.37297778], [96.62710278, 16.75056667], [96.34541667, 17.02355556]]]}}, {"type": "Feature", "properties": {"fid": 398, "area_code": "PAC", "airport_identifier": "VYME", "procedure_identifier": "MELO1D", "transition_identifier": "RW36"}, "geometry": {"type": "MultiLineString", "coordinates": [[[98.50092222, 12.92845], [98.44478611, 12.79687222], [98.52741944, 12.26305278]]]}}, {"type": "Feature", "properties": {"fid": 403, "area_code": "PAC", "airport_identifier": "VYMD", "procedure_identifier": "DOGI1E", "transition_identifier": "RW17"}, "geometry": {"type": "MultiLineString", "coordinates": [[[96.27461111, 20.73691667], [96.18713889, 21.46236111], [96.15475, 21.72825], [96.03327778, 21.90777778]]]}}, {"type": "Feature", "properties": {"fid": 407, "area_code": "PAC", "airport_identifier": "VYSW", "procedure_identifier": "NOGI1D", "transition_identifier": "RW11"}, "geometry": {"type": "MultiLineString", "coordinates": [[[93.31369444, 19.80513889], [93.15658333, 19.93269444], [92.6705, 20.09427778]]]}}, {"type": "Feature", "properties": {"fid": 411, "area_code": "PAC", "airport_identifier": "VYMD", "procedure_identifier": "DOGI1W", "transition_identifier": "RW35"}, "geometry": {"type": "MultiLineString", "coordinates": [[[96.27461111, 20.73691667], [96.08733333, 21.05094444], [96.02811111, 21.42933333]]]}}, {"type": "Feature", "properties": {"fid": 415, "area_code": "PAC", "airport_identifier": "VYSW", "procedure_identifier": "GOKE1B", "transition_identifier": "RW29"}, "geometry": {"type": "MultiLineString", "coordinates": [[[93.48566667, 20.04508333], [93.40686111, 20.05069444], [93.13994444, 20.0695]]]}}, {"type": "Feature", "properties": {"fid": 421, "area_code": "PAC", "airport_identifier": "VYYY", "procedure_identifier": "MAPK1B", "transition_identifier": "RW03"}, "geometry": {"type": "MultiLineString", "coordinates": [[[97.49638889, 15.44308333], [97.00491667, 16.35775], [96.61533333, 16.52788889], [96.20063889, 16.70838889], [96.11230556, 16.70988889]]]}}, {"type": "Feature", "properties": {"fid": 425, "area_code": "PAC", "airport_identifier": "VYMD", "procedure_identifier": "IBON1W", "transition_identifier": "RW35"}, "geometry": {"type": "MultiLineString", "coordinates": [[[96.8, 22.35138889], [96.12975, 21.93427778], [96.10641667, 21.53113889]]]}}, {"type": "Feature", "properties": {"fid": 430, "area_code": "PAC", "airport_identifier": "VYTD", "procedure_identifier": "MELE1B", "transition_identifier": "RW02"}, "geometry": {"type": "MultiLineString", "coordinates": [[[94.56524167, 18.98886389], [94.30018889, 18.79534444], [94.23232778, 18.57759722], [94.15338056, 18.32346944]]]}}, {"type": "Feature", "properties": {"fid": 435, "area_code": "PAC", "airport_identifier": "VYTD", "procedure_identifier": "POPI1B", "transition_identifier": "RW02"}, "geometry": {"type": "MultiLineString", "coordinates": [[[94.73819444, 18.870925], [94.62551111, 18.58479167], [94.48445, 18.43871111], [94.31773056, 18.26558056]]]}}, {"type": "Feature", "properties": {"fid": 440, "area_code": "PAC", "airport_identifier": "VYSW", "procedure_identifier": "ENKE1B", "transition_identifier": "RW29"}, "geometry": {"type": "MultiLineString", "coordinates": [[[93.24202778, 19.74533333], [93.24327778, 19.83388889], [93.24427778, 19.91086111], [93.13994444, 20.0695]]]}}, {"type": "Feature", "properties": {"fid": 444, "area_code": "PAC", "airport_identifier": "VYME", "procedure_identifier": "PAPG1B", "transition_identifier": "RW18"}, "geometry": {"type": "MultiLineString", "coordinates": [[[98.66557222, 11.93956667], [98.79308889, 12.13902222], [98.71483889, 12.61544444]]]}}, {"type": "Feature", "properties": {"fid": 448, "area_code": "PAC", "airport_identifier": "VYSW", "procedure_identifier": "NOGI1B", "transition_identifier": "RW29"}, "geometry": {"type": "MultiLineString", "coordinates": [[[93.31369444, 19.80513889], [93.24427778, 19.91086111], [93.13994444, 20.0695]]]}}, {"type": "Feature", "properties": {"fid": 454, "area_code": "PAC", "airport_identifier": "VYYY", "procedure_identifier": "RISN1B", "transition_identifier": "RW03"}, "geometry": {"type": "MultiLineString", "coordinates": [[[98.59166667, 15.48034167], [97.17330556, 16.83455556], [96.9045, 16.80122222], [96.20063889, 16.70838889], [96.11230556, 16.70988889]]]}}, {"type": "Feature", "properties": {"fid": 459, "area_code": "PAC", "airport_identifier": "VYTD", "procedure_identifier": "ANLO1B", "transition_identifier": "RW02"}, "geometry": {"type": "MultiLineString", "coordinates": [[[93.92921389, 18.928025], [93.99248333, 18.75782222], [94.03402222, 18.64589444], [94.15338056, 18.32346944]]]}}, {"type": "Feature", "properties": {"fid": 464, "area_code": "PAC", "airport_identifier": "VYTD", "procedure_identifier": "MUPI1B", "transition_identifier": "RW02"}, "geometry": {"type": "MultiLineString", "coordinates": [[[94.83915, 18.18215556], [94.68393611, 18.20714167], [94.54235833, 18.22982222], [94.31773056, 18.26558056]]]}}, {"type": "Feature", "properties": {"fid": 469, "area_code": "PAC", "airport_identifier": "VYSW", "procedure_identifier": "GOKE1D", "transition_identifier": "RW11"}, "geometry": {"type": "MultiLineString", "coordinates": [[[93.48566667, 20.04508333], [93.22691667, 20.12419444], [93.06716667, 20.17280556], [92.7135, 20.25655556]]]}}, {"type": "Feature", "properties": {"fid": 473, "area_code": "PAC", "airport_identifier": "VYSW", "procedure_identifier": "ENKE1D", "transition_identifier": "RW11"}, "geometry": {"type": "MultiLineString", "coordinates": [[[93.24202778, 19.74533333], [93.06666667, 19.85277778], [92.6705, 20.09427778]]]}}, {"type": "Feature", "properties": {"fid": 476, "area_code": "PAC", "airport_identifier": "VYHH", "procedure_identifier": "REMI1B", "transition_identifier": "RW36"}, "geometry": {"type": "MultiLineString", "coordinates": [[[96.74366667, 20.16347222], [96.79061111, 20.41258333]]]}}, {"type": "Feature", "properties": {"fid": 482, "area_code": "PAC", "airport_identifier": "VYSW", "procedure_identifier": "POME1D", "transition_identifier": "RW11"}, "geometry": {"type": "MultiLineString", "coordinates": [[[93.46113889, 19.95036111], [93.34375, 20.03766667], [93.22691667, 20.12419444], [93.06716667, 20.17280556], [92.7135, 20.25655556]]]}}, {"type": "Feature", "properties": {"fid": 487, "area_code": "PAC", "airport_identifier": "VYTD", "procedure_identifier": "TOGE1B", "transition_identifier": "RW02"}, "geometry": {"type": "MultiLineString", "coordinates": [[[94.81464167, 18.77997778], [94.62551111, 18.58479167], [94.48445, 18.43871111], [94.31773056, 18.26558056]]]}}, {"type": "Feature", "properties": {"fid": 491, "area_code": "PAC", "airport_identifier": "VYMD", "procedure_identifier": "THAZ1W", "transition_identifier": "RW35"}, "geometry": {"type": "MultiLineString", "coordinates": [[[96.35636111, 21.25866667], [96.20208333, 21.33891667], [96.02811111, 21.42933333]]]}}, {"type": "Feature", "properties": {"fid": 494, "area_code": "PAC", "airport_identifier": "VYYY", "procedure_identifier": "RELA1A", "transition_identifier": "BOMAS"}, "geometry": {"type": "MultiLineString", "coordinates": [[[98.09697222, 17.38466667], [97.07345278, 17.34313889]]]}}, {"type": "Feature", "properties": {"fid": 497, "area_code": "PAC", "airport_identifier": "VYYY", "procedure_identifier": "RELA1A", "transition_identifier": "MAKAS"}, "geometry": {"type": "MultiLineString", "coordinates": [[[98.49691667, 16.82972222], [97.07345278, 17.34313889]]]}}, {"type": "Feature", "properties": {"fid": 501, "area_code": "PAC", "airport_identifier": "VYYY", "procedure_identifier": "RELA1A", "transition_identifier": "RW21"}, "geometry": {"type": "MultiLineString", "coordinates": [[[97.07345278, 17.34313889], [96.51986111, 17.3185], [96.32894444, 17.14961111]]]}}, {"type": "Feature", "properties": {"fid": 504, "area_code": "PAC", "airport_identifier": "VYSW", "procedure_identifier": "POME1B", "transition_identifier": "RW29"}, "geometry": {"type": "MultiLineString", "coordinates": [[[93.46113889, 19.95036111], [93.13994444, 20.0695]]]}}, {"type": "Feature", "properties": {"fid": 508, "area_code": "PAC", "airport_identifier": "VYYY", "procedure_identifier": "BAGO1B", "transition_identifier": "RW03"}, "geometry": {"type": "MultiLineString", "coordinates": [[[96.51986111, 17.3185], [96.19222222, 17.16733333], [95.95386111, 16.80977778]]]}}, {"type": "Feature", "properties": {"fid": 511, "area_code": "PAC", "airport_identifier": "VYYY", "procedure_identifier": "OKIK1B", "transition_identifier": "BGN"}, "geometry": {"type": "MultiLineString", "coordinates": [[[94.92815278, 21.16953611], [95.771625, 17.84839167]]]}}, {"type": "Feature", "properties": {"fid": 514, "area_code": "PAC", "airport_identifier": "VYYY", "procedure_identifier": "OKIK1B", "transition_identifier": "DORLI"}, "geometry": {"type": "MultiLineString", "coordinates": [[[94.70424722, 19.25747778], [95.771625, 17.84839167]]]}}, {"type": "Feature", "properties": {"fid": 517, "area_code": "PAC", "airport_identifier": "VYYY", "procedure_identifier": "OKIK1B", "transition_identifier": "IBITA"}, "geometry": {"type": "MultiLineString", "coordinates": [[[91.99694444, 18.92], [95.771625, 17.84839167]]]}}, {"type": "Feature", "properties": {"fid": 520, "area_code": "PAC", "airport_identifier": "VYYY", "procedure_identifier": "OKIK1B", "transition_identifier": "KL"}, "geometry": {"type": "MultiLineString", "coordinates": [[[94.05850278, 23.18873333], [95.771625, 17.84839167]]]}}, {"type": "Feature", "properties": {"fid": 523, "area_code": "PAC", "airport_identifier": "VYYY", "procedure_identifier": "OKIK1B", "transition_identifier": "KP"}, "geometry": {"type": "MultiLineString", "coordinates": [[[93.53663889, 19.42919444], [95.771625, 17.84839167]]]}}, {"type": "Feature", "properties": {"fid": 526, "area_code": "PAC", "airport_identifier": "VYYY", "procedure_identifier": "OKIK1B", "transition_identifier": "SAGOD"}, "geometry": {"type": "MultiLineString", "coordinates": [[[91.99694444, 17.93], [95.771625, 17.84839167]]]}}, {"type": "Feature", "properties": {"fid": 529, "area_code": "PAC", "airport_identifier": "VYYY", "procedure_identifier": "OKIK1B", "transition_identifier": "STW"}, "geometry": {"type": "MultiLineString", "coordinates": [[[92.87871111, 20.13291111], [95.771625, 17.84839167]]]}}, {"type": "Feature", "properties": {"fid": 532, "area_code": "PAC", "airport_identifier": "VYYY", "procedure_identifier": "OKIK1B", "transition_identifier": "SUMSU"}, "geometry": {"type": "MultiLineString", "coordinates": [[[94.72381111, 18.57933611], [95.771625, 17.84839167]]]}}, {"type": "Feature", "properties": {"fid": 535, "area_code": "PAC", "airport_identifier": "VYYY", "procedure_identifier": "OKIK1B", "transition_identifier": "TDE"}, "geometry": {"type": "MultiLineString", "coordinates": [[[94.29576389, 18.45671389], [95.771625, 17.84839167]]]}}, {"type": "Feature", "properties": {"fid": 538, "area_code": "PAC", "airport_identifier": "VYYY", "procedure_identifier": "OKIK1B", "transition_identifier": "RW21"}, "geometry": {"type": "MultiLineString", "coordinates": [[[95.771625, 17.84839167], [96.19222222, 17.16733333]]]}}, {"type": "Feature", "properties": {"fid": 541, "area_code": "PAC", "airport_identifier": "VYYY", "procedure_identifier": "OROM1A", "transition_identifier": "HHO"}, "geometry": {"type": "MultiLineString", "coordinates": [[[96.78992778, 20.74802778], [96.49019444, 18.21035833]]]}}, {"type": "Feature", "properties": {"fid": 544, "area_code": "PAC", "airport_identifier": "VYYY", "procedure_identifier": "OROM1A", "transition_identifier": "LK"}, "geometry": {"type": "MultiLineString", "coordinates": [[[97.213275, 19.69045556], [96.49019444, 18.21035833]]]}}, {"type": "Feature", "properties": {"fid": 547, "area_code": "PAC", "airport_identifier": "VYYY", "procedure_identifier": "OROM1A", "transition_identifier": "LSO"}, "geometry": {"type": "MultiLineString", "coordinates": [[[97.75421944, 22.98096389], [96.49019444, 18.21035833]]]}}, {"type": "Feature", "properties": {"fid": 550, "area_code": "PAC", "airport_identifier": "VYYY", "procedure_identifier": "OROM1A", "transition_identifier": "MOXIS"}, "geometry": {"type": "MultiLineString", "coordinates": [[[96.29219722, 19.64729167], [96.49019444, 18.21035833]]]}}, {"type": "Feature", "properties": {"fid": 553, "area_code": "PAC", "airport_identifier": "VYYY", "procedure_identifier": "OROM1A", "transition_identifier": "NPT"}, "geometry": {"type": "MultiLineString", "coordinates": [[[96.19558333, 19.62655556], [96.49019444, 18.21035833]]]}}, {"type": "Feature", "properties": {"fid": 557, "area_code": "PAC", "airport_identifier": "VYYY", "procedure_identifier": "OROM1A", "transition_identifier": "RW21"}, "geometry": {"type": "MultiLineString", "coordinates": [[[96.49019444, 18.21035833], [96.51986111, 17.3185], [96.32894444, 17.14961111]]]}}, {"type": "Feature", "properties": {"fid": 560, "area_code": "PAC", "airport_identifier": "VYYY", "procedure_identifier": "OKIK1A", "transition_identifier": "BGN"}, "geometry": {"type": "MultiLineString", "coordinates": [[[94.92815278, 21.16953611], [95.771625, 17.84839167]]]}}, {"type": "Feature", "properties": {"fid": 563, "area_code": "PAC", "airport_identifier": "VYYY", "procedure_identifier": "OKIK1A", "transition_identifier": "DORLI"}, "geometry": {"type": "MultiLineString", "coordinates": [[[94.70424722, 19.25747778], [95.771625, 17.84839167]]]}}, {"type": "Feature", "properties": {"fid": 566, "area_code": "PAC", "airport_identifier": "VYYY", "procedure_identifier": "OKIK1A", "transition_identifier": "IBITA"}, "geometry": {"type": "MultiLineString", "coordinates": [[[91.99694444, 18.92], [95.771625, 17.84839167]]]}}, {"type": "Feature", "properties": {"fid": 569, "area_code": "PAC", "airport_identifier": "VYYY", "procedure_identifier": "OKIK1A", "transition_identifier": "KL"}, "geometry": {"type": "MultiLineString", "coordinates": [[[94.05850278, 23.18873333], [95.771625, 17.84839167]]]}}, {"type": "Feature", "properties": {"fid": 572, "area_code": "PAC", "airport_identifier": "VYYY", "procedure_identifier": "OKIK1A", "transition_identifier": "KP"}, "geometry": {"type": "MultiLineString", "coordinates": [[[93.53663889, 19.42919444], [95.771625, 17.84839167]]]}}, {"type": "Feature", "properties": {"fid": 575, "area_code": "PAC", "airport_identifier": "VYYY", "procedure_identifier": "OKIK1A", "transition_identifier": "SAGOD"}, "geometry": {"type": "MultiLineString", "coordinates": [[[91.99694444, 17.93], [95.771625, 17.84839167]]]}}, {"type": "Feature", "properties": {"fid": 578, "area_code": "PAC", "airport_identifier": "VYYY", "procedure_identifier": "OKIK1A", "transition_identifier": "STW"}, "geometry": {"type": "MultiLineString", "coordinates": [[[92.87871111, 20.13291111], [95.771625, 17.84839167]]]}}, {"type": "Feature", "properties": {"fid": 581, "area_code": "PAC", "airport_identifier": "VYYY", "procedure_identifier": "OKIK1A", "transition_identifier": "SUMSU"}, "geometry": {"type": "MultiLineString", "coordinates": [[[94.72381111, 18.57933611], [95.771625, 17.84839167]]]}}, {"type": "Feature", "properties": {"fid": 584, "area_code": "PAC", "airport_identifier": "VYYY", "procedure_identifier": "OKIK1A", "transition_identifier": "TDE"}, "geometry": {"type": "MultiLineString", "coordinates": [[[94.29576389, 18.45671389], [95.771625, 17.84839167]]]}}, {"type": "Feature", "properties": {"fid": 589, "area_code": "PAC", "airport_identifier": "VYYY", "procedure_identifier": "OKIK1A", "transition_identifier": "RW21"}, "geometry": {"type": "MultiLineString", "coordinates": [[[95.771625, 17.84839167], [95.99811944, 17.68867778], [96.51986111, 17.3185], [96.32894444, 17.14961111]]]}}, {"type": "Feature", "properties": {"fid": 592, "area_code": "PAC", "airport_identifier": "VYMD", "procedure_identifier": "THAD1E", "transition_identifier": "RW17"}, "geometry": {"type": "MultiLineString", "coordinates": [[[96.12975, 21.93427778], [96.03327778, 21.90777778]]]}}, {"type": "Feature", "properties": {"fid": 595, "area_code": "PAC", "airport_identifier": "VYYY", "procedure_identifier": "ENSI1A", "transition_identifier": "BETNO"}, "geometry": {"type": "MultiLineString", "coordinates": [[[98.20866667, 15.09819444], [97.01456667, 16.37297778]]]}}, {"type": "Feature", "properties": {"fid": 598, "area_code": "PAC", "airport_identifier": "VYYY", "procedure_identifier": "ENSI1A", "transition_identifier": "DWI"}, "geometry": {"type": "MultiLineString", "coordinates": [[[98.20680278, 14.10056111], [97.01456667, 16.37297778]]]}}, {"type": "Feature", "properties": {"fid": 601, "area_code": "PAC", "airport_identifier": "VYYY", "procedure_identifier": "ENSI1A", "transition_identifier": "KT"}, "geometry": {"type": "MultiLineString", "coordinates": [[[98.54006944, 10.05000833], [97.01456667, 16.37297778]]]}}, {"type": "Feature", "properties": {"fid": 604, "area_code": "PAC", "airport_identifier": "VYYY", "procedure_identifier": "ENSI1A", "transition_identifier": "LUDVI"}, "geometry": {"type": "MultiLineString", "coordinates": [[[98.59166667, 15.48034167], [97.01456667, 16.37297778]]]}}, {"type": "Feature", "properties": {"fid": 607, "area_code": "PAC", "airport_identifier": "VYYY", "procedure_identifier": "ENSI1A", "transition_identifier": "ME"}, "geometry": {"type": "MultiLineString", "coordinates": [[[98.61968611, 12.45006667], [97.01456667, 16.37297778]]]}}, {"type": "Feature", "properties": {"fid": 610, "area_code": "PAC", "airport_identifier": "VYYY", "procedure_identifier": "ENSI1A", "transition_identifier": "MM"}, "geometry": {"type": "MultiLineString", "coordinates": [[[97.65773056, 16.44331944], [97.01456667, 16.37297778]]]}}, {"type": "Feature", "properties": {"fid": 613, "area_code": "PAC", "airport_identifier": "VYYY", "procedure_identifier": "ENSI1A", "transition_identifier": "POXEM"}, "geometry": {"type": "MultiLineString", "coordinates": [[[97.49638889, 15.44308333], [97.01456667, 16.37297778]]]}}, {"type": "Feature", "properties": {"fid": 618, "area_code": "PAC", "airport_identifier": "VYYY", "procedure_identifier": "ENSI1A", "transition_identifier": "RW21"}, "geometry": {"type": "MultiLineString", "coordinates": [[[97.01456667, 16.37297778], [96.81046389, 16.76524444], [96.51986111, 17.3185], [96.32894444, 17.14961111]]]}}, {"type": "Feature", "properties": {"fid": 621, "area_code": "PAC", "airport_identifier": "VYME", "procedure_identifier": "MELO1B", "transition_identifier": "RW18"}, "geometry": {"type": "MultiLineString", "coordinates": [[[98.50092222, 12.92845], [98.63371667, 12.70300833]]]}}, {"type": "Feature", "properties": {"fid": 626, "area_code": "PAC", "airport_identifier": "VYTD", "procedure_identifier": "BITA1B", "transition_identifier": "RW02"}, "geometry": {"type": "MultiLineString", "coordinates": [[[94.42807778, 19.03343056], [94.30018889, 18.79534444], [94.23232778, 18.57759722], [94.15338056, 18.32346944]]]}}, {"type": "Feature", "properties": {"fid": 629, "area_code": "PAC", "airport_identifier": "VYME", "procedure_identifier": "PAPG1D", "transition_identifier": "RW36"}, "geometry": {"type": "MultiLineString", "coordinates": [[[98.66557222, 11.93956667], [98.60843333, 12.17551389]]]}}, {"type": "Feature", "properties": {"fid": 636, "area_code": "PAC", "airport_identifier": "VYYY", "procedure_identifier": "REBO1B", "transition_identifier": "RW03"}, "geometry": {"type": "MultiLineString", "coordinates": [[[98.20866667, 15.09819444], [97.11813889, 16.57916667], [96.95836111, 16.56291667], [96.61533333, 16.52788889], [96.20063889, 16.70838889], [96.11230556, 16.70988889]]]}}, {"type": "Feature", "properties": {"fid": 639, "area_code": "PAC", "airport_identifier": "VYME", "procedure_identifier": "KIDU1B", "transition_identifier": "RW18"}, "geometry": {"type": "MultiLineString", "coordinates": [[[98.42789444, 12.90530833], [98.63371667, 12.70300833]]]}}, {"type": "Feature", "properties": {"fid": 643, "area_code": "PAC", "airport_identifier": "VYHH", "procedure_identifier": "SURO1B", "transition_identifier": "RW36"}, "geometry": {"type": "MultiLineString", "coordinates": [[[96.40605556, 21.2065], [96.51355556, 20.66413889], [96.68458333, 20.54144444]]]}}, {"type": "Feature", "properties": {"fid": 648, "area_code": "PAC", "airport_identifier": "VYMD", "procedure_identifier": "HEHO1E", "transition_identifier": "RW17"}, "geometry": {"type": "MultiLineString", "coordinates": [[[96.27602778, 21.35544444], [96.18713889, 21.46236111], [96.15475, 21.72825], [96.03327778, 21.90777778]]]}}, {"type": "Feature", "properties": {"fid": 652, "area_code": "PAC", "airport_identifier": "VYME", "procedure_identifier": "KIDU1D", "transition_identifier": "RW36"}, "geometry": {"type": "MultiLineString", "coordinates": [[[98.42789444, 12.90530833], [98.44478611, 12.79687222], [98.52741944, 12.26305278]]]}}]}